#DEBUG: Format Typ    -> comma
#DEBUG: Time Period   -> 2017-04-01 00:00:00+00:00 2017-04-02 00:00:00+00:00
#DEBUG: Time Zone     -> Etc/UTC
#DEBUG: Data Contact   -> daryl herzmann akrherz@iastate.edu 515-294-5978
#DEBUG: Entries Found -> -1
station,valid,lon,lat,tmpf, dwpf, relh, drct, sknt, p01i, alti, mslp, vsby, gust, skyc1, skyc2, skyc3, skyc4, skyl1, skyl2, skyl3, skyl4, presentwx, metar
UUU,2017-04-01 00:00,-71.2815,41.5324,M,M,M,90.00,13.00,0.02,29.99,M,6.00,M,BKN,OVC,M,M,1100.00,1999.00,M,M,-RA BR,KUUU 010000Z AUTO 09013KT 6SM -RA BR BKN011 OVC019 A2999 RMK P0002 WND 05V12  MADISHF
UUU,2017-04-01 00:05,-71.2815,41.5324,35.10,34.00,95.71,90.00,14.00,0.02,29.98,M,5.00,20.00,BKN,OVC,M,M,1100.00,2100.00,M,M,-RA BR,KUUU 010005Z AUTO 09014G20KT 5SM -RA BR BKN011 OVC021 02/01 A2998 RMK AO2 P0002 T00170011
UUU,2017-04-01 00:10,-71.2815,41.5324,M,M,M,90.00,13.00,0.03,29.98,M,6.00,M,BKN,BKN,OVC,M,1100.00,1600.00,2100.00,M,-RA BR,KUUU 010010Z AUTO 09013KT 6SM -RA BR BKN011 BKN016 OVC021 A2998 RMK P0003 MADISHF
UUU,2017-04-01 00:15,-71.2815,41.5324,M,M,M,90.00,13.00,0.03,29.98,M,6.00,M,BKN,OVC,M,M,1100.00,1800.00,M,M,-RA BR,KUUU 010015Z AUTO 09013KT 6SM -RA BR BKN011 OVC018 A2998 RMK P0003 MADISHF
UUU,2017-04-01 00:20,-71.2815,41.5324,M,M,M,90.00,15.00,0.04,29.98,M,6.00,M,BKN,OVC,M,M,1100.00,1800.00,M,M,RA BR,KUUU 010020Z AUTO 09015KT 6SM RA BR BKN011 OVC018 A2998 RMK P0004 MADISHF
UUU,2017-04-01 00:25,-71.2815,41.5324,M,M,M,90.00,15.00,0.05,29.98,M,6.00,20.00,BKN,OVC,M,M,1100.00,1900.00,M,M,-RA BR,KUUU 010025Z AUTO 09015G20KT 6SM -RA BR BKN011 OVC019 A2998 RMK P0005 MADISHF
UUU,2017-04-01 00:30,-71.2815,41.5324,M,M,M,90.00,13.00,0.06,29.98,M,6.00,M,BKN,OVC,M,M,1100.00,1900.00,M,M,-RA BR,KUUU 010030Z AUTO 09013KT 6SM -RA BR BKN011 OVC019 A2998 RMK P0006 MADISHF
UUU,2017-04-01 00:35,-71.2815,41.5324,M,M,M,80.00,14.00,0.06,29.98,M,5.00,M,BKN,OVC,M,M,1100.00,1900.00,M,M,-RA BR,KUUU 010035Z AUTO 08014KT 5SM -RA BR BKN011 OVC019 A2998 RMK P0006 MADISHF
UUU,2017-04-01 00:40,-71.2815,41.5324,M,M,M,80.00,13.00,0.07,29.98,M,6.00,M,BKN,OVC,M,M,1100.00,1900.00,M,M,-RA BR,KUUU 010040Z AUTO 08013KT 6SM -RA BR BKN011 OVC019 A2998 RMK P0007 MADISHF
UUU,2017-04-01 00:45,-71.2815,41.5324,M,M,M,90.00,16.00,0.07,29.98,M,5.00,M,BKN,OVC,M,M,1100.00,1900.00,M,M,-RA BR,KUUU 010045Z AUTO 09016KT 5SM -RA BR BKN011 OVC019 A2998 RMK P0007 MADISHF
UUU,2017-04-01 00:50,-71.2815,41.5324,M,M,M,90.00,15.00,0.08,29.98,M,5.00,M,BKN,OVC,M,M,1100.00,1900.00,M,M,-RA BR,KUUU 010050Z AUTO 09015KT 5SM -RA BR BKN011 OVC019 A2998 RMK P0008 MADISHF
UUU,2017-04-01 00:53,-71.2815,41.5324,35.10,33.10,92.32,90.00,13.00,0.08,29.97,1014.90,5.00,22.00,BKN,OVC,M,M,1100.00,1900.00,M,M,-RA BR,KUUU 010053Z AUTO 09013G22KT 5SM -RA BR BKN011 OVC019 02/01 A2997 RMK AO2 SLP149 P0008 T00170006
UUU,2017-04-01 00:55,-71.2815,41.5324,M,M,M,90.00,14.00,0.01,29.97,M,5.00,M,BKN,OVC,M,M,1100.00,1900.00,M,M,-RA BR,KUUU 010055Z AUTO 09014KT 5SM -RA BR BKN011 OVC019 A2997 RMK P0001 CIG 8V15  MADISHF
UUU,2017-04-01 01:00,-71.2815,41.5324,M,M,M,90.00,14.00,0.01,29.97,M,5.00,M,BKN,OVC,M,M,1100.00,1900.00,M,M,-RA BR,KUUU 010100Z AUTO 09014KT 5SM -RA BR BKN011 OVC019 A2997 RMK P0001 MADISHF
UUU,2017-04-01 01:05,-71.2815,41.5324,M,M,M,80.00,11.00,0.02,29.97,M,5.00,M,BKN,OVC,M,M,1100.00,1900.00,M,M,-RA BR,KUUU 010105Z AUTO 08011KT 5SM -RA BR BKN011 OVC019 A2997 RMK P0002 MADISHF
UUU,2017-04-01 01:10,-71.2815,41.5324,M,M,M,90.00,15.00,0.03,29.96,M,5.00,M,BKN,OVC,M,M,900.00,1400.00,M,M,-RA BR,KUUU 010110Z AUTO 09015KT 5SM -RA BR BKN009 OVC014 A2996 RMK P0003 MADISHF
UUU,2017-04-01 01:15,-71.2815,41.5324,35.10,34.00,95.71,90.00,14.00,0.03,29.96,M,5.00,23.00,BKN,OVC,M,M,900.00,1900.00,M,M,-RA BR,KUUU 010115Z AUTO 09014G23KT 5SM -RA BR BKN009 OVC019 02/01 A2996 RMK AO2 P0003 T00170011
UUU,2017-04-01 01:20,-71.2815,41.5324,M,M,M,90.00,13.00,0.04,29.96,M,6.00,M,BKN,OVC,M,M,1100.00,1900.00,M,M,-RA BR,KUUU 010120Z AUTO 09013KT 6SM -RA BR BKN011 OVC019 A2996 RMK P0004 MADISHF
UUU,2017-04-01 01:25,-71.2815,41.5324,35.10,34.00,95.71,90.00,15.00,0.05,29.95,M,6.00,21.00,BKN,OVC,M,M,1100.00,2000.00,M,M,-RA BR,KUUU 010125Z AUTO 09015G21KT 6SM -RA BR BKN011 OVC020 02/01 A2995 RMK AO2 P0005 T00170011
UUU,2017-04-01 01:30,-71.2815,41.5324,M,M,M,90.00,10.00,0.05,29.95,M,6.00,M,BKN,OVC,M,M,1100.00,1999.00,M,M,-RA BR,KUUU 010130Z AUTO 09010KT 6SM -RA BR BKN011 OVC019 A2995 RMK P0005 MADISHF
UUU,2017-04-01 01:35,-71.2815,41.5324,M,M,M,80.00,15.00,0.06,29.95,M,6.00,M,BKN,OVC,M,M,1100.00,1800.00,M,M,-RA BR,KUUU 010135Z AUTO 08015KT 6SM -RA BR BKN011 OVC018 A2995 RMK P0006 MADISHF
UUU,2017-04-01 01:40,-71.2815,41.5324,M,M,M,90.00,14.00,0.06,29.95,M,6.00,M,BKN,OVC,M,M,1100.00,1900.00,M,M,-RA BR,KUUU 010140Z AUTO 09014KT 6SM -RA BR BKN011 OVC019 A2995 RMK P0006 MADISHF
UUU,2017-04-01 01:45,-71.2815,41.5324,M,M,M,90.00,14.00,0.07,29.95,M,6.00,19.00,BKN,OVC,M,M,1100.00,1900.00,M,M,RA BR,KUUU 010145Z AUTO 09014G19KT 6SM RA BR BKN011 OVC019 A2995 RMK P0007 MADISHF
UUU,2017-04-01 01:50,-71.2815,41.5324,M,M,M,90.00,15.00,0.08,29.94,M,5.00,M,BKN,OVC,M,M,1100.00,1800.00,M,M,-RA BR,KUUU 010150Z AUTO 09015KT 5SM -RA BR BKN011 OVC018 A2994 RMK P0008 MADISHF
UUU,2017-04-01 01:53,-71.2815,41.5324,36.00,34.00,92.35,80.00,15.00,0.08,29.94,1013.90,5.00,21.00,BKN,OVC,M,M,1100.00,1800.00,M,M,-RA BR,KUUU 010153Z AUTO 08015G21KT 5SM -RA BR BKN011 OVC018 02/01 A2994 RMK AO2 SLP139 P0008 T00220011
UUU,2017-04-01 01:55,-71.2815,41.5324,M,M,M,90.00,12.00,0.01,29.94,M,5.00,17.00,BKN,OVC,M,M,1100.00,1800.00,M,M,-RA BR,KUUU 010155Z AUTO 09012G17KT 5SM -RA BR BKN011 OVC018 A2994 RMK P0001 MADISHF
UUU,2017-04-01 02:00,-71.2815,41.5324,M,M,M,90.00,13.00,0.01,29.94,M,5.00,18.00,BKN,OVC,M,M,1100.00,1800.00,M,M,-RA BR,KUUU 010200Z AUTO 09013G18KT 5SM -RA BR BKN011 OVC018 A2994 RMK P0001 MADISHF
UUU,2017-04-01 02:05,-71.2815,41.5324,M,M,M,80.00,12.00,0.02,29.93,M,5.00,M,BKN,OVC,M,M,1100.00,1800.00,M,M,RA BR,KUUU 010205Z AUTO 08012KT 5SM RA BR BKN011 OVC018 A2993 RMK P0002 MADISHF
UUU,2017-04-01 02:10,-71.2815,41.5324,M,M,M,90.00,15.00,0.03,29.93,M,5.00,M,BKN,OVC,M,M,999.00,1800.00,M,M,RA BR,KUUU 010210Z AUTO 09015KT 5SM RA BR BKN009 OVC018 A2993 RMK P0003 MADISHF
UUU,2017-04-01 02:15,-71.2815,41.5324,M,M,M,90.00,11.00,0.04,29.93,M,5.00,M,BKN,OVC,M,M,999.00,1699.00,M,M,-RA BR,KUUU 010215Z AUTO 09011KT 5SM -RA BR BKN009 OVC016 A2993 RMK P0004 MADISHF
UUU,2017-04-01 02:20,-71.2815,41.5324,M,M,M,90.00,14.00,0.04,29.92,M,6.00,M,BKN,OVC,M,M,999.00,1699.00,M,M,RA BR,KUUU 010220Z AUTO 09014KT 6SM RA BR BKN009 OVC016 A2992 RMK P0004 MADISHF
UUU,2017-04-01 02:25,-71.2815,41.5324,M,M,M,80.00,13.00,0.05,29.92,M,5.00,18.00,OVC,M,M,M,1200.00,M,M,M,RA BR,KUUU 010225Z AUTO 08013G18KT 5SM RA BR OVC012 A2992 RMK P0005 MADISHF
UUU,2017-04-01 02:30,-71.2815,41.5324,M,M,M,90.00,14.00,0.06,29.92,M,5.00,M,OVC,M,M,M,1200.00,M,M,M,RA BR,KUUU 010230Z AUTO 09014KT 5SM RA BR OVC012 A2992 RMK P0006 MADISHF
UUU,2017-04-01 02:35,-71.2815,41.5324,M,M,M,90.00,15.00,0.07,29.91,M,5.00,M,BKN,OVC,M,M,999.00,1600.00,M,M,RA BR,KUUU 010235Z AUTO 09015KT 5SM RA BR BKN009 OVC016 A2991 RMK P0007 MADISHF
UUU,2017-04-01 02:40,-71.2815,41.5324,M,M,M,90.00,16.00,0.08,29.91,M,5.00,M,BKN,OVC,M,M,999.00,1699.00,M,M,RA BR,KUUU 010240Z AUTO 09016KT 5SM RA BR BKN009 OVC016 A2991 RMK P0008 MADISHF
UUU,2017-04-01 02:45,-71.2815,41.5324,M,M,M,80.00,13.00,0.09,29.91,M,5.00,20.00,OVC,M,M,M,1200.00,M,M,M,RA BR,KUUU 010245Z AUTO 08013G20KT 5SM RA BR OVC012 A2991 RMK P0009 MADISHF
UUU,2017-04-01 02:50,-71.2815,41.5324,M,M,M,90.00,17.00,0.10,29.91,M,5.00,M,BKN,OVC,M,M,900.00,1600.00,M,M,RA BR,KUUU 010250Z AUTO 09017KT 5SM RA BR BKN009 OVC016 A2991 RMK P0010 MADISHF
UUU,2017-04-01 02:53,-71.2815,41.5324,36.00,35.10,96.49,90.00,13.00,0.11,29.90,1012.60,5.00,26.00,BKN,OVC,M,M,1100.00,1600.00,M,M,RA BR,KUUU 010253Z AUTO 09013G26KT 5SM RA BR BKN011 OVC016 02/02 A2990 RMK AO2 PK WND 09026/0249 SLP126 P0011 60027 T00220017 58028
UUU,2017-04-01 02:55,-71.2815,41.5324,M,M,M,90.00,16.00,M,29.90,M,5.00,M,BKN,OVC,M,M,1100.00,1600.00,M,M,RA BR,KUUU 010255Z AUTO 09016KT 5SM RA BR BKN011 OVC016 A2990 RMK MADISHF
UUU,2017-04-01 03:00,-71.2815,41.5324,M,M,M,80.00,14.00,0.01,29.90,M,5.00,22.00,BKN,OVC,M,M,1100.00,1800.00,M,M,RA BR,KUUU 010300Z AUTO 08014G22KT 5SM RA BR BKN011 OVC018 A2990 RMK P0001 MADISHF
UUU,2017-04-01 03:05,-71.2815,41.5324,M,M,M,80.00,14.00,0.02,29.89,M,5.00,19.00,BKN,OVC,M,M,900.00,1500.00,M,M,RA BR,KUUU 010305Z AUTO 08014G19KT 5SM RA BR BKN009 OVC015 A2989 RMK P0002 MADISHF
UUU,2017-04-01 03:10,-71.2815,41.5324,M,M,M,90.00,16.00,0.03,29.89,M,5.00,M,BKN,OVC,M,M,900.00,1400.00,M,M,RA BR,KUUU 010310Z AUTO 09016KT 5SM RA BR BKN009 OVC014 A2989 RMK P0003 MADISHF
UUU,2017-04-01 03:15,-71.2815,41.5324,M,M,M,90.00,15.00,0.04,29.89,M,5.00,M,OVC,M,M,M,1100.00,M,M,M,-RA BR,KUUU 010315Z AUTO 09015KT 5SM -RA BR OVC011 A2989 RMK P0004 MADISHF
UUU,2017-04-01 03:20,-71.2815,41.5324,M,M,M,90.00,15.00,0.05,29.89,M,6.00,20.00,BKN,OVC,M,M,900.00,1400.00,M,M,-RA BR,KUUU 010320Z AUTO 09015G20KT 6SM -RA BR BKN009 OVC014 A2989 RMK P0005 MADISHF
UUU,2017-04-01 03:24,-71.2815,41.5324,36.00,35.10,96.49,80.00,16.00,0.05,29.89,M,6.00,23.00,BKN,OVC,M,M,900.00,1400.00,M,M,-RA BR,KUUU 010324Z AUTO 08016G23KT 6SM -RA BR BKN009 OVC014 02/02 A2989 RMK AO2 P0005 T00220017
UUU,2017-04-01 03:25,-71.2815,41.5324,M,M,M,80.00,16.00,0.05,29.89,M,6.00,23.00,OVC,M,M,M,900.00,M,M,M,RA BR,KUUU 010325Z AUTO 08016G23KT 6SM RA BR OVC009 A2989 RMK P0005 MADISHF
UUU,2017-04-01 03:30,-71.2815,41.5324,M,M,M,90.00,16.00,0.06,29.88,M,5.00,M,BKN,OVC,M,M,900.00,1300.00,M,M,RA BR,KUUU 010330Z AUTO 09016KT 5SM RA BR BKN009 OVC013 A2988 RMK P0006 MADISHF
UUU,2017-04-01 03:35,-71.2815,41.5324,M,M,M,80.00,14.00,0.07,29.88,M,4.00,M,BKN,OVC,M,M,900.00,1300.00,M,M,RA BR,KUUU 010335Z AUTO 08014KT 4SM RA BR BKN009 OVC013 A2988 RMK P0007 MADISHF
UUU,2017-04-01 03:40,-71.2815,41.5324,M,M,M,90.00,13.00,0.09,29.88,M,4.00,M,BKN,OVC,M,M,900.00,1400.00,M,M,RA BR,KUUU 010340Z AUTO 09013KT 4SM RA BR BKN009 OVC014 A2988 RMK P0009 MADISHF
UUU,2017-04-01 03:45,-71.2815,41.5324,M,M,M,90.00,15.00,0.09,29.87,M,4.00,21.00,OVC,M,M,M,999.00,M,M,M,RA BR,KUUU 010345Z AUTO 09015G21KT 4SM RA BR OVC009 A2987 RMK P0009 MADISHF
UUU,2017-04-01 03:50,-71.2815,41.5324,M,M,M,90.00,14.00,0.10,29.88,M,4.00,M,OVC,M,M,M,999.00,M,M,M,-RA BR,KUUU 010350Z AUTO 09014KT 4SM -RA BR OVC009 A2988 RMK P0010 MADISHF
UUU,2017-04-01 03:51,-71.2815,41.5324,35.60,35.60,100.00,90.00,12.00,0.10,29.87,M,4.00,25.00,OVC,M,M,M,1000.00,M,M,M,-RA BR,KUUU 010351Z AUTO 09012G25KT 4SM -RA BR OVC010 02/02 A2987 RMK AO2 P0010
UUU,2017-04-01 03:53,-71.2815,41.5324,36.00,35.10,96.49,80.00,14.00,0.10,29.87,1011.50,4.00,25.00,BKN,OVC,M,M,1000.00,1300.00,M,M,-RA BR,KUUU 010353Z AUTO 08014G25KT 4SM -RA BR BKN010 OVC013 02/02 A2987 RMK AO2 SLP115 P0010 T00220017
UUU,2017-04-01 03:55,-71.2815,41.5324,M,M,M,90.00,15.00,0.01,29.87,M,4.00,M,BKN,OVC,M,M,900.00,1300.00,M,M,-RA BR,KUUU 010355Z AUTO 09015KT 4SM -RA BR BKN009 OVC013 A2987 RMK P0001 MADISHF
UUU,2017-04-01 04:00,-71.2815,41.5324,M,M,M,90.00,15.00,0.02,29.86,M,4.00,M,BKN,OVC,M,M,900.00,1400.00,M,M,RA BR,KUUU 010400Z AUTO 09015KT 4SM RA BR BKN009 OVC014 A2986 RMK P0002 MADISHF
UUU,2017-04-01 04:01,-71.2815,41.5324,36.00,36.00,100.00,90.00,15.00,0.02,29.87,M,4.00,22.00,BKN,OVC,M,M,900.00,1400.00,M,M,RA BR,KUUU 010401Z AUTO 09015G22KT 4SM RA BR BKN009 OVC014 02/02 A2987 RMK AO2 P0002 T00220022
UUU,2017-04-01 04:05,-71.2815,41.5324,M,M,M,90.00,19.00,0.03,29.87,M,4.00,24.00,BKN,OVC,M,M,900.00,1400.00,M,M,RA BR,KUUU 010405Z AUTO 09019G24KT 4SM RA BR BKN009 OVC014 A2987 RMK P0003 MADISHF
UUU,2017-04-01 04:10,-71.2815,41.5324,M,M,M,80.00,16.00,0.04,29.86,M,4.00,M,OVC,M,M,M,1100.00,M,M,M,RA BR,KUUU 010410Z AUTO 08016KT 4SM RA BR OVC011 A2986 RMK P0004 MADISHF
UUU,2017-04-01 04:15,-71.2815,41.5324,M,M,M,80.00,18.00,0.05,29.86,M,3.50,M,BKN,OVC,M,M,900.00,1400.00,M,M,RA BR,KUUU 010415Z AUTO 08018KT 3SM RA BR BKN009 OVC014 A2986 RMK P0005 MADISHF
UUU,2017-04-01 04:20,-71.2815,41.5324,M,M,M,90.00,17.00,0.06,29.85,M,3.50,M,BKN,OVC,M,M,900.00,1400.00,M,M,RA BR,KUUU 010420Z AUTO 09017KT 3SM RA BR BKN009 OVC014 A2985 RMK P0006 MADISHF
UUU,2017-04-01 04:25,-71.2815,41.5324,M,M,M,80.00,17.00,0.06,29.85,M,4.00,23.00,BKN,OVC,M,M,900.00,1400.00,M,M,RA BR,KUUU 010425Z AUTO 08017G23KT 4SM RA BR BKN009 OVC014 A2985 RMK P0006 MADISHF
UUU,2017-04-01 04:30,-71.2815,41.5324,M,M,M,80.00,14.00,0.07,29.85,M,3.50,M,SCT,OVC,M,M,900.00,1200.00,M,M,-RA BR,KUUU 010430Z AUTO 08014KT 3SM -RA BR SCT009 OVC012 A2985 RMK P0007 MADISHF
UUU,2017-04-01 04:35,-71.2815,41.5324,M,M,M,80.00,16.00,0.07,29.84,M,3.50,M,OVC,M,M,M,900.00,M,M,M,-RA BR,KUUU 010435Z AUTO 08016KT 3SM -RA BR OVC009 A2984 RMK P0007 MADISHF
UUU,2017-04-01 04:40,-71.2815,41.5324,M,M,M,90.00,13.00,0.08,29.84,M,3.50,M,OVC,M,M,M,900.00,M,M,M,-RA BR,KUUU 010440Z AUTO 09013KT 3SM -RA BR OVC009 A2984 RMK P0008 MADISHF
UUU,2017-04-01 04:45,-71.2815,41.5324,M,M,M,90.00,15.00,0.08,29.84,M,3.50,20.00,BKN,OVC,M,M,900.00,1200.00,M,M,-RA BR,KUUU 010445Z AUTO 09015G20KT 3SM -RA BR BKN009 OVC012 A2984 RMK P0008 MADISHF
UUU,2017-04-01 04:50,-71.2815,41.5324,M,M,M,90.00,18.00,0.08,29.84,M,4.00,M,OVC,M,M,M,900.00,M,M,M,-RA BR,KUUU 010450Z AUTO 09018KT 4SM -RA BR OVC009 A2984 RMK P0008 MADISHF
UUU,2017-04-01 04:53,-71.2815,41.5324,37.00,36.00,96.13,90.00,14.00,0.09,29.83,1010.30,3.00,27.00,BKN,OVC,M,M,900.00,1300.00,M,M,-RA BR,KUUU 010453Z AUTO 09014G27KT 3SM -RA BR BKN009 OVC013 03/02 A2983 RMK AO2 PK WND 10027/0423 SLP103 P0009 T00280022 400390017
UUU,2017-04-01 04:55,-71.2815,41.5324,M,M,M,90.00,15.00,M,29.83,M,3.00,20.00,BKN,OVC,M,M,900.00,1300.00,M,M,-RA BR,KUUU 010455Z AUTO 09015G20KT 3SM -RA BR BKN009 OVC013 A2983 RMK MADISHF
UUU,2017-04-01 05:00,-71.2815,41.5324,M,M,M,90.00,17.00,M,29.83,M,2.50,22.00,BKN,OVC,M,M,900.00,1500.00,M,M,-RA BR,KUUU 010500Z AUTO 09017G22KT 2 1/2SM -RA BR BKN009 OVC015 A2983 RMK MADISHF
UUU,2017-04-01 05:02,-71.2815,41.5324,37.00,36.00,96.13,90.00,16.00,0.01,29.83,M,2.50,23.00,OVC,M,M,M,900.00,M,M,M,-RA BR,KUUU 010502Z AUTO 09016G23KT 2 1/2SM -RA BR OVC009 03/02 A2983 RMK AO2 P0001 T00280022
UUU,2017-04-01 05:05,-71.2815,41.5324,M,M,M,80.00,12.00,0.01,29.83,M,2.50,19.00,OVC,M,M,M,900.00,M,M,M,-RA BR,KUUU 010505Z AUTO 08012G19KT 2 1/2SM -RA BR OVC009 A2983 RMK P0001 MADISHF
UUU,2017-04-01 05:10,-71.2815,41.5324,M,M,M,80.00,12.00,0.02,29.83,M,2.50,19.00,OVC,M,M,M,900.00,M,M,M,RA BR,KUUU 010510Z AUTO 08012G19KT 2 1/2SM RA BR OVC009 A2983 RMK P0002 MADISHF
UUU,2017-04-01 05:15,-71.2815,41.5324,M,M,M,80.00,15.00,0.03,29.83,M,2.50,M,OVC,M,M,M,900.00,M,M,M,RA BR,KUUU 010515Z AUTO 08015KT 2 1/2SM RA BR OVC009 A2983 RMK P0003 MADISHF
UUU,2017-04-01 05:20,-71.2815,41.5324,M,M,M,80.00,16.00,0.05,29.82,M,2.00,M,BKN,OVC,M,M,900.00,1500.00,M,M,RA BR,KUUU 010520Z AUTO 08016KT 2SM RA BR BKN009 OVC015 A2982 RMK P0005 MADISHF
UUU,2017-04-01 05:25,-71.2815,41.5324,M,M,M,80.00,16.00,0.06,29.81,M,2.00,21.00,BKN,OVC,M,M,900.00,1500.00,M,M,RA BR,KUUU 010525Z AUTO 08016G21KT 2SM RA BR BKN009 OVC015 A2981 RMK P0006 MADISHF
UUU,2017-04-01 05:30,-71.2815,41.5324,M,M,M,80.00,16.00,0.07,29.81,M,3.00,M,OVC,M,M,M,900.00,M,M,M,RA BR,KUUU 010530Z AUTO 08016KT 3SM RA BR OVC009 A2981 RMK P0007 MADISHF
UUU,2017-04-01 05:35,-71.2815,41.5324,M,M,M,80.00,14.00,0.08,29.81,M,4.00,M,BKN,OVC,M,M,900.00,1500.00,M,M,-RA BR,KUUU 010535Z AUTO 08014KT 4SM -RA BR BKN009 OVC015 A2981 RMK P0008 MADISHF
UUU,2017-04-01 05:36,-71.2815,41.5324,37.00,36.00,96.13,80.00,15.00,0.08,29.81,M,4.00,24.00,BKN,OVC,M,M,900.00,1500.00,M,M,-RA BR,KUUU 010536Z AUTO 08015G24KT 4SM -RA BR BKN009 OVC015 03/02 A2981 RMK AO2 P0008 T00280022
UUU,2017-04-01 05:40,-71.2815,41.5324,M,M,M,80.00,17.00,0.09,29.81,M,4.00,M,BKN,OVC,M,M,900.00,1300.00,M,M,-RA BR,KUUU 010540Z AUTO 08017KT 4SM -RA BR BKN009 OVC013 A2981 RMK P0009 MADISHF
UUU,2017-04-01 05:45,-71.2815,41.5324,M,M,M,80.00,16.00,0.11,29.81,M,2.50,21.00,BKN,OVC,M,M,900.00,1300.00,M,M,+RA BR,KUUU 010545Z AUTO 08016G21KT 2 1/2SM +RA BR BKN009 OVC013 A2981 RMK P0011 MADISHF
UUU,2017-04-01 05:47,-71.2815,41.5324,37.40,35.60,93.14,80.00,16.00,0.12,29.81,M,2.50,25.00,OVC,M,M,M,1000.00,M,M,M,+RA BR,KUUU 010547Z AUTO 08016G25KT 2 1/2SM +RA BR OVC010 03/02 A2981 RMK AO2 P0012
UUU,2017-04-01 05:50,-71.2815,41.5324,M,M,M,80.00,11.00,0.13,29.81,M,2.00,M,OVC,M,M,M,999.00,M,M,M,RA BR,KUUU 010550Z AUTO 08011KT 2SM RA BR OVC009 A2981 RMK P0013 MADISHF
UUU,2017-04-01 05:53,-71.2815,41.5324,37.00,36.00,96.13,80.00,15.00,0.15,29.80,1009.20,2.00,22.00,OVC,M,M,M,1000.00,M,M,M,RA BR,KUUU 010553Z AUTO 08015G22KT 2SM RA BR OVC010 03/02 A2980 RMK AO2 SLP092 P0015 60061 T00280022 10028 20017 58024
UUU,2017-04-01 05:55,-71.2815,41.5324,M,M,M,80.00,18.00,M,29.80,M,2.50,M,OVC,M,M,M,999.00,M,M,M,RA BR,KUUU 010555Z AUTO 08018KT 2 1/2SM RA BR OVC009 A2980 RMK MADISHF
UUU,2017-04-01 06:00,-71.2815,41.5324,M,M,M,80.00,15.00,0.01,29.80,M,3.00,M,OVC,M,M,M,999.00,M,M,M,-RA BR,KUUU 010600Z AUTO 08015KT 3SM -RA BR OVC009 A2980 RMK P0001 MADISHF
UUU,2017-04-01 06:05,-71.2815,41.5324,M,M,M,80.00,15.00,0.01,29.79,M,3.00,M,OVC,M,M,M,999.00,M,M,M,-RA BR,KUUU 010605Z AUTO 08015KT 3SM -RA BR OVC009 A2979 RMK P0001 MADISHF
UUU,2017-04-01 06:06,-71.2815,41.5324,37.00,36.00,96.13,80.00,13.00,0.01,29.79,M,3.00,23.00,OVC,M,M,M,1000.00,M,M,M,-RA BR,KUUU 010606Z AUTO 08013G23KT 3SM -RA BR OVC010 03/02 A2979 RMK AO2 PK WND 09026/0554 P0001 T00280022
UUU,2017-04-01 06:10,-71.2815,41.5324,M,M,M,80.00,14.00,0.02,29.79,M,3.00,M,BKN,OVC,M,M,999.00,1300.00,M,M,-RA BR,KUUU 010610Z AUTO 08014KT 3SM -RA BR BKN009 OVC013 A2979 RMK P0002 MADISHF
UUU,2017-04-01 06:15,-71.2815,41.5324,M,M,M,80.00,14.00,0.02,29.78,M,3.00,M,BKN,OVC,M,M,999.00,1300.00,M,M,-RA BR,KUUU 010615Z AUTO 08014KT 3SM -RA BR BKN009 OVC013 A2978 RMK P0002 MADISHF
UUU,2017-04-01 06:20,-71.2815,41.5324,M,M,M,90.00,19.00,0.04,29.78,M,3.00,M,OVC,M,M,M,999.00,M,M,M,RA BR,KUUU 010620Z AUTO 09019KT 3SM RA BR OVC009 A2978 RMK P0004 MADISHF
UUU,2017-04-01 06:25,-71.2815,41.5324,M,M,M,80.00,15.00,0.05,29.78,M,2.50,M,BKN,OVC,M,M,999.00,1300.00,M,M,RA BR,KUUU 010625Z AUTO 08015KT 2 1/2SM RA BR BKN009 OVC013 A2978 RMK P0005 MADISHF
UUU,2017-04-01 06:27,-71.2815,41.5324,37.00,36.00,96.13,80.00,14.00,0.05,29.77,M,2.50,29.00,BKN,OVC,M,M,1000.00,1300.00,M,M,RA BR,KUUU 010627Z AUTO 08014G29KT 2 1/2SM RA BR BKN010 OVC013 03/02 A2977 RMK AO2 PK WND 09029/0619 P0005 T00280022
UUU,2017-04-01 06:30,-71.2815,41.5324,M,M,M,80.00,15.00,0.06,29.77,M,2.00,20.00,BKN,OVC,M,M,999.00,1600.00,M,M,RA BR,KUUU 010630Z AUTO 08015G20KT 2SM RA BR BKN009 OVC016 A2977 RMK P0006 MADISHF
UUU,2017-04-01 06:35,-71.2815,41.5324,M,M,M,80.00,18.00,0.08,29.77,M,2.50,M,SCT,OVC,M,M,800.00,1300.00,M,M,RA BR,KUUU 010635Z AUTO 08018KT 2 1/2SM RA BR SCT008 OVC013 A2977 RMK P0008 MADISHF
UUU,2017-04-01 06:37,-71.2815,41.5324,37.00,36.00,96.13,70.00,15.00,0.09,29.77,M,2.00,25.00,SCT,OVC,M,M,800.00,1300.00,M,M,RA BR,KUUU 010637Z AUTO 07015G25KT 2SM RA BR SCT008 OVC013 03/02 A2977 RMK AO2 PK WND 09029/0619 P0009 T00280022
UUU,2017-04-01 06:40,-71.2815,41.5324,M,M,M,70.00,14.00,0.09,29.77,M,2.50,M,BKN,OVC,M,M,800.00,1300.00,M,M,RA BR,KUUU 010640Z AUTO 07014KT 2 1/2SM RA BR BKN008 OVC013 A2977 RMK P0009 MADISHF
UUU,2017-04-01 06:43,-71.2815,41.5324,37.00,36.00,96.13,80.00,14.00,0.09,29.76,M,3.00,25.00,BKN,OVC,M,M,800.00,1500.00,M,M,-RA BR,KUUU 010643Z AUTO 08014G25KT 3SM -RA BR BKN008 OVC015 03/02 A2976 RMK AO2 PK WND 09029/0619 P0009 T00280022
UUU,2017-04-01 06:45,-71.2815,41.5324,M,M,M,80.00,15.00,0.10,29.76,M,3.50,20.00,BKN,OVC,M,M,800.00,1500.00,M,M,-RA BR,KUUU 010645Z AUTO 08015G20KT 3SM -RA BR BKN008 OVC015 A2976 RMK P0010 MADISHF
UUU,2017-04-01 06:50,-71.2815,41.5324,M,M,M,80.00,14.00,0.10,29.76,M,5.00,M,BKN,OVC,M,M,800.00,1500.00,M,M,-RA BR,KUUU 010650Z AUTO 08014KT 5SM -RA BR BKN008 OVC015 A2976 RMK P0010 MADISHF
UUU,2017-04-01 06:53,-71.2815,41.5324,37.00,36.00,96.13,80.00,14.00,0.10,29.76,1007.90,5.00,21.00,BKN,OVC,M,M,800.00,1500.00,M,M,-RA BR,KUUU 010653Z AUTO 08014G21KT 5SM -RA BR BKN008 OVC015 03/02 A2976 RMK AO2 PK WND 09029/0619 SLP079 P0010 T00280022
UUU,2017-04-01 06:55,-71.2815,41.5324,M,M,M,80.00,15.00,M,29.76,M,4.00,M,BKN,OVC,M,M,800.00,1500.00,M,M,-RA BR,KUUU 010655Z AUTO 08015KT 4SM -RA BR BKN008 OVC015 A2976 RMK MADISHF
UUU,2017-04-01 07:00,-71.2815,41.5324,M,M,M,80.00,13.00,0.01,29.76,M,3.50,M,BKN,OVC,M,M,900.00,1500.00,M,M,-RA BR,KUUU 010700Z AUTO 08013KT 3SM -RA BR BKN009 OVC015 A2976 RMK P0001 MADISHF
UUU,2017-04-01 07:05,-71.2815,41.5324,M,M,M,80.00,13.00,0.01,29.76,M,4.00,18.00,BKN,OVC,M,M,900.00,1500.00,M,M,-RA BR,KUUU 010705Z AUTO 08013G18KT 4SM -RA BR BKN009 OVC015 A2976 RMK P0001 MADISHF
UUU,2017-04-01 07:10,-71.2815,41.5324,M,M,M,80.00,12.00,0.01,29.77,M,5.00,M,BKN,OVC,M,M,900.00,1500.00,M,M,-RA BR,KUUU 010710Z AUTO 08012KT 5SM -RA BR BKN009 OVC015 A2977 RMK P0001 WND 05V11  MADISHF
UUU,2017-04-01 07:15,-71.2815,41.5324,M,M,M,70.00,10.00,0.01,29.77,M,7.00,20.00,BKN,OVC,M,M,900.00,1400.00,M,M,-RA,KUUU 010715Z AUTO 07010G20KT 7SM -RA BKN009 OVC014 A2977 RMK P0001 MADISHF
UUU,2017-04-01 07:20,-71.2815,41.5324,M,M,M,70.00,14.00,0.02,29.76,M,5.00,M,OVC,M,M,M,900.00,M,M,M,-RA BR,KUUU 010720Z AUTO 07014KT 5SM -RA BR OVC009 A2976 RMK P0002 MADISHF
UUU,2017-04-01 07:25,-71.2815,41.5324,M,M,M,70.00,14.00,0.02,29.74,M,3.50,M,BKN,OVC,M,M,900.00,1400.00,M,M,-RA BR,KUUU 010725Z AUTO 07014KT 3SM -RA BR BKN009 OVC014 A2974 RMK P0002 MADISHF
UUU,2017-04-01 07:30,-71.2815,41.5324,M,M,M,70.00,16.00,0.02,29.74,M,3.00,M,BKN,OVC,M,M,1100.00,1400.00,M,M,-RA BR,KUUU 010730Z AUTO 07016KT 3SM -RA BR BKN011 OVC014 A2974 RMK P0002 MADISHF
UUU,2017-04-01 07:34,-71.2815,41.5324,37.00,36.00,96.13,70.00,13.00,0.03,29.74,M,3.00,24.00,BKN,OVC,M,M,1100.00,1400.00,M,M,-RA BR,KUUU 010734Z AUTO 07013G24KT 3SM -RA BR BKN011 OVC014 03/02 A2974 RMK AO2 P0003 T00280022
UUU,2017-04-01 07:35,-71.2815,41.5324,M,M,M,80.00,13.00,0.04,29.74,M,3.00,19.00,BKN,OVC,M,M,1100.00,1400.00,M,M,RA BR,KUUU 010735Z AUTO 08013G19KT 3SM RA BR BKN011 OVC014 A2974 RMK P0004 MADISHF
UUU,2017-04-01 07:40,-71.2815,41.5324,M,M,M,80.00,12.00,0.05,29.74,M,3.00,19.00,BKN,OVC,M,M,1100.00,1400.00,M,M,RA BR,KUUU 010740Z AUTO 08012G19KT 3SM RA BR BKN011 OVC014 A2974 RMK P0005 MADISHF
UUU,2017-04-01 07:45,-71.2815,41.5324,M,M,M,60.00,11.00,0.06,29.73,M,4.00,M,OVC,M,M,M,1200.00,M,M,M,RA BR,KUUU 010745Z AUTO 06011KT 4SM RA BR OVC012 A2973 RMK P0006 MADISHF
UUU,2017-04-01 07:50,-71.2815,41.5324,M,M,M,70.00,14.00,0.07,29.73,M,5.00,19.00,BKN,OVC,M,M,999.00,1600.00,M,M,RA BR,KUUU 010750Z AUTO 07014G19KT 5SM RA BR BKN009 OVC016 A2973 RMK P0007 MADISHF
UUU,2017-04-01 07:53,-71.2815,41.5324,37.00,36.00,96.13,70.00,14.00,0.07,29.72,1006.50,5.00,22.00,BKN,OVC,M,M,1000.00,1600.00,M,M,RA BR,KUUU 010753Z AUTO 07014G22KT 5SM RA BR BKN010 OVC016 03/02 A2972 RMK AO2 SLP065 P0007 T00280022
UUU,2017-04-01 07:55,-71.2815,41.5324,M,M,M,70.00,13.00,0.01,29.72,M,4.00,M,BKN,OVC,M,M,999.00,1600.00,M,M,RA BR,KUUU 010755Z AUTO 07013KT 4SM RA BR BKN009 OVC016 A2972 RMK P0001 MADISHF
UUU,2017-04-01 08:00,-71.2815,41.5324,M,M,M,70.00,13.00,0.02,29.71,M,4.00,M,BKN,OVC,M,M,999.00,1600.00,M,M,RA BR,KUUU 010800Z AUTO 07013KT 4SM RA BR BKN009 OVC016 A2971 RMK P0002 MADISHF
UUU,2017-04-01 08:05,-71.2815,41.5324,M,M,M,70.00,15.00,0.03,29.71,M,5.00,M,BKN,OVC,M,M,999.00,1600.00,M,M,RA BR,KUUU 010805Z AUTO 07015KT 5SM RA BR BKN009 OVC016 A2971 RMK P0003 MADISHF
UUU,2017-04-01 08:10,-71.2815,41.5324,M,M,M,70.00,17.00,0.04,29.70,M,5.00,M,BKN,OVC,M,M,999.00,1800.00,M,M,RA BR,KUUU 010810Z AUTO 07017KT 5SM RA BR BKN009 OVC018 A2970 RMK P0004 MADISHF
UUU,2017-04-01 08:15,-71.2815,41.5324,M,M,M,70.00,14.00,0.05,29.70,M,4.00,19.00,BKN,OVC,M,M,999.00,1999.00,M,M,RA BR,KUUU 010815Z AUTO 07014G19KT 4SM RA BR BKN009 OVC019 A2970 RMK P0005 MADISHF
UUU,2017-04-01 08:20,-71.2815,41.5324,M,M,M,70.00,13.00,0.06,29.69,M,5.00,M,BKN,OVC,M,M,999.00,1800.00,M,M,RA BR,KUUU 010820Z AUTO 07013KT 5SM RA BR BKN009 OVC018 A2969 RMK P0006 MADISHF
UUU,2017-04-01 08:25,-71.2815,41.5324,M,M,M,70.00,15.00,0.08,29.69,M,4.00,M,BKN,OVC,M,M,999.00,1800.00,M,M,RA BR,KUUU 010825Z AUTO 07015KT 4SM RA BR BKN009 OVC018 A2969 RMK P0008 MADISHF
UUU,2017-04-01 08:30,-71.2815,41.5324,M,M,M,60.00,14.00,0.09,29.68,M,4.00,19.00,BKN,BKN,OVC,M,999.00,1300.00,2100.00,M,RA BR,KUUU 010830Z AUTO 06014G19KT 4SM RA BR BKN009 BKN013 OVC021 A2968 RMK P0009 MADISHF
UUU,2017-04-01 08:35,-71.2815,41.5324,M,M,M,70.00,12.00,0.11,29.68,M,4.00,M,BKN,OVC,M,M,999.00,1900.00,M,M,RA BR,KUUU 010835Z AUTO 07012KT 4SM RA BR BKN009 OVC019 A2968 RMK P0011 MADISHF
UUU,2017-04-01 08:40,-71.2815,41.5324,M,M,M,60.00,16.00,0.12,29.67,M,4.00,22.00,SCT,BKN,OVC,M,999.00,1300.00,1900.00,M,RA BR,KUUU 010840Z AUTO 06016G22KT 4SM RA BR SCT009 BKN013 OVC019 A2967 RMK P0012 MADISHF
UUU,2017-04-01 08:45,-71.2815,41.5324,M,M,M,70.00,15.00,0.13,29.67,M,4.00,M,BKN,OVC,M,M,999.00,1900.00,M,M,RA BR,KUUU 010845Z AUTO 07015KT 4SM RA BR BKN009 OVC019 A2967 RMK P0013 MADISHF
UUU,2017-04-01 08:50,-71.2815,41.5324,M,M,M,60.00,17.00,0.14,29.67,M,5.00,M,BKN,OVC,M,M,999.00,1900.00,M,M,RA BR,KUUU 010850Z AUTO 06017KT 5SM RA BR BKN009 OVC019 A2967 RMK P0014 MADISHF
UUU,2017-04-01 08:53,-71.2815,41.5324,37.00,36.00,96.13,60.00,16.00,0.15,29.67,1004.80,5.00,27.00,BKN,BKN,OVC,M,1000.00,1300.00,1900.00,M,RA BR,KUUU 010853Z AUTO 06016G27KT 5SM RA BR BKN010 BKN013 OVC019 03/02 A2967 RMK AO2 PK WND 05027/0846 SLP048 P0015 60032 T00280022 58044
UUU,2017-04-01 08:55,-71.2815,41.5324,M,M,M,60.00,14.00,M,29.67,M,5.00,M,BKN,BKN,OVC,M,999.00,1300.00,1900.00,M,RA BR,KUUU 010855Z AUTO 06014KT 5SM RA BR BKN009 BKN013 OVC019 A2967 RMK MADISHF
UUU,2017-04-01 09:00,-71.2815,41.5324,M,M,M,60.00,12.00,0.01,29.67,M,5.00,17.00,BKN,OVC,M,M,999.00,1800.00,M,M,RA BR,KUUU 010900Z AUTO 06012G17KT 5SM RA BR BKN009 OVC018 A2967 RMK P0001 MADISHF
UUU,2017-04-01 09:05,-71.2815,41.5324,M,M,M,50.00,15.00,0.03,29.67,M,4.00,M,BKN,OVC,M,M,999.00,1800.00,M,M,RA BR,KUUU 010905Z AUTO 05015KT 4SM RA BR BKN009 OVC018 A2967 RMK P0003 MADISHF
UUU,2017-04-01 09:10,-71.2815,41.5324,M,M,M,50.00,13.00,0.05,29.67,M,4.00,M,BKN,OVC,M,M,999.00,1600.00,M,M,RA BR,KUUU 010910Z AUTO 05013KT 4SM RA BR BKN009 OVC016 A2967 RMK P0005 MADISHF
UUU,2017-04-01 09:15,-71.2815,41.5324,M,M,M,60.00,11.00,0.07,29.67,M,3.50,M,BKN,OVC,M,M,999.00,1600.00,M,M,+RA BR,KUUU 010915Z AUTO 06011KT 3SM +RA BR BKN009 OVC016 A2967 RMK P0007 MADISHF
UUU,2017-04-01 09:20,-71.2815,41.5324,M,M,M,50.00,16.00,0.08,29.67,M,3.50,M,BKN,OVC,M,M,999.00,1600.00,M,M,RA BR,KUUU 010920Z AUTO 05016KT 3SM RA BR BKN009 OVC016 A2967 RMK P0008 MADISHF
UUU,2017-04-01 09:25,-71.2815,41.5324,M,M,M,50.00,9.00,0.10,29.67,M,4.00,M,BKN,OVC,M,M,999.00,1600.00,M,M,RA BR,KUUU 010925Z AUTO 05009KT 4SM RA BR BKN009 OVC016 A2967 RMK P0010 MADISHF
UUU,2017-04-01 09:30,-71.2815,41.5324,M,M,M,50.00,13.00,0.12,29.67,M,3.50,M,BKN,OVC,M,M,999.00,1400.00,M,M,RA BR,KUUU 010930Z AUTO 05013KT 3SM RA BR BKN009 OVC014 A2967 RMK P0012 MADISHF
UUU,2017-04-01 09:35,-71.2815,41.5324,M,M,M,40.00,12.00,0.14,29.68,M,3.00,M,OVC,M,M,M,1200.00,M,M,M,+RA BR,KUUU 010935Z AUTO 04012KT 3SM +RA BR OVC012 A2968 RMK P0014 MADISHF
UUU,2017-04-01 09:40,-71.2815,41.5324,M,M,M,50.00,11.00,0.16,29.68,M,3.00,M,BKN,OVC,M,M,999.00,1400.00,M,M,RA BR,KUUU 010940Z AUTO 05011KT 3SM RA BR BKN009 OVC014 A2968 RMK P0016 MADISHF
UUU,2017-04-01 09:45,-71.2815,41.5324,M,M,M,40.00,11.00,0.19,29.67,M,3.00,M,BKN,OVC,M,M,999.00,1400.00,M,M,+RA BR,KUUU 010945Z AUTO 04011KT 3SM +RA BR BKN009 OVC014 A2967 RMK P0019 MADISHF
UUU,2017-04-01 09:50,-71.2815,41.5324,M,M,M,50.00,12.00,0.21,29.67,M,3.00,M,SCT,OVC,M,M,999.00,1400.00,M,M,RA BR,KUUU 010950Z AUTO 05012KT 3SM RA BR SCT009 OVC014 A2967 RMK P0021 MADISHF
UUU,2017-04-01 09:53,-71.2815,41.5324,37.90,37.00,96.52,40.00,14.00,0.22,29.67,1004.80,3.00,20.00,SCT,OVC,M,M,900.00,1400.00,M,M,RA BR,KUUU 010953Z AUTO 04014G20KT 3SM RA BR SCT009 OVC014 03/03 A2967 RMK AO2 SLP048 P0022 T00330028
UUU,2017-04-01 09:55,-71.2815,41.5324,M,M,M,40.00,12.00,M,29.67,M,3.50,M,SCT,OVC,M,M,900.00,1400.00,M,M,RA BR,KUUU 010955Z AUTO 04012KT 3SM RA BR SCT009 OVC014 A2967 RMK MADISHF
UUU,2017-04-01 10:00,-71.2815,41.5324,M,M,M,40.00,12.00,0.01,29.67,M,4.00,M,SCT,OVC,M,M,900.00,1500.00,M,M,RA BR,KUUU 011000Z AUTO 04012KT 4SM RA BR SCT009 OVC015 A2967 RMK P0001 MADISHF
UUU,2017-04-01 10:05,-71.2815,41.5324,M,M,M,50.00,13.00,0.02,29.67,M,4.00,M,SCT,OVC,M,M,900.00,1500.00,M,M,RA BR,KUUU 011005Z AUTO 05013KT 4SM RA BR SCT009 OVC015 A2967 RMK P0002 MADISHF
UUU,2017-04-01 10:06,-71.2815,41.5324,37.00,37.00,100.00,40.00,13.00,0.02,29.67,M,4.00,M,SCT,OVC,M,M,900.00,1500.00,M,M,RA BR,KUUU 011006Z AUTO 04013KT 4SM RA BR SCT009 OVC015 03/03 A2967 RMK AO2 P0002 T00280028
UUU,2017-04-01 10:10,-71.2815,41.5324,M,M,M,40.00,12.00,0.03,29.66,M,3.50,M,OVC,M,M,M,1500.00,M,M,M,RA BR,KUUU 011010Z AUTO 04012KT 3SM RA BR OVC015 A2966 RMK P0003 MADISHF
UUU,2017-04-01 10:15,-71.2815,41.5324,M,M,M,30.00,12.00,0.05,29.66,M,3.00,M,OVC,M,M,M,1500.00,M,M,M,RA BR,KUUU 011015Z AUTO 03012KT 3SM RA BR OVC015 A2966 RMK P0005 MADISHF
UUU,2017-04-01 10:20,-71.2815,41.5324,M,M,M,30.00,13.00,0.06,29.66,M,3.00,M,OVC,M,M,M,1400.00,M,M,M,RA BR,KUUU 011020Z AUTO 03013KT 3SM RA BR OVC014 A2966 RMK P0006 MADISHF
UUU,2017-04-01 10:22,-71.2815,41.5324,37.00,37.00,100.00,30.00,14.00,0.07,29.66,M,3.00,M,OVC,M,M,M,1400.00,M,M,M,RA BR,KUUU 011022Z AUTO 03014KT 3SM RA BR OVC014 03/03 A2966 RMK AO2 P0007 T00280028
UUU,2017-04-01 10:25,-71.2815,41.5324,M,M,M,30.00,13.00,0.08,29.66,M,3.00,M,OVC,M,M,M,1400.00,M,M,M,RA BR,KUUU 011025Z AUTO 03013KT 3SM RA BR OVC014 A2966 RMK P0008 MADISHF
UUU,2017-04-01 10:30,-71.2815,41.5324,M,M,M,30.00,14.00,0.10,29.66,M,3.00,M,FEW,OVC,M,M,999.00,1400.00,M,M,RA BR,KUUU 011030Z AUTO 03014KT 3SM RA BR FEW009 OVC014 A2966 RMK P0010 MADISHF
UUU,2017-04-01 10:35,-71.2815,41.5324,M,M,M,40.00,12.00,0.11,29.66,M,3.50,M,OVC,M,M,M,1600.00,M,M,M,RA BR,KUUU 011035Z AUTO 04012KT 3SM RA BR OVC016 A2966 RMK P0011 MADISHF
UUU,2017-04-01 10:40,-71.2815,41.5324,M,M,M,30.00,11.00,0.12,29.67,M,4.00,M,FEW,OVC,M,M,700.00,1400.00,M,M,RA BR,KUUU 011040Z AUTO 03011KT 4SM RA BR FEW007 OVC014 A2967 RMK P0012 MADISHF
UUU,2017-04-01 10:41,-71.2815,41.5324,37.90,37.00,96.52,30.00,12.00,0.13,29.67,M,4.00,M,FEW,OVC,M,M,900.00,1600.00,M,M,RA BR,KUUU 011041Z AUTO 03012KT 4SM RA BR FEW009 OVC016 03/03 A2967 RMK AO2 P0013 T00330028
UUU,2017-04-01 10:45,-71.2815,41.5324,M,M,M,30.00,10.00,0.14,29.67,M,4.00,M,FEW,OVC,M,M,900.00,1600.00,M,M,RA BR,KUUU 011045Z AUTO 03010KT 4SM RA BR FEW009 OVC016 A2967 RMK P0014 MADISHF
UUU,2017-04-01 10:50,-71.2815,41.5324,M,M,M,30.00,12.00,0.15,29.67,M,4.00,M,FEW,OVC,M,M,900.00,1600.00,M,M,RA BR,KUUU 011050Z AUTO 03012KT 4SM RA BR FEW009 OVC016 A2967 RMK P0015 MADISHF
UUU,2017-04-01 10:53,-71.2815,41.5324,37.90,37.00,96.52,30.00,12.00,0.16,29.67,1004.60,4.00,M,SCT,OVC,M,M,900.00,1400.00,M,M,RA BR,KUUU 011053Z AUTO 03012KT 4SM RA BR SCT009 OVC014 03/03 A2967 RMK AO2 SLP046 P0016 T00330028
UUU,2017-04-01 10:55,-71.2815,41.5324,M,M,M,30.00,11.00,0.01,29.66,M,4.00,M,SCT,OVC,M,M,900.00,1400.00,M,M,RA BR,KUUU 011055Z AUTO 03011KT 4SM RA BR SCT009 OVC014 A2966 RMK P0001 MADISHF
UUU,2017-04-01 11:00,-71.2815,41.5324,M,M,M,20.00,12.00,0.02,29.66,M,3.50,M,SCT,OVC,M,M,900.00,1400.00,M,M,RA BR,KUUU 011100Z AUTO 02012KT 3SM RA BR SCT009 OVC014 A2966 RMK P0002 MADISHF
UUU,2017-04-01 11:05,-71.2815,41.5324,M,M,M,20.00,14.00,0.03,29.66,M,3.50,M,SCT,OVC,M,M,900.00,1400.00,M,M,RA BR,KUUU 011105Z AUTO 02014KT 3SM RA BR SCT009 OVC014 A2966 RMK P0003 MADISHF
UUU,2017-04-01 11:10,-71.2815,41.5324,M,M,M,30.00,14.00,0.05,29.66,M,3.50,M,SCT,OVC,M,M,999.00,1400.00,M,M,RA BR,KUUU 011110Z AUTO 03014KT 3SM RA BR SCT009 OVC014 A2966 RMK P0005 MADISHF
UUU,2017-04-01 11:15,-71.2815,41.5324,M,M,M,30.00,11.00,0.06,29.66,M,3.00,M,FEW,OVC,M,M,800.00,1400.00,M,M,RA BR,KUUU 011115Z AUTO 03011KT 3SM RA BR FEW008 OVC014 A2966 RMK P0006 MADISHF
UUU,2017-04-01 11:20,-71.2815,41.5324,M,M,M,30.00,12.00,0.07,29.66,M,3.00,M,OVC,M,M,M,1200.00,M,M,M,RA BR,KUUU 011120Z AUTO 03012KT 3SM RA BR OVC012 A2966 RMK P0007 MADISHF
UUU,2017-04-01 11:25,-71.2815,41.5324,M,M,M,40.00,13.00,0.08,29.66,M,2.00,M,OVC,M,M,M,1400.00,M,M,M,-RA BR,KUUU 011125Z AUTO 04013KT 2SM -RA BR OVC014 A2966 RMK P0008 MADISHF
UUU,2017-04-01 11:27,-71.2815,41.5324,37.90,37.90,100.00,30.00,12.00,0.08,29.66,M,2.00,M,OVC,M,M,M,1200.00,M,M,M,-RA BR,KUUU 011127Z AUTO 03012KT 2SM -RA BR OVC012 03/03 A2966 RMK AO2 P0008 T00330033
UUU,2017-04-01 11:30,-71.2815,41.5324,M,M,M,30.00,13.00,0.09,29.66,M,1.75,M,FEW,OVC,M,M,900.00,1200.00,M,M,RA BR,KUUU 011130Z AUTO 03013KT 2SM RA BR FEW009 OVC012 A2966 RMK P0009 MADISHF
UUU,2017-04-01 11:35,-71.2815,41.5324,37.90,37.90,100.00,30.00,15.00,0.10,29.66,M,1.75,20.00,FEW,OVC,M,M,900.00,1200.00,M,M,-RA BR,KUUU 011135Z AUTO 03015G20KT 1 3/4SM -RA BR FEW009 OVC012 03/03 A2966 RMK AO2 P0010 T00330033
UUU,2017-04-01 11:40,-71.2815,41.5324,M,M,M,30.00,17.00,0.10,29.66,M,2.00,M,OVC,M,M,M,1300.00,M,M,M,-RA BR,KUUU 011140Z AUTO 03017KT 2SM -RA BR OVC013 A2966 RMK P0010 MADISHF
UUU,2017-04-01 11:42,-71.2815,41.5324,37.90,37.90,100.00,40.00,15.00,0.10,29.66,M,2.50,21.00,FEW,OVC,M,M,700.00,1300.00,M,M,-RA BR,KUUU 011142Z AUTO 04015G21KT 2 1/2SM -RA BR FEW007 OVC013 03/03 A2966 RMK AO2 P0010 T00330033
UUU,2017-04-01 11:45,-71.2815,41.5324,M,M,M,30.00,17.00,0.10,29.66,M,2.50,M,OVC,M,M,M,1300.00,M,M,M,-RA BR,KUUU 011145Z AUTO 03017KT 2 1/2SM -RA BR OVC013 A2966 RMK P0010 MADISHF
UUU,2017-04-01 11:50,-71.2815,41.5324,M,M,M,30.00,16.00,0.10,29.66,M,2.50,M,OVC,M,M,M,1100.00,M,M,M,-RA BR,KUUU 011150Z AUTO 03016KT 2 1/2SM -RA BR OVC011 A2966 RMK P0010 MADISHF
UUU,2017-04-01 11:53,-71.2815,41.5324,39.00,37.90,95.78,30.00,16.00,0.11,29.66,1004.40,2.00,23.00,OVC,M,M,M,1100.00,M,M,M,-RA BR,KUUU 011153Z AUTO 03016G23KT 2SM -RA BR OVC011 04/03 A2966 RMK AO2 SLP044 P0011 60081 70170 T00390033 10039 20028 58003
UUU,2017-04-01 11:55,-71.2815,41.5324,M,M,M,30.00,15.00,M,29.66,M,2.00,M,OVC,M,M,M,1100.00,M,M,M,-RA BR,KUUU 011155Z AUTO 03015KT 2SM -RA BR OVC011 A2966 RMK MADISHF
UUU,2017-04-01 12:00,-71.2815,41.5324,M,M,M,40.00,17.00,M,29.66,M,1.75,M,OVC,M,M,M,1100.00,M,M,M,-RA BR,KUUU 011200Z AUTO 04017KT 2SM -RA BR OVC011 A2966 RMK MADISHF
UUU,2017-04-01 12:01,-71.2815,41.5324,39.00,37.90,95.78,40.00,16.00,0.00,29.66,M,1.75,25.00,SCT,OVC,M,M,800.00,1100.00,M,M,-RA BR,KUUU 011201Z AUTO 04016G25KT 1 3/4SM -RA BR SCT008 OVC011 04/03 A2966 RMK AO2 P0000 T00390033
UUU,2017-04-01 12:05,-71.2815,41.5324,M,M,M,30.00,15.00,M,29.66,M,1.50,M,SCT,OVC,M,M,800.00,1100.00,M,M,-RA BR,KUUU 011205Z AUTO 03015KT 1 1/2SM -RA BR SCT008 OVC011 A2966 RMK MADISHF
UUU,2017-04-01 12:10,-71.2815,41.5324,M,M,M,30.00,16.00,M,29.66,M,1.75,M,OVC,M,M,M,1100.00,M,M,M,-RA BR,KUUU 011210Z AUTO 03016KT 2SM -RA BR OVC011 A2966 RMK MADISHF
UUU,2017-04-01 12:15,-71.2815,41.5324,M,M,M,30.00,16.00,0.01,29.66,M,2.00,M,OVC,M,M,M,1100.00,M,M,M,-RA BR,KUUU 011215Z AUTO 03016KT 2SM -RA BR OVC011 A2966 RMK P0001 MADISHF
UUU,2017-04-01 12:20,-71.2815,41.5324,M,M,M,30.00,17.00,0.01,29.66,M,2.00,M,OVC,M,M,M,1100.00,M,M,M,-RA BR,KUUU 011220Z AUTO 03017KT 2SM -RA BR OVC011 A2966 RMK P0001 MADISHF
UUU,2017-04-01 12:21,-71.2815,41.5324,39.00,37.90,95.78,30.00,17.00,0.01,29.65,M,2.50,27.00,OVC,M,M,M,1100.00,M,M,M,-RA BR,KUUU 011221Z AUTO 03017G27KT 2 1/2SM -RA BR OVC011 04/03 A2965 RMK AO2 PK WND 03027/1220 P0001 T00390033
UUU,2017-04-01 12:25,-71.2815,41.5324,M,M,M,30.00,19.00,0.01,29.65,M,2.50,M,OVC,M,M,M,900.00,M,M,M,-RA BR,KUUU 011225Z AUTO 03019KT 2 1/2SM -RA BR OVC009 A2965 RMK P0001 MADISHF
UUU,2017-04-01 12:30,-71.2815,41.5324,M,M,M,30.00,19.00,0.01,29.65,M,2.50,M,OVC,M,M,M,1100.00,M,M,M,-RA BR,KUUU 011230Z AUTO 03019KT 2 1/2SM -RA BR OVC011 A2965 RMK P0001 MADISHF
UUU,2017-04-01 12:35,-71.2815,41.5324,M,M,M,30.00,16.00,0.01,29.65,M,2.50,M,BKN,OVC,M,M,900.00,1300.00,M,M,-RA BR,KUUU 011235Z AUTO 03016KT 2 1/2SM -RA BR BKN009 OVC013 A2965 RMK P0001 MADISHF
UUU,2017-04-01 12:39,-71.2815,41.5324,39.00,39.00,100.00,30.00,17.00,0.01,29.65,M,2.50,23.00,BKN,OVC,M,M,900.00,1300.00,M,M,-RA BR,KUUU 011239Z AUTO 03017G23KT 2 1/2SM -RA BR BKN009 OVC013 04/04 A2965 RMK AO2 PK WND 03027/1220 P0001 T00390039
UUU,2017-04-01 12:40,-71.2815,41.5324,M,M,M,30.00,16.00,0.01,29.65,M,2.50,M,BKN,OVC,M,M,900.00,1300.00,M,M,-RA BR,KUUU 011240Z AUTO 03016KT 2 1/2SM -RA BR BKN009 OVC013 A2965 RMK P0001 MADISHF
UUU,2017-04-01 12:45,-71.2815,41.5324,M,M,M,30.00,16.00,0.02,29.65,M,2.50,M,BKN,OVC,M,M,900.00,1300.00,M,M,-RA BR,KUUU 011245Z AUTO 03016KT 2 1/2SM -RA BR BKN009 OVC013 A2965 RMK P0002 MADISHF
UUU,2017-04-01 12:50,-71.2815,41.5324,M,M,M,30.00,20.00,0.02,29.65,M,2.50,M,SCT,OVC,M,M,800.00,1300.00,M,M,-RA BR,KUUU 011250Z AUTO 03020KT 2 1/2SM -RA BR SCT008 OVC013 A2965 RMK P0002 MADISHF
UUU,2017-04-01 12:53,-71.2815,41.5324,39.90,37.90,92.48,30.00,19.00,0.02,29.65,1003.90,2.50,27.00,BKN,OVC,M,M,1000.00,1300.00,M,M,-RA BR,KUUU 011253Z AUTO 03019G27KT 2 1/2SM -RA BR BKN010 OVC013 04/03 A2965 RMK AO2 PK WND 03027/1220 SLP039 P0002 T00440033
UUU,2017-04-01 12:55,-71.2815,41.5324,M,M,M,30.00,19.00,M,29.65,M,2.50,M,BKN,OVC,M,M,999.00,1400.00,M,M,-RA BR,KUUU 011255Z AUTO 03019KT 2 1/2SM -RA BR BKN009 OVC014 A2965 RMK MADISHF
UUU,2017-04-01 13:00,-71.2815,41.5324,M,M,M,30.00,18.00,M,29.65,M,2.50,M,BKN,OVC,M,M,999.00,1400.00,M,M,-RA BR,KUUU 011300Z AUTO 03018KT 2 1/2SM -RA BR BKN009 OVC014 A2965 RMK MADISHF
UUU,2017-04-01 13:05,-71.2815,41.5324,M,M,M,30.00,18.00,M,29.65,M,3.00,M,BKN,OVC,M,M,999.00,1500.00,M,M,-RA BR,KUUU 011305Z AUTO 03018KT 3SM -RA BR BKN009 OVC015 A2965 RMK MADISHF
UUU,2017-04-01 13:10,-71.2815,41.5324,39.90,39.00,96.55,30.00,16.00,0.00,29.65,M,3.00,25.00,BKN,OVC,M,M,1000.00,1500.00,M,M,-RA BR,KUUU 011310Z AUTO 03016G25KT 3SM -RA BR BKN010 OVC015 04/04 A2965 RMK AO2 PK WND 03026/1300 P0000 T00440039
UUU,2017-04-01 13:15,-71.2815,41.5324,M,M,M,30.00,18.00,M,29.65,M,3.00,M,BKN,OVC,M,M,999.00,1500.00,M,M,-RA BR,KUUU 011315Z AUTO 03018KT 3SM -RA BR BKN009 OVC015 A2965 RMK MADISHF
UUU,2017-04-01 13:20,-71.2815,41.5324,M,M,M,30.00,18.00,M,29.65,M,3.00,M,BKN,OVC,M,M,999.00,1500.00,M,M,-RA BR,KUUU 011320Z AUTO 03018KT 3SM -RA BR BKN009 OVC015 A2965 RMK MADISHF
UUU,2017-04-01 13:25,-71.2815,41.5324,M,M,M,20.00,16.00,M,29.66,M,2.50,M,OVC,M,M,M,1300.00,M,M,M,-RA BR,KUUU 011325Z AUTO 02016KT 2 1/2SM -RA BR OVC013 A2966 RMK MADISHF
UUU,2017-04-01 13:27,-71.2815,41.5324,39.90,39.00,96.55,30.00,17.00,0.00,29.66,M,2.50,23.00,OVC,M,M,M,1300.00,M,M,M,-RA BR,KUUU 011327Z AUTO 03017G23KT 2 1/2SM -RA BR OVC013 04/04 A2966 RMK AO2 PK WND 03027/1316 P0000 T00440039
UUU,2017-04-01 13:30,-71.2815,41.5324,M,M,M,30.00,18.00,M,29.66,M,2.50,M,OVC,M,M,M,1300.00,M,M,M,-RA BR,KUUU 011330Z AUTO 03018KT 2 1/2SM -RA BR OVC013 A2966 RMK MADISHF
UUU,2017-04-01 13:35,-71.2815,41.5324,M,M,M,20.00,19.00,0.01,29.66,M,2.00,M,OVC,M,M,M,1100.00,M,M,M,-RA BR,KUUU 011335Z AUTO 02019KT 2SM -RA BR OVC011 A2966 RMK P0001 MADISHF
UUU,2017-04-01 13:40,-71.2815,41.5324,M,M,M,30.00,16.00,0.01,29.66,M,1.75,M,OVC,M,M,M,1100.00,M,M,M,-RA BR,KUUU 011340Z AUTO 03016KT 2SM -RA BR OVC011 A2966 RMK P0001 MADISHF
UUU,2017-04-01 13:45,-71.2815,41.5324,M,M,M,30.00,20.00,0.02,29.66,M,1.75,M,OVC,M,M,M,1200.00,M,M,M,-RA BR,KUUU 011345Z AUTO 03020KT 2SM -RA BR OVC012 A2966 RMK P0002 MADISHF
UUU,2017-04-01 13:46,-71.2815,41.5324,39.90,39.00,96.55,30.00,20.00,0.02,29.66,M,1.75,26.00,OVC,M,M,M,1200.00,M,M,M,-RA BR,KUUU 011346Z AUTO 03020G26KT 1 3/4SM -RA BR OVC012 04/04 A2966 RMK AO2 PK WND 03027/1316 P0002 T00440039
UUU,2017-04-01 13:50,-71.2815,41.5324,M,M,M,20.00,20.00,0.02,29.66,M,1.75,M,OVC,M,M,M,1200.00,M,M,M,-RA BR,KUUU 011350Z AUTO 02020KT 2SM -RA BR OVC012 A2966 RMK P0002 MADISHF
UUU,2017-04-01 13:53,-71.2815,41.5324,39.90,39.00,96.55,30.00,19.00,0.02,29.66,1004.50,1.75,28.00,BKN,OVC,M,M,900.00,1400.00,M,M,-RA BR,KUUU 011353Z AUTO 03019G28KT 1 3/4SM -RA BR BKN009 OVC014 04/04 A2966 RMK AO2 PK WND 04028/1350 SLP045 P0002 T00440039
UUU,2017-04-01 13:55,-71.2815,41.5324,M,M,M,30.00,17.00,M,29.66,M,1.75,M,OVC,M,M,M,1200.00,M,M,M,-RA BR,KUUU 011355Z AUTO 03017KT 2SM -RA BR OVC012 A2966 RMK MADISHF
UUU,2017-04-01 13:59,-71.2815,41.5324,39.90,39.00,96.55,30.00,17.00,0.00,29.66,M,2.00,28.00,SCT,OVC,M,M,900.00,1400.00,M,M,-RA BR,KUUU 011359Z AUTO 03017G28KT 2SM -RA BR SCT009 OVC014 04/04 A2966 RMK AO2 P0000 T00440039
UUU,2017-04-01 14:00,-71.2815,41.5324,M,M,M,20.00,18.00,M,29.66,M,2.00,M,FEW,OVC,M,M,900.00,1400.00,M,M,-RA BR,KUUU 011400Z AUTO 02018KT 2SM -RA BR FEW009 OVC014 A2966 RMK MADISHF
UUU,2017-04-01 14:05,-71.2815,41.5324,M,M,M,20.00,20.00,0.01,29.67,M,2.50,M,OVC,M,M,M,1200.00,M,M,M,-RA BR,KUUU 011405Z AUTO 02020KT 2 1/2SM -RA BR OVC012 A2967 RMK P0001 MADISHF
UUU,2017-04-01 14:10,-71.2815,41.5324,M,M,M,20.00,18.00,0.01,29.67,M,2.50,M,SCT,OVC,M,M,900.00,1400.00,M,M,-RA BR,KUUU 011410Z AUTO 02018KT 2 1/2SM -RA BR SCT009 OVC014 A2967 RMK P0001 MADISHF
UUU,2017-04-01 14:15,-71.2815,41.5324,M,M,M,20.00,21.00,0.01,29.67,M,3.00,M,OVC,M,M,M,1200.00,M,M,M,-RA BR,KUUU 011415Z AUTO 02021KT 3SM -RA BR OVC012 A2967 RMK P0001 MADISHF
UUU,2017-04-01 14:17,-71.2815,41.5324,39.90,39.00,96.55,20.00,17.00,0.01,29.67,M,3.00,26.00,OVC,M,M,M,1200.00,M,M,M,-RA BR,KUUU 011417Z AUTO 02017G26KT 3SM -RA BR OVC012 04/04 A2967 RMK AO2 PK WND 02027/1404 P0001 T00440039
UUU,2017-04-01 14:20,-71.2815,41.5324,M,M,M,20.00,19.00,0.01,29.67,M,3.00,M,BKN,OVC,M,M,1200.00,1600.00,M,M,-RA BR,KUUU 011420Z AUTO 02019KT 3SM -RA BR BKN012 OVC016 A2967 RMK P0001 MADISHF
UUU,2017-04-01 14:25,-71.2815,41.5324,M,M,M,20.00,18.00,0.01,29.67,M,3.50,M,BKN,OVC,M,M,1200.00,1600.00,M,M,-RA BR,KUUU 011425Z AUTO 02018KT 3SM -RA BR BKN012 OVC016 A2967 RMK P0001 MADISHF
UUU,2017-04-01 14:30,-71.2815,41.5324,M,M,M,30.00,21.00,0.01,29.67,M,4.00,M,BKN,OVC,M,M,1200.00,1600.00,M,M,-RA BR,KUUU 011430Z AUTO 03021KT 4SM -RA BR BKN012 OVC016 A2967 RMK P0001 MADISHF
UUU,2017-04-01 14:35,-71.2815,41.5324,M,M,M,30.00,19.00,0.01,29.67,M,4.00,M,BKN,OVC,M,M,1200.00,1600.00,M,M,-RA BR,KUUU 011435Z AUTO 03019KT 4SM -RA BR BKN012 OVC016 A2967 RMK P0001 MADISHF
UUU,2017-04-01 14:40,-71.2815,41.5324,M,M,M,30.00,20.00,0.01,29.67,M,4.00,M,OVC,M,M,M,1200.00,M,M,M,-RA BR,KUUU 011440Z AUTO 03020KT 4SM -RA BR OVC012 A2967 RMK P0001 MADISHF
UUU,2017-04-01 14:45,-71.2815,41.5324,M,M,M,30.00,21.00,0.01,29.67,M,4.00,M,OVC,M,M,M,1200.00,M,M,M,-RA BR,KUUU 011445Z AUTO 03021KT 4SM -RA BR OVC012 A2967 RMK P0001 MADISHF
UUU,2017-04-01 14:50,-71.2815,41.5324,M,M,M,20.00,18.00,0.01,29.67,M,5.00,M,BKN,OVC,M,M,1200.00,1699.00,M,M,-RA BR,KUUU 011450Z AUTO 02018KT 5SM -RA BR BKN012 OVC016 A2967 RMK P0001 MADISHF
UUU,2017-04-01 14:53,-71.2815,41.5324,39.90,39.00,96.55,20.00,21.00,0.01,29.67,1004.60,6.00,29.00,OVC,M,M,M,1200.00,M,M,M,-RA BR,KUUU 011453Z AUTO 02021G29KT 6SM -RA BR OVC012 04/04 A2967 RMK AO2 PK WND 02034/1442 SLP046 P0001 60005 T00440039 53002
UUU,2017-04-01 14:55,-71.2815,41.5324,M,M,M,20.00,19.00,M,29.67,M,6.00,M,BKN,OVC,M,M,1200.00,1699.00,M,M,-RA BR,KUUU 011455Z AUTO 02019KT 6SM -RA BR BKN012 OVC016 A2967 RMK MADISHF
UUU,2017-04-01 15:00,-71.2815,41.5324,M,M,M,20.00,17.00,M,29.67,M,6.00,M,BKN,OVC,M,M,1200.00,1900.00,M,M,-RA BR,KUUU 011500Z AUTO 02017KT 6SM -RA BR BKN012 OVC019 A2967 RMK MADISHF
UUU,2017-04-01 15:05,-71.2815,41.5324,M,M,M,20.00,16.00,M,29.67,M,6.00,M,BKN,OVC,M,M,1200.00,1900.00,M,M,-RA BR,KUUU 011505Z AUTO 02016KT 6SM -RA BR BKN012 OVC019 A2967 RMK MADISHF
UUU,2017-04-01 15:10,-71.2815,41.5324,M,M,M,10.00,20.00,M,29.67,M,6.00,M,BKN,OVC,M,M,1200.00,1699.00,M,M,-RA BR,KUUU 011510Z AUTO 01020KT 6SM -RA BR BKN012 OVC016 A2967 RMK MADISHF
UUU,2017-04-01 15:15,-71.2815,41.5324,M,M,M,10.00,22.00,M,29.67,M,6.00,M,BKN,OVC,M,M,1200.00,1699.00,M,M,-RA BR,KUUU 011515Z AUTO 01022KT 6SM -RA BR BKN012 OVC016 A2967 RMK MADISHF
UUU,2017-04-01 15:20,-71.2815,41.5324,M,M,M,20.00,22.00,M,29.67,M,6.00,M,BKN,OVC,M,M,1200.00,1800.00,M,M,-RA BR,KUUU 011520Z AUTO 02022KT 6SM -RA BR BKN012 OVC018 A2967 RMK MADISHF
UUU,2017-04-01 15:25,-71.2815,41.5324,M,M,M,20.00,23.00,M,29.67,M,7.00,M,OVC,M,M,M,1200.00,M,M,M,-RA,KUUU 011525Z AUTO 02023KT 7SM -RA OVC012 A2967 RMK MADISHF
UUU,2017-04-01 15:30,-71.2815,41.5324,M,M,M,20.00,20.00,M,29.67,M,6.00,M,OVC,M,M,M,1200.00,M,M,M,-RA BR,KUUU 011530Z AUTO 02020KT 6SM -RA BR OVC012 A2967 RMK MADISHF
UUU,2017-04-01 15:35,-71.2815,41.5324,M,M,M,20.00,21.00,M,29.67,M,6.00,M,OVC,M,M,M,1200.00,M,M,M,-RA BR,KUUU 011535Z AUTO 02021KT 6SM -RA BR OVC012 A2967 RMK MADISHF
UUU,2017-04-01 15:40,-71.2815,41.5324,M,M,M,20.00,25.00,M,29.67,M,6.00,M,BKN,OVC,M,M,999.00,1400.00,M,M,-RA BR,KUUU 011540Z AUTO 02025KT 6SM -RA BR BKN009 OVC014 A2967 RMK MADISHF
UUU,2017-04-01 15:45,-71.2815,41.5324,M,M,M,10.00,20.00,M,29.67,M,5.00,M,OVC,M,M,M,1200.00,M,M,M,-RA BR,KUUU 011545Z AUTO 01020KT 5SM -RA BR OVC012 A2967 RMK MADISHF
UUU,2017-04-01 15:50,-71.2815,41.5324,M,M,M,20.00,19.00,M,29.67,M,5.00,M,OVC,M,M,M,1200.00,M,M,M,-RA BR,KUUU 011550Z AUTO 02019KT 5SM -RA BR OVC012 A2967 RMK MADISHF
UUU,2017-04-01 15:53,-71.2815,41.5324,37.90,37.00,96.52,10.00,17.00,0.00,29.67,1004.80,4.00,34.00,OVC,M,M,M,1200.00,M,M,M,-RA BR,KUUU 011553Z AUTO 01017G34KT 4SM -RA BR OVC012 03/03 A2967 RMK AO2 PK WND 02034/1548 SLP048 P0000 T00330028
UUU,2017-04-01 15:55,-71.2815,41.5324,M,M,M,10.00,22.00,M,29.67,M,4.00,M,OVC,M,M,M,1200.00,M,M,M,-RA BR,KUUU 011555Z AUTO 01022KT 4SM -RA BR OVC012 A2967 RMK MADISHF
UUU,2017-04-01 16:00,-71.2815,41.5324,M,M,M,10.00,22.00,M,29.68,M,4.00,M,BKN,OVC,M,M,1200.00,1600.00,M,M,-RA BR,KUUU 011600Z AUTO 01022KT 4SM -RA BR BKN012 OVC016 A2968 RMK MADISHF
UUU,2017-04-01 16:05,-71.2815,41.5324,M,M,M,10.00,20.00,0.01,29.68,M,4.00,M,BKN,OVC,M,M,1100.00,1600.00,M,M,-RA BR,KUUU 011605Z AUTO 01020KT 4SM -RA BR BKN011 OVC016 A2968 RMK P0001 MADISHF
UUU,2017-04-01 16:10,-71.2815,41.5324,M,M,M,10.00,19.00,0.01,29.68,M,4.00,M,BKN,OVC,M,M,1100.00,1600.00,M,M,-RA BR,KUUU 011610Z AUTO 01019KT 4SM -RA BR BKN011 OVC016 A2968 RMK P0001 MADISHF
UUU,2017-04-01 16:15,-71.2815,41.5324,M,M,M,10.00,18.00,0.01,29.68,M,5.00,M,BKN,BKN,OVC,M,1100.00,1600.00,3900.00,M,-RA BR,KUUU 011615Z AUTO 01018KT 5SM -RA BR BKN011 BKN016 OVC039 A2968 RMK P0001 MADISHF
UUU,2017-04-01 16:20,-71.2815,41.5324,M,M,M,10.00,20.00,0.01,29.68,M,4.00,M,SCT,BKN,OVC,M,900.00,1400.00,3800.00,M,-RA BR,KUUU 011620Z AUTO 01020KT 4SM -RA BR SCT009 BKN014 OVC038 A2968 RMK P0001 MADISHF
UUU,2017-04-01 16:23,-71.2815,41.5324,37.90,36.00,92.78,10.00,19.00,0.01,29.68,M,4.00,31.00,SCT,BKN,OVC,M,900.00,1400.00,3800.00,M,-RA BR,KUUU 011623Z AUTO 01019G31KT 4SM -RA BR SCT009 BKN014 OVC038 03/02 A2968 RMK AO2 PK WND 01032/1604 P0001 T00330022
UUU,2017-04-01 16:25,-71.2815,41.5324,M,M,M,10.00,19.00,0.01,29.68,M,4.00,M,SCT,OVC,M,M,900.00,1400.00,M,M,-RA BR,KUUU 011625Z AUTO 01019KT 4SM -RA BR SCT009 OVC014 A2968 RMK P0001 MADISHF
UUU,2017-04-01 16:30,-71.2815,41.5324,M,M,M,10.00,21.00,0.01,29.68,M,3.00,M,SCT,OVC,M,M,900.00,1400.00,M,M,-SN BR,KUUU 011630Z AUTO 01021KT 3SM -SN BR SCT009 OVC014 A2968 RMK P0001 MADISHF
UUU,2017-04-01 16:35,-71.2815,41.5324,M,M,M,20.00,20.00,0.01,29.68,M,2.50,M,BKN,OVC,M,M,1100.00,1800.00,M,M,-SN BR,KUUU 011635Z AUTO 02020KT 2 1/2SM -SN BR BKN011 OVC018 A2968 RMK P0001 MADISHF
UUU,2017-04-01 16:39,-71.2815,41.5324,37.00,36.00,96.13,10.00,23.00,0.01,29.68,M,2.00,30.00,SCT,BKN,OVC,M,900.00,1400.00,1800.00,M,-SN BR,KUUU 011639Z AUTO 01023G30KT 2SM -SN BR SCT009 BKN014 OVC018 03/02 A2968 RMK AO2 PK WND 01032/1604 RAE28SNB28 P0001 T00280022
UUU,2017-04-01 16:40,-71.2815,41.5324,M,M,M,10.00,22.00,0.01,29.69,M,2.00,M,SCT,BKN,OVC,M,900.00,1400.00,1800.00,M,-SN BR,KUUU 011640Z AUTO 01022KT 2SM -SN BR SCT009 BKN014 OVC018 A2969 RMK P0001 MADISHF
UUU,2017-04-01 16:45,-71.2815,41.5324,M,M,M,10.00,22.00,0.01,29.69,M,2.00,M,SCT,BKN,OVC,M,900.00,1600.00,1999.00,M,-SN BR,KUUU 011645Z AUTO 01022KT 2SM -SN BR SCT009 BKN016 OVC019 A2969 RMK P0001 MADISHF
UUU,2017-04-01 16:50,-71.2815,41.5324,37.40,35.60,93.14,10.00,23.00,0.01,29.69,M,2.00,29.00,BKN,OVC,M,M,900.00,1800.00,M,M,-SN BR,KUUU 011650Z AUTO 01023G29KT 2SM -SN BR BKN009 OVC018 03/02 A2969 RMK AO2 PK WND 01032/1604 RAE28SNB28 P0001
UUU,2017-04-01 16:53,-71.2815,41.5324,37.00,36.00,96.13,10.00,17.00,0.01,29.69,1005.30,2.00,30.00,BKN,OVC,M,M,900.00,1800.00,M,M,-SN BR,KUUU 011653Z AUTO 01017G30KT 2SM -SN BR BKN009 OVC018 03/02 A2969 RMK AO2 PK WND 01032/1604 RAE28SNB28 SLP053 P0001 T00280022
UUU,2017-04-01 16:55,-71.2815,41.5324,M,M,M,10.00,20.00,M,29.69,M,2.00,M,BKN,OVC,M,M,900.00,1600.00,M,M,-SN BR,KUUU 011655Z AUTO 01020KT 2SM -SN BR BKN009 OVC016 A2969 RMK MADISHF
UUU,2017-04-01 17:00,-71.2815,41.5324,M,M,M,10.00,20.00,0.01,29.69,M,2.00,M,BKN,OVC,M,M,900.00,1500.00,M,M,-SN BR,KUUU 011700Z AUTO 01020KT 2SM -SN BR BKN009 OVC015 A2969 RMK P0001 MADISHF
UUU,2017-04-01 17:05,-71.2815,41.5324,M,M,M,10.00,22.00,0.01,29.69,M,2.00,M,BKN,OVC,M,M,900.00,1699.00,M,M,-SN BR,KUUU 011705Z AUTO 01022KT 2SM -SN BR BKN009 OVC016 A2969 RMK P0001 MADISHF
UUU,2017-04-01 17:10,-71.2815,41.5324,M,M,M,10.00,22.00,0.01,29.69,M,1.75,M,BKN,OVC,M,M,900.00,1699.00,M,M,-SN BR,KUUU 011710Z AUTO 01022KT 2SM -SN BR BKN009 OVC016 A2969 RMK P0001 MADISHF
UUU,2017-04-01 17:12,-71.2815,41.5324,37.00,36.00,96.13,10.00,18.00,0.01,29.69,M,2.00,36.00,BKN,OVC,M,M,1000.00,1700.00,M,M,-SN BR,KUUU 011712Z AUTO 01018G36KT 2SM -SN BR BKN010 OVC017 03/02 A2969 RMK AO2 PK WND 01036/1703 P0001 T00280022
UUU,2017-04-01 17:15,-71.2815,41.5324,M,M,M,10.00,22.00,0.01,29.69,M,2.00,M,BKN,OVC,M,M,999.00,1699.00,M,M,-SN BR,KUUU 011715Z AUTO 01022KT 2SM -SN BR BKN009 OVC016 A2969 RMK P0001 MADISHF
UUU,2017-04-01 17:20,-71.2815,41.5324,M,M,M,10.00,19.00,0.01,29.69,M,2.50,M,BKN,OVC,M,M,999.00,1300.00,M,M,-SN BR,KUUU 011720Z AUTO 01019KT 2 1/2SM -SN BR BKN009 OVC013 A2969 RMK P0001 MADISHF
UUU,2017-04-01 17:25,-71.2815,41.5324,M,M,M,10.00,24.00,0.01,29.69,M,3.00,M,BKN,BKN,OVC,M,999.00,1300.00,3200.00,M,-SN BR,KUUU 011725Z AUTO 01024KT 3SM -SN BR BKN009 BKN013 OVC032 A2969 RMK P0001 MADISHF
UUU,2017-04-01 17:30,-71.2815,41.5324,37.00,35.10,92.76,10.00,20.00,0.01,29.69,M,4.00,32.00,BKN,BKN,OVC,M,1000.00,1300.00,3000.00,M,-SN BR,KUUU 011730Z AUTO 01020G32KT 4SM -SN BR BKN010 BKN013 OVC030 03/02 A2969 RMK AO2 PK WND 01036/1703 P0001 T00280017
UUU,2017-04-01 17:35,-71.2815,41.5324,M,M,M,10.00,21.00,0.01,29.69,M,4.00,M,BKN,BKN,OVC,M,900.00,1300.00,3000.00,M,-SN BR,KUUU 011735Z AUTO 01021KT 4SM -SN BR BKN009 BKN013 OVC030 A2969 RMK P0001 MADISHF
UUU,2017-04-01 17:40,-71.2815,41.5324,37.00,36.00,96.13,10.00,19.00,0.01,29.69,M,6.00,31.00,BKN,BKN,OVC,M,900.00,1400.00,2800.00,M,UP BR,KUUU 011740Z AUTO 01019G31KT 6SM UP BR BKN009 BKN014 OVC028 03/02 A2969 RMK AO2 PK WND 01036/1703 UPB36SNE36 P0001 T00280022
UUU,2017-04-01 17:45,-71.2815,41.5324,M,M,M,360.00,18.00,0.01,29.69,M,8.00,M,BKN,OVC,M,M,1100.00,3300.00,M,M,UP,KUUU 011745Z AUTO 36018KT 8SM UP BKN011 OVC033 A2969 RMK P0001 MADISHF
UUU,2017-04-01 17:50,-71.2815,41.5324,35.60,35.60,100.00,360.00,20.00,0.01,29.69,M,8.00,27.00,OVC,M,M,M,1100.00,M,M,M,UP,KUUU 011750Z AUTO 36020G27KT 8SM UP OVC011 02/02 A2969 RMK AO2 PK WND 01036/1703 UPB36SNE36 P0001
UUU,2017-04-01 17:53,-71.2815,41.5324,36.00,35.10,96.49,10.00,21.00,0.01,29.69,1005.50,8.00,28.00,BKN,BKN,OVC,M,900.00,1400.00,3100.00,M,UP,KUUU 011753Z AUTO 01021G28KT 8SM UP BKN009 BKN014 OVC031 02/02 A2969 RMK AO2 PK WND 01036/1703 UPB36SNE36 SLP055 P0001 60007 T00220017 10044 20022 52002
UUU,2017-04-01 17:55,-71.2815,41.5324,M,M,M,360.00,16.00,0.00,29.69,M,8.00,M,SCT,BKN,OVC,M,900.00,1200.00,1699.00,M,UP,KUUU 011755Z AUTO 36016KT 8SM UP SCT009 BKN012 OVC016 A2969 RMK P0000 MADISHF
UUU,2017-04-01 18:00,-71.2815,41.5324,M,M,M,10.00,18.00,0.00,29.69,M,7.00,M,BKN,BKN,OVC,M,900.00,1400.00,2300.00,M,UP,KUUU 011800Z AUTO 01018KT 7SM UP BKN009 BKN014 OVC023 A2969 RMK P0000 MADISHF
UUU,2017-04-01 18:05,-71.2815,41.5324,M,M,M,10.00,21.00,M,29.69,M,7.00,M,OVC,M,M,M,900.00,M,M,M,-SN,KUUU 011805Z AUTO 01021KT 7SM -SN OVC009 A2969 RMK MADISHF
UUU,2017-04-01 18:10,-71.2815,41.5324,M,M,M,10.00,21.00,M,29.69,M,6.00,M,BKN,BKN,OVC,M,900.00,1300.00,1900.00,M,-SN BR,KUUU 011810Z AUTO 01021KT 6SM -SN BR BKN009 BKN013 OVC019 A2969 RMK MADISHF
UUU,2017-04-01 18:15,-71.2815,41.5324,M,M,M,360.00,23.00,M,29.70,M,5.00,M,BKN,OVC,M,M,900.00,1600.00,M,M,-SN BR,KUUU 011815Z AUTO 36023KT 5SM -SN BR BKN009 OVC016 A2970 RMK MADISHF
UUU,2017-04-01 18:20,-71.2815,41.5324,M,M,M,10.00,21.00,M,29.70,M,5.00,M,BKN,OVC,M,M,900.00,1800.00,M,M,-SN BR,KUUU 011820Z AUTO 01021KT 5SM -SN BR BKN009 OVC018 A2970 RMK MADISHF
UUU,2017-04-01 18:25,-71.2815,41.5324,M,M,M,10.00,22.00,M,29.70,M,6.00,M,BKN,OVC,M,M,999.00,1800.00,M,M,-SN BR,KUUU 011825Z AUTO 01022KT 6SM -SN BR BKN009 OVC018 A2970 RMK MADISHF
UUU,2017-04-01 18:30,-71.2815,41.5324,36.00,35.10,96.49,10.00,22.00,0.00,29.69,M,6.00,31.00,BKN,OVC,M,M,1000.00,1600.00,M,M,-SN BR,KUUU 011830Z AUTO 01022G31KT 6SM -SN BR BKN010 OVC016 02/02 A2969 RMK AO2 PK WND 36032/1808 UPE03SNB03 P0000 T00220017
UUU,2017-04-01 18:35,-71.2815,41.5324,M,M,M,10.00,19.00,M,29.70,M,6.00,M,BKN,OVC,M,M,999.00,1600.00,M,M,-SN BR,KUUU 011835Z AUTO 01019KT 6SM -SN BR BKN009 OVC016 A2970 RMK MADISHF
UUU,2017-04-01 18:40,-71.2815,41.5324,M,M,M,10.00,21.00,0.01,29.70,M,7.00,M,BKN,OVC,M,M,999.00,1600.00,M,M,-SN,KUUU 011840Z AUTO 01021KT 7SM -SN BKN009 OVC016 A2970 RMK P0001 MADISHF
UUU,2017-04-01 18:45,-71.2815,41.5324,M,M,M,10.00,23.00,0.01,29.69,M,6.00,M,BKN,OVC,M,M,999.00,1600.00,M,M,-SN BR,KUUU 011845Z AUTO 01023KT 6SM -SN BR BKN009 OVC016 A2969 RMK P0001 MADISHF
UUU,2017-04-01 18:50,-71.2815,41.5324,M,M,M,10.00,22.00,0.01,29.70,M,5.00,M,BKN,OVC,M,M,999.00,1600.00,M,M,-SN BR,KUUU 011850Z AUTO 01022KT 5SM -SN BR BKN009 OVC016 A2970 RMK P0001 MADISHF
UUU,2017-04-01 18:53,-71.2815,41.5324,36.00,34.00,92.35,10.00,20.00,0.01,29.70,1005.60,4.00,34.00,BKN,OVC,M,M,1000.00,1400.00,M,M,-SN BR,KUUU 011853Z AUTO 01020G34KT 4SM -SN BR BKN010 OVC014 02/01 A2970 RMK AO2 PK WND 01034/1844 UPE03SNB03 SLP056 P0001 T00220011
UUU,2017-04-01 18:55,-71.2815,41.5324,M,M,M,10.00,20.00,M,29.70,M,4.00,M,BKN,OVC,M,M,999.00,1400.00,M,M,-SN BR,KUUU 011855Z AUTO 01020KT 4SM -SN BR BKN009 OVC014 A2970 RMK MADISHF
UUU,2017-04-01 19:00,-71.2815,41.5324,M,M,M,10.00,20.00,M,29.70,M,5.00,M,BKN,OVC,M,M,999.00,1400.00,M,M,-SN BR,KUUU 011900Z AUTO 01020KT 5SM -SN BR BKN009 OVC014 A2970 RMK MADISHF
UUU,2017-04-01 19:05,-71.2815,41.5324,M,M,M,10.00,21.00,M,29.70,M,7.00,M,BKN,OVC,M,M,999.00,6000.00,M,M,-SN,KUUU 011905Z AUTO 01021KT 7SM -SN BKN009 OVC060 A2970 RMK MADISHF
UUU,2017-04-01 19:10,-71.2815,41.5324,M,M,M,10.00,21.00,0.00,29.70,M,9.00,M,BKN,OVC,M,M,999.00,1400.00,M,M,UP,KUUU 011910Z AUTO 01021KT 9SM UP BKN009 OVC014 A2970 RMK P0000 MADISHF
UUU,2017-04-01 19:15,-71.2815,41.5324,M,M,M,360.00,19.00,0.00,29.70,M,10.00,M,BKN,OVC,M,M,999.00,1600.00,M,M,UP,KUUU 011915Z AUTO 36019KT 10SM UP BKN009 OVC016 A2970 RMK P0000 MADISHF
UUU,2017-04-01 19:20,-71.2815,41.5324,M,M,M,360.00,20.00,0.00,29.71,M,10.00,M,BKN,OVC,M,M,999.00,1600.00,M,M,UP,KUUU 011920Z AUTO 36020KT 10SM UP BKN009 OVC016 A2971 RMK P0000 CIG 6V14  MADISHF
UUU,2017-04-01 19:25,-71.2815,41.5324,M,M,M,10.00,18.00,0.00,29.71,M,10.00,M,OVC,M,M,M,999.00,M,M,M,UP,KUUU 011925Z AUTO 01018KT 10SM UP OVC009 A2971 RMK P0000 CIG 8V15  MADISHF
UUU,2017-04-01 19:30,-71.2815,41.5324,M,M,M,360.00,22.00,0.00,29.71,M,10.00,M,OVC,M,M,M,999.00,M,M,M,UP,KUUU 011930Z AUTO 36022KT 10SM UP OVC009 A2971 RMK P0000 CIG 8V15  MADISHF
UUU,2017-04-01 19:35,-71.2815,41.5324,M,M,M,360.00,16.00,0.00,29.71,M,10.00,M,BKN,OVC,M,M,999.00,1500.00,M,M,UP,KUUU 011935Z AUTO 36016KT 10SM UP BKN009 OVC015 A2971 RMK P0000 MADISHF
UUU,2017-04-01 19:40,-71.2815,41.5324,M,M,M,360.00,19.00,0.00,29.72,M,10.00,M,BKN,OVC,M,M,999.00,1400.00,M,M,UP,KUUU 011940Z AUTO 36019KT 10SM UP BKN009 OVC014 A2972 RMK P0000 MADISHF
UUU,2017-04-01 19:45,-71.2815,41.5324,M,M,M,360.00,19.00,M,29.72,M,10.00,M,BKN,OVC,M,M,999.00,1400.00,M,M,-RA,KUUU 011945Z AUTO 36019KT 10SM -RA BKN009 OVC014 A2972 RMK MADISHF
UUU,2017-04-01 19:50,-71.2815,41.5324,M,M,M,10.00,22.00,M,29.72,M,10.00,M,BKN,OVC,M,M,999.00,1400.00,M,M,-RA,KUUU 011950Z AUTO 01022KT 10SM -RA BKN009 OVC014 A2972 RMK MADISHF
UUU,2017-04-01 19:53,-71.2815,41.5324,36.00,34.00,92.35,360.00,20.00,0.00,29.72,1006.50,10.00,31.00,BKN,OVC,M,M,1000.00,1400.00,M,M,-RA,KUUU 011953Z AUTO 36020G31KT 10SM -RA BKN010 OVC014 02/01 A2972 RMK AO2 PK WND 01032/1905 UPB09E41RAB41SNE09 SLP065 P0000 T00220011
UUU,2017-04-01 19:55,-71.2815,41.5324,M,M,M,360.00,18.00,M,29.72,M,10.00,23.00,BKN,OVC,M,M,999.00,1400.00,M,M,-RA,KUUU 011955Z AUTO 36018G23KT 10SM -RA BKN009 OVC014 A2972 RMK MADISHF
UUU,2017-04-01 20:00,-71.2815,41.5324,M,M,M,360.00,16.00,M,29.73,M,10.00,M,BKN,OVC,M,M,999.00,1400.00,M,M,-RA,KUUU 012000Z AUTO 36016KT 10SM -RA BKN009 OVC014 A2973 RMK MADISHF
UUU,2017-04-01 20:05,-71.2815,41.5324,M,M,M,360.00,20.00,M,29.73,M,10.00,M,BKN,OVC,M,M,999.00,1400.00,M,M,M,KUUU 012005Z AUTO 36020KT 10SM BKN009 OVC014 A2973 RMK MADISHF
UUU,2017-04-01 20:10,-71.2815,41.5324,M,M,M,360.00,20.00,M,29.74,M,10.00,M,OVC,M,M,M,999.00,M,M,M,M,KUUU 012010Z AUTO 36020KT 10SM OVC009 A2974 RMK MADISHF
UUU,2017-04-01 20:15,-71.2815,41.5324,M,M,M,360.00,18.00,M,29.75,M,10.00,M,OVC,M,M,M,999.00,M,M,M,M,KUUU 012015Z AUTO 36018KT 10SM OVC009 A2975 RMK MADISHF
UUU,2017-04-01 20:20,-71.2815,41.5324,M,M,M,350.00,18.00,M,29.76,M,9.00,M,OVC,M,M,M,1100.00,M,M,M,-RA,KUUU 012020Z AUTO 35018KT 9SM -RA OVC011 A2976 RMK MADISHF
UUU,2017-04-01 20:25,-71.2815,41.5324,M,M,M,350.00,17.00,M,29.76,M,9.00,M,OVC,M,M,M,1100.00,M,M,M,-RA,KUUU 012025Z AUTO 35017KT 9SM -RA OVC011 A2976 RMK MADISHF
UUU,2017-04-01 20:30,-71.2815,41.5324,M,M,M,350.00,16.00,M,29.77,M,8.00,M,OVC,M,M,M,1100.00,M,M,M,-RA,KUUU 012030Z AUTO 35016KT 8SM -RA OVC011 A2977 RMK MADISHF
UUU,2017-04-01 20:35,-71.2815,41.5324,M,M,M,360.00,15.00,0.00,29.78,M,6.00,M,OVC,M,M,M,1100.00,M,M,M,UP BR,KUUU 012035Z AUTO 36015KT 6SM UP BR OVC011 A2978 RMK P0000 MADISHF
UUU,2017-04-01 20:40,-71.2815,41.5324,M,M,M,350.00,16.00,0.00,29.78,M,4.00,M,BKN,OVC,M,M,1200.00,1800.00,M,M,UP BR,KUUU 012040Z AUTO 35016KT 4SM UP BR BKN012 OVC018 A2978 RMK P0000 MADISHF
UUU,2017-04-01 20:45,-71.2815,41.5324,M,M,M,350.00,17.00,0.00,29.78,M,4.00,M,BKN,OVC,M,M,1200.00,1800.00,M,M,UP BR,KUUU 012045Z AUTO 35017KT 4SM UP BR BKN012 OVC018 A2978 RMK P0000 MADISHF
UUU,2017-04-01 20:50,-71.2815,41.5324,M,M,M,350.00,18.00,0.00,29.79,M,4.00,M,BKN,OVC,M,M,1200.00,1600.00,M,M,UP BR,KUUU 012050Z AUTO 35018KT 4SM UP BR BKN012 OVC016 A2979 RMK P0000 MADISHF
UUU,2017-04-01 20:53,-71.2815,41.5324,36.00,34.00,92.35,360.00,22.00,0.00,29.79,1008.70,3.00,27.00,BKN,OVC,M,M,1200.00,1600.00,M,M,UP BR,KUUU 012053Z AUTO 36022G27KT 3SM UP BR BKN012 OVC016 02/01 A2979 RMK AO2 PK WND 01030/2010 RAE02B18E34UPB34 SLP087 P0000 60001 T00220011 53031
UUU,2017-04-01 20:55,-71.2815,41.5324,M,M,M,360.00,16.00,0.00,29.79,M,3.00,M,BKN,OVC,M,M,1200.00,1600.00,M,M,UP BR,KUUU 012055Z AUTO 36016KT 3SM UP BR BKN012 OVC016 A2979 RMK P0000 MADISHF
UUU,2017-04-01 21:00,-71.2815,41.5324,M,M,M,360.00,18.00,0.00,29.78,M,4.00,23.00,BKN,OVC,M,M,1100.00,1600.00,M,M,UP BR,KUUU 012100Z AUTO 36018G23KT 4SM UP BR BKN011 OVC016 A2978 RMK P0000 MADISHF
UUU,2017-04-01 21:05,-71.2815,41.5324,M,M,M,10.00,19.00,0.00,29.78,M,4.00,26.00,OVC,M,M,M,1100.00,M,M,M,UP BR,KUUU 012105Z AUTO 01019G26KT 4SM UP BR OVC011 A2978 RMK P0000 MADISHF
UUU,2017-04-01 21:10,-71.2815,41.5324,M,M,M,10.00,19.00,0.00,29.78,M,4.00,25.00,BKN,OVC,M,M,1100.00,1600.00,M,M,UP BR,KUUU 012110Z AUTO 01019G25KT 4SM UP BR BKN011 OVC016 A2978 RMK P0000 MADISHF
UUU,2017-04-01 21:15,-71.2815,41.5324,M,M,M,10.00,18.00,M,29.78,M,4.00,M,BKN,OVC,M,M,1100.00,1600.00,M,M,-RA BR,KUUU 012115Z AUTO 01018KT 4SM -RA BR BKN011 OVC016 A2978 RMK MADISHF
UUU,2017-04-01 21:20,-71.2815,41.5324,M,M,M,360.00,16.00,M,29.79,M,5.00,M,BKN,OVC,M,M,1100.00,1800.00,M,M,-RA BR,KUUU 012120Z AUTO 36016KT 5SM -RA BR BKN011 OVC018 A2979 RMK MADISHF
UUU,2017-04-01 21:25,-71.2815,41.5324,M,M,M,360.00,18.00,M,29.80,M,6.00,M,BKN,OVC,M,M,1100.00,1600.00,M,M,-RA BR,KUUU 012125Z AUTO 36018KT 6SM -RA BR BKN011 OVC016 A2980 RMK MADISHF
UUU,2017-04-01 21:30,-71.2815,41.5324,M,M,M,360.00,16.00,M,29.81,M,6.00,M,BKN,OVC,M,M,1100.00,1600.00,M,M,-RA BR,KUUU 012130Z AUTO 36016KT 6SM -RA BR BKN011 OVC016 A2981 RMK MADISHF
UUU,2017-04-01 21:35,-71.2815,41.5324,M,M,M,360.00,16.00,M,29.82,M,7.00,M,BKN,OVC,M,M,1100.00,1900.00,M,M,-RA,KUUU 012135Z AUTO 36016KT 7SM -RA BKN011 OVC019 A2982 RMK MADISHF
UUU,2017-04-01 21:40,-71.2815,41.5324,M,M,M,350.00,15.00,M,29.82,M,6.00,M,OVC,M,M,M,1100.00,M,M,M,-RA BR,KUUU 012140Z AUTO 35015KT 6SM -RA BR OVC011 A2982 RMK MADISHF
UUU,2017-04-01 21:45,-71.2815,41.5324,M,M,M,360.00,18.00,M,29.83,M,5.00,M,BKN,OVC,M,M,999.00,1400.00,M,M,BR,KUUU 012145Z AUTO 36018KT 5SM BR BKN009 OVC014 A2983 RMK MADISHF
UUU,2017-04-01 21:50,-71.2815,41.5324,M,M,M,350.00,15.00,0.00,29.83,M,4.00,M,BKN,OVC,M,M,999.00,1600.00,M,M,UP BR,KUUU 012150Z AUTO 35015KT 4SM UP BR BKN009 OVC016 A2983 RMK P0000 MADISHF
UUU,2017-04-01 21:53,-71.2815,41.5324,36.00,35.10,96.49,360.00,13.00,0.00,29.84,1010.40,4.00,26.00,BKN,OVC,M,M,1000.00,1600.00,M,M,-RA BR,KUUU 012153Z AUTO 36013G26KT 4SM -RA BR BKN010 OVC016 02/02 A2984 RMK AO2 PK WND 36029/2123 UPE15B48E51RAB15 PRESRR SLP104 P0000 T00220017
UUU,2017-04-01 21:55,-71.2815,41.5324,M,M,M,350.00,15.00,M,29.84,M,4.00,22.00,BKN,OVC,M,M,999.00,1600.00,M,M,-RA BR,KUUU 012155Z AUTO 35015G22KT 4SM -RA BR BKN009 OVC016 A2984 RMK MADISHF
UUU,2017-04-01 22:00,-71.2815,41.5324,M,M,M,360.00,14.00,M,29.85,M,3.50,24.00,BKN,OVC,M,M,999.00,1600.00,M,M,-RA BR,KUUU 012200Z AUTO 36014G24KT 3SM -RA BR BKN009 OVC016 A2985 RMK MADISHF
UUU,2017-04-01 22:05,-71.2815,41.5324,M,M,M,360.00,18.00,0.00,29.85,M,3.50,25.00,BKN,OVC,M,M,999.00,1600.00,M,M,UP BR,KUUU 012205Z AUTO 36018G25KT 3SM UP BR BKN009 OVC016 A2985 RMK P0000 MADISHF
UUU,2017-04-01 22:10,-71.2815,41.5324,M,M,M,360.00,17.00,0.00,29.85,M,3.50,23.00,BKN,OVC,M,M,999.00,1600.00,M,M,UP BR,KUUU 012210Z AUTO 36017G23KT 3SM UP BR BKN009 OVC016 A2985 RMK P0000 MADISHF
UUU,2017-04-01 22:15,-71.2815,41.5324,M,M,M,360.00,15.00,0.00,29.85,M,4.00,M,BKN,OVC,M,M,999.00,1500.00,M,M,UP BR,KUUU 012215Z AUTO 36015KT 4SM UP BR BKN009 OVC015 A2985 RMK P0000 MADISHF
UUU,2017-04-01 22:20,-71.2815,41.5324,M,M,M,350.00,14.00,0.00,29.85,M,5.00,M,BKN,OVC,M,M,999.00,1500.00,M,M,UP BR,KUUU 012220Z AUTO 35014KT 5SM UP BR BKN009 OVC015 A2985 RMK P0000 MADISHF
UUU,2017-04-01 22:25,-71.2815,41.5324,M,M,M,350.00,16.00,M,29.85,M,6.00,M,BKN,BKN,OVC,M,999.00,1400.00,1900.00,M,BR,KUUU 012225Z AUTO 35016KT 6SM BR BKN009 BKN014 OVC019 A2985 RMK MADISHF
UUU,2017-04-01 22:30,-71.2815,41.5324,M,M,M,360.00,19.00,M,29.86,M,6.00,M,FEW,OVC,M,M,800.00,1300.00,M,M,BR,KUUU 012230Z AUTO 36019KT 6SM BR FEW008 OVC013 A2986 RMK MADISHF
UUU,2017-04-01 22:35,-71.2815,41.5324,M,M,M,360.00,20.00,M,29.86,M,7.00,M,OVC,M,M,M,1300.00,M,M,M,-RA,KUUU 012235Z AUTO 36020KT 7SM -RA OVC013 A2986 RMK MADISHF
UUU,2017-04-01 22:40,-71.2815,41.5324,M,M,M,360.00,17.00,M,29.86,M,9.00,M,OVC,M,M,M,1300.00,M,M,M,-RA,KUUU 012240Z AUTO 36017KT 9SM -RA OVC013 A2986 RMK MADISHF
UUU,2017-04-01 22:45,-71.2815,41.5324,M,M,M,350.00,15.00,M,29.86,M,9.00,M,OVC,M,M,M,1300.00,M,M,M,M,KUUU 012245Z AUTO 35015KT 9SM OVC013 A2986 RMK MADISHF
UUU,2017-04-01 22:50,-71.2815,41.5324,M,M,M,360.00,17.00,M,29.87,M,9.00,M,OVC,M,M,M,1300.00,M,M,M,M,KUUU 012250Z AUTO 36017KT 9SM OVC013 A2987 RMK MADISHF
UUU,2017-04-01 22:53,-71.2815,41.5324,36.00,34.00,92.35,360.00,13.00,0.00,29.87,1011.50,9.00,25.00,OVC,M,M,M,1300.00,M,M,M,M,KUUU 012253Z AUTO 36013G25KT 9SM OVC013 02/01 A2987 RMK AO2 PK WND 01028/2233 RAE05B31E41UPB01E24 SLP115 P0000 T00220011
UUU,2017-04-01 22:55,-71.2815,41.5324,M,M,M,350.00,17.00,M,29.87,M,10.00,24.00,OVC,M,M,M,1400.00,M,M,M,M,KUUU 012255Z AUTO 35017G24KT 10SM OVC014 A2987 RMK MADISHF
UUU,2017-04-01 23:00,-71.2815,41.5324,M,M,M,360.00,13.00,M,29.87,M,10.00,M,OVC,M,M,M,1400.00,M,M,M,M,KUUU 012300Z AUTO 36013KT 10SM OVC014 A2987 RMK MADISHF
UUU,2017-04-01 23:05,-71.2815,41.5324,M,M,M,350.00,12.00,M,29.88,M,10.00,M,OVC,M,M,M,1400.00,M,M,M,M,KUUU 012305Z AUTO 35012KT 10SM OVC014 A2988 RMK MADISHF
UUU,2017-04-01 23:10,-71.2815,41.5324,M,M,M,360.00,13.00,M,29.88,M,10.00,18.00,OVC,M,M,M,1400.00,M,M,M,M,KUUU 012310Z AUTO 36013G18KT 10SM OVC014 A2988 RMK MADISHF
UUU,2017-04-01 23:15,-71.2815,41.5324,M,M,M,360.00,13.00,M,29.88,M,10.00,M,OVC,M,M,M,1400.00,M,M,M,M,KUUU 012315Z AUTO 36013KT 10SM OVC014 A2988 RMK MADISHF
UUU,2017-04-01 23:20,-71.2815,41.5324,M,M,M,350.00,15.00,M,29.88,M,10.00,M,OVC,M,M,M,1400.00,M,M,M,M,KUUU 012320Z AUTO 35015KT 10SM OVC014 A2988 RMK MADISHF
UUU,2017-04-01 23:25,-71.2815,41.5324,M,M,M,360.00,16.00,M,29.88,M,10.00,M,OVC,M,M,M,1200.00,M,M,M,M,KUUU 012325Z AUTO 36016KT 10SM OVC012 A2988 RMK MADISHF
UUU,2017-04-01 23:30,-71.2815,41.5324,M,M,M,350.00,18.00,M,29.89,M,10.00,M,OVC,M,M,M,1200.00,M,M,M,M,KUUU 012330Z AUTO 35018KT 10SM OVC012 A2989 RMK MADISHF
UUU,2017-04-01 23:35,-71.2815,41.5324,M,M,M,350.00,11.00,M,29.88,M,10.00,17.00,OVC,M,M,M,1400.00,M,M,M,M,KUUU 012335Z AUTO 35011G17KT 10SM OVC014 A2988 RMK MADISHF
UUU,2017-04-01 23:40,-71.2815,41.5324,M,M,M,350.00,16.00,M,29.89,M,10.00,M,OVC,M,M,M,1400.00,M,M,M,M,KUUU 012340Z AUTO 35016KT 10SM OVC014 A2989 RMK MADISHF
UUU,2017-04-01 23:45,-71.2815,41.5324,M,M,M,350.00,18.00,M,29.89,M,10.00,M,OVC,M,M,M,1400.00,M,M,M,M,KUUU 012345Z AUTO 35018KT 10SM OVC014 A2989 RMK MADISHF
UUU,2017-04-01 23:50,-71.2815,41.5324,M,M,M,360.00,17.00,M,29.89,M,10.00,M,OVC,M,M,M,1400.00,M,M,M,M,KUUU 012350Z AUTO 36017KT 10SM OVC014 A2989 RMK MADISHF
UUU,2017-04-01 23:53,-71.2815,41.5324,35.10,33.10,92.32,360.00,18.00,0.00,29.89,1012.20,10.00,27.00,OVC,M,M,M,1400.00,M,M,M,M,KUUU 012353Z AUTO 36018G27KT 10SM OVC014 02/01 A2989 RMK AO2 PK WND 36029/2337 SLP122 60001 T00170006 10022 20017 51035
UUU,2017-04-01 23:55,-71.2815,41.5324,M,M,M,350.00,17.00,M,29.89,M,10.00,23.00,OVC,M,M,M,1400.00,M,M,M,M,KUUU 012355Z AUTO 35017G23KT 10SM OVC014 A2989 RMK MADISHF
