#DEBUG: Format Typ    -> comma
#DEBUG: Time Period   -> 2017-04-01 00:00:00+00:00 2017-04-02 00:00:00+00:00
#DEBUG: Time Zone     -> Etc/UTC
#DEBUG: Data Contact   -> daryl herzmann akrherz@iastate.edu 515-294-5978
#DEBUG: Entries Found -> -1
station,valid,lon,lat,tmpf, dwpf, relh, drct, sknt, p01i, alti, mslp, vsby, gust, skyc1, skyc2, skyc3, skyc4, skyl1, skyl2, skyl3, skyl4, presentwx, metar
VAY,2017-04-01 00:00,-74.8457,39.9429,M,M,M,50.00,6.00,M,29.65,M,3.00,M,OVC,M,M,M,400.00,M,M,M,-RA BR,KVAY 010000Z AUTO 05006KT 3SM -RA BR OVC004 A2965 RMK MADISHF
VAY,2017-04-01 00:05,-74.8457,39.9429,M,M,M,40.00,5.00,M,29.65,M,3.00,M,OVC,M,M,M,400.00,M,M,M,-RA BR,KVAY 010005Z AUTO 04005KT 3SM -RA BR OVC004 A2965 RMK MADISHF
VAY,2017-04-01 00:10,-74.8457,39.9429,M,M,M,60.00,5.00,M,29.65,M,2.50,M,OVC,M,M,M,400.00,M,M,M,BR,KVAY 010010Z AUTO 06005KT 2 1/2SM BR OVC004 A2965 RMK MADISHF
VAY,2017-04-01 00:14,-74.8457,39.9429,46.00,45.00,96.28,50.00,8.00,0.01,29.65,M,2.50,M,OVC,M,M,M,400.00,M,M,M,BR,KVAY 010014Z AUTO 05008KT 2 1/2SM BR OVC004 08/07 A2965 RMK AO2 RAE10 P0001 T00780072
VAY,2017-04-01 00:15,-74.8457,39.9429,M,M,M,50.00,9.00,0.01,29.65,M,2.50,M,OVC,M,M,M,400.00,M,M,M,BR,KVAY 010015Z AUTO 05009KT 2 1/2SM BR OVC004 A2965 RMK P0001 MADISHF
VAY,2017-04-01 00:20,-74.8457,39.9429,M,M,M,40.00,5.00,0.01,29.65,M,2.50,M,OVC,M,M,M,400.00,M,M,M,BR,KVAY 010020Z AUTO 04005KT 2 1/2SM BR OVC004 A2965 RMK P0001 MADISHF
VAY,2017-04-01 00:25,-74.8457,39.9429,M,M,M,40.00,5.00,0.01,29.65,M,2.50,M,OVC,M,M,M,400.00,M,M,M,BR,KVAY 010025Z AUTO 04005KT 2 1/2SM BR OVC004 A2965 RMK P0001 MADISHF
VAY,2017-04-01 00:30,-74.8457,39.9429,M,M,M,30.00,8.00,0.01,29.66,M,2.50,M,OVC,M,M,M,400.00,M,M,M,BR,KVAY 010030Z AUTO 03008KT 2 1/2SM BR OVC004 A2966 RMK P0001 MADISHF
VAY,2017-04-01 00:35,-74.8457,39.9429,M,M,M,30.00,6.00,0.01,29.65,M,2.50,M,OVC,M,M,M,400.00,M,M,M,BR,KVAY 010035Z AUTO 03006KT 2 1/2SM BR OVC004 A2965 RMK P0001 MADISHF
VAY,2017-04-01 00:40,-74.8457,39.9429,M,M,M,40.00,7.00,0.01,29.65,M,2.50,M,OVC,M,M,M,400.00,M,M,M,BR,KVAY 010040Z AUTO 04007KT 2 1/2SM BR OVC004 A2965 RMK P0001 MADISHF
VAY,2017-04-01 00:45,-74.8457,39.9429,M,M,M,30.00,6.00,0.01,29.65,M,2.50,M,OVC,M,M,M,400.00,M,M,M,BR,KVAY 010045Z AUTO 03006KT 2 1/2SM BR OVC004 A2965 RMK P0001 MADISHF
VAY,2017-04-01 00:50,-74.8457,39.9429,M,M,M,30.00,7.00,0.01,29.65,M,2.50,M,OVC,M,M,M,400.00,M,M,M,BR,KVAY 010050Z AUTO 03007KT 2 1/2SM BR OVC004 A2965 RMK P0001 MADISHF
VAY,2017-04-01 00:54,-74.8457,39.9429,46.00,45.00,96.28,30.00,7.00,0.01,29.65,1004.00,2.50,M,OVC,M,M,M,400.00,M,M,M,BR,KVAY 010054Z AUTO 03007KT 2 1/2SM BR OVC004 08/07 A2965 RMK AO2 RAE10 SLP040 P0001 T00780072
VAY,2017-04-01 00:55,-74.8457,39.9429,M,M,M,30.00,6.00,M,29.65,M,2.50,M,OVC,M,M,M,400.00,M,M,M,BR,KVAY 010055Z AUTO 03006KT 2 1/2SM BR OVC004 A2965 RMK MADISHF
VAY,2017-04-01 01:00,-74.8457,39.9429,M,M,M,30.00,8.00,M,29.65,M,2.00,M,OVC,M,M,M,400.00,M,M,M,-RA BR,KVAY 010100Z AUTO 03008KT 2SM -RA BR OVC004 A2965 RMK MADISHF
VAY,2017-04-01 01:05,-74.8457,39.9429,M,M,M,30.00,7.00,M,29.65,M,1.75,M,OVC,M,M,M,400.00,M,M,M,-RA BR,KVAY 010105Z AUTO 03007KT 2SM -RA BR OVC004 A2965 RMK MADISHF
VAY,2017-04-01 01:08,-74.8457,39.9429,45.00,45.00,100.00,30.00,7.00,0.00,29.65,M,1.50,M,OVC,M,M,M,400.00,M,M,M,-RA BR,KVAY 010108Z AUTO 03007KT 1 1/2SM -RA BR OVC004 07/07 A2965 RMK AO2 RAB0059 P0000 T00720072
VAY,2017-04-01 01:10,-74.8457,39.9429,M,M,M,30.00,9.00,0.01,29.65,M,1.75,M,OVC,M,M,M,400.00,M,M,M,-RA BR,KVAY 010110Z AUTO 03009KT 2SM -RA BR OVC004 A2965 RMK P0001 MADISHF
VAY,2017-04-01 01:15,-74.8457,39.9429,M,M,M,20.00,7.00,0.01,29.65,M,2.00,M,OVC,M,M,M,400.00,M,M,M,-RA BR,KVAY 010115Z AUTO 02007KT 2SM -RA BR OVC004 A2965 RMK P0001 MADISHF
VAY,2017-04-01 01:18,-74.8457,39.9429,45.00,44.10,96.63,30.00,8.00,0.01,29.65,M,2.00,M,OVC,M,M,M,400.00,M,M,M,-RA BR,KVAY 010118Z AUTO 03008KT 2SM -RA BR OVC004 07/07 A2965 RMK AO2 RAB0059 P0001 T00720067 $
VAY,2017-04-01 01:20,-74.8457,39.9429,M,M,M,20.00,6.00,0.01,29.65,M,M,M,OVC,M,M,M,400.00,M,M,M,-RA,KVAY 010120Z AUTO 02006KT -RA OVC004 A2965 RMK P0001 MADISHF
VAY,2017-04-01 01:25,-74.8457,39.9429,M,M,M,30.00,7.00,0.02,29.64,M,M,M,OVC,M,M,M,400.00,M,M,M,-RA,KVAY 010125Z AUTO 03007KT -RA OVC004 A2964 RMK P0002 MADISHF
VAY,2017-04-01 01:26,-74.8457,39.9429,45.00,44.10,96.63,30.00,8.00,0.02,29.64,M,M,M,OVC,M,M,M,400.00,M,M,M,-RA,KVAY 010126Z AUTO 03008KT -RA OVC004 07/07 A2964 RMK AO2 RAB0059 P0002 T00720067 $
VAY,2017-04-01 01:30,-74.8457,39.9429,M,M,M,30.00,8.00,0.03,29.64,M,M,M,OVC,M,M,M,400.00,M,M,M,RA,KVAY 010130Z AUTO 03008KT RA OVC004 A2964 RMK P0003 MADISHF
VAY,2017-04-01 01:35,-74.8457,39.9429,M,M,M,30.00,8.00,0.03,29.64,M,2.50,M,OVC,M,M,M,400.00,M,M,M,-RA BR,KVAY 010135Z AUTO 03008KT 2 1/2SM -RA BR OVC004 A2964 RMK P0003 MADISHF
VAY,2017-04-01 01:40,-74.8457,39.9429,M,M,M,20.00,6.00,0.03,29.64,M,4.00,M,OVC,M,M,M,400.00,M,M,M,-RA BR,KVAY 010140Z AUTO 02006KT 4SM -RA BR OVC004 A2964 RMK P0003 MADISHF
VAY,2017-04-01 01:45,-74.8457,39.9429,M,M,M,20.00,8.00,0.03,29.64,M,3.50,M,OVC,M,M,M,400.00,M,M,M,BR,KVAY 010145Z AUTO 02008KT 3SM BR OVC004 A2964 RMK P0003 MADISHF
VAY,2017-04-01 01:50,-74.8457,39.9429,M,M,M,30.00,8.00,0.03,29.64,M,3.00,M,OVC,M,M,M,400.00,M,M,M,BR,KVAY 010150Z AUTO 03008KT 3SM BR OVC004 A2964 RMK P0003 MADISHF
VAY,2017-04-01 01:54,-74.8457,39.9429,45.00,44.10,96.63,20.00,8.00,0.03,29.64,1003.60,2.50,M,OVC,M,M,M,400.00,M,M,M,BR,KVAY 010154Z AUTO 02008KT 2 1/2SM BR OVC004 07/07 A2964 RMK AO2 RAB0059E42 SLP036 P0003 T00720067 $
VAY,2017-04-01 01:55,-74.8457,39.9429,M,M,M,20.00,8.00,M,29.64,M,2.50,M,OVC,M,M,M,400.00,M,M,M,BR,KVAY 010155Z AUTO 02008KT 2 1/2SM BR OVC004 A2964 RMK MADISHF
VAY,2017-04-01 02:00,-74.8457,39.9429,M,M,M,20.00,8.00,M,29.64,M,2.50,M,OVC,M,M,M,400.00,M,M,M,BR,KVAY 010200Z AUTO 02008KT 2 1/2SM BR OVC004 A2964 RMK MADISHF
VAY,2017-04-01 02:05,-74.8457,39.9429,M,M,M,10.00,7.00,M,29.64,M,2.50,M,OVC,M,M,M,400.00,M,M,M,BR,KVAY 010205Z AUTO 01007KT 2 1/2SM BR OVC004 A2964 RMK MADISHF
VAY,2017-04-01 02:10,-74.8457,39.9429,M,M,M,20.00,8.00,M,29.64,M,2.50,M,OVC,M,M,M,400.00,M,M,M,BR,KVAY 010210Z AUTO 02008KT 2 1/2SM BR OVC004 A2964 RMK MADISHF
VAY,2017-04-01 02:15,-74.8457,39.9429,M,M,M,20.00,7.00,M,29.64,M,2.50,M,OVC,M,M,M,400.00,M,M,M,BR,KVAY 010215Z AUTO 02007KT 2 1/2SM BR OVC004 A2964 RMK MADISHF
VAY,2017-04-01 02:20,-74.8457,39.9429,M,M,M,10.00,7.00,M,29.64,M,2.50,M,OVC,M,M,M,400.00,M,M,M,BR,KVAY 010220Z AUTO 01007KT 2 1/2SM BR OVC004 A2964 RMK MADISHF
VAY,2017-04-01 02:25,-74.8457,39.9429,M,M,M,10.00,9.00,M,29.63,M,2.50,M,OVC,M,M,M,400.00,M,M,M,BR,KVAY 010225Z AUTO 01009KT 2 1/2SM BR OVC004 A2963 RMK MADISHF
VAY,2017-04-01 02:30,-74.8457,39.9429,M,M,M,20.00,7.00,M,29.63,M,2.00,M,OVC,M,M,M,400.00,M,M,M,-RA BR,KVAY 010230Z AUTO 02007KT 2SM -RA BR OVC004 A2963 RMK MADISHF
VAY,2017-04-01 02:35,-74.8457,39.9429,M,M,M,30.00,10.00,M,29.62,M,1.75,M,OVC,M,M,M,400.00,M,M,M,-RA BR,KVAY 010235Z AUTO 03010KT 2SM -RA BR OVC004 A2962 RMK MADISHF
VAY,2017-04-01 02:40,-74.8457,39.9429,M,M,M,30.00,9.00,M,29.63,M,2.00,M,OVC,M,M,M,400.00,M,M,M,-RA BR,KVAY 010240Z AUTO 03009KT 2SM -RA BR OVC004 A2963 RMK MADISHF
VAY,2017-04-01 02:45,-74.8457,39.9429,M,M,M,20.00,7.00,M,29.63,M,2.50,M,OVC,M,M,M,400.00,M,M,M,-RA BR,KVAY 010245Z AUTO 02007KT 2 1/2SM -RA BR OVC004 A2963 RMK MADISHF
VAY,2017-04-01 02:50,-74.8457,39.9429,M,M,M,20.00,8.00,M,29.63,M,2.50,M,OVC,M,M,M,400.00,M,M,M,BR,KVAY 010250Z AUTO 02008KT 2 1/2SM BR OVC004 A2963 RMK MADISHF
VAY,2017-04-01 02:54,-74.8457,39.9429,44.10,43.00,95.88,20.00,9.00,0.01,29.63,1003.20,2.50,M,OVC,M,M,M,400.00,M,M,M,BR,KVAY 010254Z AUTO 02009KT 2 1/2SM BR OVC004 07/06 A2963 RMK AO2 RAB29E48 SLP032 P0001 60005 T00670061 58007 $
VAY,2017-04-01 02:55,-74.8457,39.9429,M,M,M,10.00,8.00,M,29.63,M,2.50,M,OVC,M,M,M,400.00,M,M,M,BR,KVAY 010255Z AUTO 01008KT 2 1/2SM BR OVC004 A2963 RMK MADISHF
VAY,2017-04-01 03:00,-74.8457,39.9429,M,M,M,20.00,10.00,M,29.63,M,2.00,M,OVC,M,M,M,400.00,M,M,M,BR,KVAY 010300Z AUTO 02010KT 2SM BR OVC004 A2963 RMK MADISHF
VAY,2017-04-01 03:05,-74.8457,39.9429,M,M,M,20.00,7.00,M,29.63,M,2.00,M,OVC,M,M,M,400.00,M,M,M,BR,KVAY 010305Z AUTO 02007KT 2SM BR OVC004 A2963 RMK MADISHF
VAY,2017-04-01 03:10,-74.8457,39.9429,M,M,M,20.00,8.00,M,29.63,M,2.00,M,OVC,M,M,M,400.00,M,M,M,BR,KVAY 010310Z AUTO 02008KT 2SM BR OVC004 A2963 RMK MADISHF
VAY,2017-04-01 03:15,-74.8457,39.9429,M,M,M,30.00,8.00,M,29.62,M,2.50,M,OVC,M,M,M,400.00,M,M,M,BR,KVAY 010315Z AUTO 03008KT 2 1/2SM BR OVC004 A2962 RMK MADISHF
VAY,2017-04-01 03:20,-74.8457,39.9429,M,M,M,20.00,8.00,M,29.62,M,2.50,M,OVC,M,M,M,400.00,M,M,M,BR,KVAY 010320Z AUTO 02008KT 2 1/2SM BR OVC004 A2962 RMK MADISHF
VAY,2017-04-01 03:25,-74.8457,39.9429,M,M,M,30.00,10.00,M,29.62,M,3.00,M,OVC,M,M,M,400.00,M,M,M,BR,KVAY 010325Z AUTO 03010KT 3SM BR OVC004 A2962 RMK MADISHF
VAY,2017-04-01 03:28,-74.8457,39.9429,43.00,42.10,96.60,20.00,9.00,0.00,29.62,M,3.00,M,OVC,M,M,M,400.00,M,M,M,BR,KVAY 010328Z AUTO 02009KT 3SM BR OVC004 06/06 A2962 RMK AO2 T00610056 $
VAY,2017-04-01 03:30,-74.8457,39.9429,M,M,M,M,M,M,29.62,M,3.50,M,OVC,M,M,M,400.00,M,M,M,BR,KVAY 010330Z AUTO /////KT 3SM BR OVC004 A2962 RMK MADISHF
VAY,2017-04-01 03:35,-74.8457,39.9429,M,M,M,20.00,10.00,M,29.61,M,4.00,M,OVC,M,M,M,499.00,M,M,M,BR,KVAY 010335Z AUTO 02010KT 4SM BR OVC004 A2961 RMK MADISHF
VAY,2017-04-01 03:40,-74.8457,39.9429,43.00,42.10,96.60,30.00,11.00,0.00,29.61,M,4.00,M,OVC,M,M,M,500.00,M,M,M,BR,KVAY 010340Z AUTO 03011KT 4SM BR OVC005 06/06 A2961 RMK AO2 T00610056 $
VAY,2017-04-01 03:45,-74.8457,39.9429,M,M,M,20.00,10.00,M,29.61,M,4.00,M,OVC,M,M,M,499.00,M,M,M,BR,KVAY 010345Z AUTO 02010KT 4SM BR OVC004 A2961 RMK MADISHF
VAY,2017-04-01 03:50,-74.8457,39.9429,M,M,M,20.00,9.00,M,29.62,M,5.00,M,OVC,M,M,M,499.00,M,M,M,BR,KVAY 010350Z AUTO 02009KT 5SM BR OVC004 A2962 RMK MADISHF
VAY,2017-04-01 03:54,-74.8457,39.9429,43.00,42.10,96.60,10.00,10.00,0.00,29.62,1002.80,5.00,M,OVC,M,M,M,500.00,M,M,M,BR,KVAY 010354Z AUTO 01010KT 5SM BR OVC005 06/06 A2962 RMK AO2 SLP028 T00610056 $
VAY,2017-04-01 03:55,-74.8457,39.9429,M,M,M,M,M,M,29.62,M,5.00,M,OVC,M,M,M,499.00,M,M,M,BR,KVAY 010355Z AUTO /////KT 5SM BR OVC004 A2962 RMK MADISHF
VAY,2017-04-01 04:00,-74.8457,39.9429,M,M,M,20.00,10.00,M,29.61,M,5.00,15.00,OVC,M,M,M,499.00,M,M,M,BR,KVAY 010400Z AUTO 02010G15KT 5SM BR OVC004 A2961 RMK MADISHF
VAY,2017-04-01 04:05,-74.8457,39.9429,M,M,M,M,M,M,29.61,M,5.00,M,OVC,M,M,M,499.00,M,M,M,BR,KVAY 010405Z AUTO /////KT 5SM BR OVC004 A2961 RMK MADISHF
VAY,2017-04-01 04:10,-74.8457,39.9429,M,M,M,20.00,9.00,M,29.62,M,5.00,M,OVC,M,M,M,499.00,M,M,M,BR,KVAY 010410Z AUTO 02009KT 5SM BR OVC004 A2962 RMK MADISHF
VAY,2017-04-01 04:15,-74.8457,39.9429,M,M,M,20.00,10.00,M,29.62,M,5.00,M,OVC,M,M,M,499.00,M,M,M,BR,KVAY 010415Z AUTO 02010KT 5SM BR OVC004 A2962 RMK MADISHF
VAY,2017-04-01 04:20,-74.8457,39.9429,M,M,M,30.00,10.00,M,29.62,M,5.00,M,OVC,M,M,M,499.00,M,M,M,BR,KVAY 010420Z AUTO 03010KT 5SM BR OVC004 A2962 RMK MADISHF
VAY,2017-04-01 04:25,-74.8457,39.9429,M,M,M,30.00,9.00,M,29.62,M,5.00,M,OVC,M,M,M,499.00,M,M,M,BR,KVAY 010425Z AUTO 03009KT 5SM BR OVC004 A2962 RMK MADISHF
VAY,2017-04-01 04:30,-74.8457,39.9429,M,M,M,30.00,8.00,M,29.63,M,4.00,M,OVC,M,M,M,499.00,M,M,M,BR,KVAY 010430Z AUTO 03008KT 4SM BR OVC004 A2963 RMK MADISHF
VAY,2017-04-01 04:35,-74.8457,39.9429,M,M,M,20.00,7.00,M,29.63,M,4.00,M,OVC,M,M,M,499.00,M,M,M,BR,KVAY 010435Z AUTO 02007KT 4SM BR OVC004 A2963 RMK MADISHF
VAY,2017-04-01 04:40,-74.8457,39.9429,M,M,M,30.00,7.00,M,29.62,M,3.00,M,OVC,M,M,M,499.00,M,M,M,BR,KVAY 010440Z AUTO 03007KT 3SM BR OVC004 A2962 RMK MADISHF
VAY,2017-04-01 04:45,-74.8457,39.9429,M,M,M,30.00,7.00,M,29.62,M,2.50,M,OVC,M,M,M,499.00,M,M,M,BR,KVAY 010445Z AUTO 03007KT 2 1/2SM BR OVC004 A2962 RMK MADISHF
VAY,2017-04-01 04:50,-74.8457,39.9429,42.80,41.00,93.30,30.00,9.00,0.00,29.63,M,2.00,M,OVC,M,M,M,500.00,M,M,M,-RA BR,KVAY 010450Z AUTO 03009KT 2SM -RA BR OVC005 06/05 A2963 RMK AO2 RAB50 P0000 $
VAY,2017-04-01 04:54,-74.8457,39.9429,42.10,41.00,95.84,20.00,8.00,0.00,29.63,1003.20,2.00,M,OVC,M,M,M,500.00,M,M,M,-RA BR,KVAY 010454Z AUTO 02008KT 2SM -RA BR OVC005 06/05 A2963 RMK AO2 RAB50 SLP032 P0000 T00560050 401000028 $
VAY,2017-04-01 04:55,-74.8457,39.9429,M,M,M,20.00,7.00,M,29.63,M,2.00,M,OVC,M,M,M,499.00,M,M,M,-RA BR,KVAY 010455Z AUTO 02007KT 2SM -RA BR OVC004 A2963 RMK MADISHF
VAY,2017-04-01 05:00,-74.8457,39.9429,M,M,M,M,M,M,29.63,M,2.00,M,OVC,M,M,M,499.00,M,M,M,-RA BR,KVAY 010500Z AUTO /////KT 2SM -RA BR OVC004 A2963 RMK MADISHF
VAY,2017-04-01 05:05,-74.8457,39.9429,M,M,M,10.00,11.00,M,29.63,M,2.00,M,OVC,M,M,M,499.00,M,M,M,-RA BR,KVAY 010505Z AUTO 01011KT 2SM -RA BR OVC004 A2963 RMK MADISHF
VAY,2017-04-01 05:10,-74.8457,39.9429,M,M,M,M,M,M,29.63,M,2.00,M,OVC,M,M,M,499.00,M,M,M,-RA BR,KVAY 010510Z AUTO /////KT 2SM -RA BR OVC004 A2963 RMK MADISHF
VAY,2017-04-01 05:15,-74.8457,39.9429,M,M,M,M,M,M,29.63,M,2.00,M,OVC,M,M,M,499.00,M,M,M,-RA BR,KVAY 010515Z AUTO /////KT 2SM -RA BR OVC004 A2963 RMK MADISHF
VAY,2017-04-01 05:20,-74.8457,39.9429,M,M,M,10.00,10.00,M,29.62,M,2.00,M,OVC,M,M,M,499.00,M,M,M,-RA BR,KVAY 010520Z AUTO 01010KT 2SM -RA BR OVC004 A2962 RMK MADISHF
VAY,2017-04-01 05:25,-74.8457,39.9429,M,M,M,10.00,9.00,M,29.62,M,2.00,M,OVC,M,M,M,499.00,M,M,M,-RA BR,KVAY 010525Z AUTO 01009KT 2SM -RA BR OVC004 A2962 RMK MADISHF
VAY,2017-04-01 05:30,-74.8457,39.9429,M,M,M,20.00,10.00,M,29.63,M,2.00,M,OVC,M,M,M,499.00,M,M,M,-RA BR,KVAY 010530Z AUTO 02010KT 2SM -RA BR OVC004 A2963 RMK MADISHF
VAY,2017-04-01 05:35,-74.8457,39.9429,M,M,M,10.00,8.00,M,29.62,M,2.50,M,OVC,M,M,M,499.00,M,M,M,-RA BR,KVAY 010535Z AUTO 01008KT 2 1/2SM -RA BR OVC004 A2962 RMK MADISHF
VAY,2017-04-01 05:40,-74.8457,39.9429,M,M,M,10.00,11.00,M,29.62,M,2.50,M,OVC,M,M,M,499.00,M,M,M,-RA BR,KVAY 010540Z AUTO 01011KT 2 1/2SM -RA BR OVC004 A2962 RMK MADISHF
VAY,2017-04-01 05:45,-74.8457,39.9429,M,M,M,M,M,M,29.62,M,3.00,M,OVC,M,M,M,499.00,M,M,M,-RA BR,KVAY 010545Z AUTO /////KT 3SM -RA BR OVC004 A2962 RMK CIG 4V10  MADISHF
VAY,2017-04-01 05:49,-74.8457,39.9429,42.80,39.20,86.99,10.00,11.00,0.00,29.62,M,4.00,19.00,OVC,M,M,M,500.00,M,M,M,-RA BR,KVAY 010549Z AUTO 01011G19KT 4SM -RA BR OVC005 06/04 A2962 RMK AO2 CIG 005V010 P0000 $
VAY,2017-04-01 05:50,-74.8457,39.9429,M,M,M,20.00,11.00,M,29.62,M,4.00,M,OVC,M,M,M,499.00,M,M,M,-RA BR,KVAY 010550Z AUTO 02011KT 4SM -RA BR OVC004 A2962 RMK CIG 5V10  MADISHF
VAY,2017-04-01 05:54,-74.8457,39.9429,42.10,39.90,91.84,20.00,11.00,0.00,29.62,1002.80,4.00,M,OVC,M,M,M,600.00,M,M,M,-RA BR,KVAY 010554Z AUTO 02011KT 4SM -RA BR OVC006 06/04 A2962 RMK AO2 CIG 005V010 SLP028 P0000 60005 T00560044 10083 20056 58003 $
VAY,2017-04-01 05:55,-74.8457,39.9429,M,M,M,20.00,10.00,M,29.62,M,4.00,M,OVC,M,M,M,600.00,M,M,M,-RA BR,KVAY 010555Z AUTO 02010KT 4SM -RA BR OVC006 A2962 RMK CIG 5V10  MADISHF
VAY,2017-04-01 06:00,-74.8457,39.9429,M,M,M,20.00,8.00,M,29.62,M,4.00,M,OVC,M,M,M,600.00,M,M,M,-RA BR,KVAY 010600Z AUTO 02008KT 4SM -RA BR OVC006 A2962 RMK MADISHF
VAY,2017-04-01 06:05,-74.8457,39.9429,M,M,M,30.00,8.00,M,29.62,M,4.00,M,OVC,M,M,M,600.00,M,M,M,BR,KVAY 010605Z AUTO 03008KT 4SM BR OVC006 A2962 RMK MADISHF
VAY,2017-04-01 06:10,-74.8457,39.9429,M,M,M,20.00,10.00,M,29.63,M,4.00,M,OVC,M,M,M,600.00,M,M,M,BR,KVAY 010610Z AUTO 02010KT 4SM BR OVC006 A2963 RMK CIG 4V9  MADISHF
VAY,2017-04-01 06:15,-74.8457,39.9429,M,M,M,360.00,10.00,M,29.64,M,3.50,M,OVC,M,M,M,600.00,M,M,M,BR,KVAY 010615Z AUTO 36010KT 3SM BR OVC006 A2964 RMK CIG 4V9  MADISHF
VAY,2017-04-01 06:20,-74.8457,39.9429,M,M,M,20.00,10.00,M,29.64,M,3.50,M,OVC,M,M,M,600.00,M,M,M,BR,KVAY 010620Z AUTO 02010KT 3SM BR OVC006 A2964 RMK CIG 4V9  MADISHF
VAY,2017-04-01 06:25,-74.8457,39.9429,M,M,M,10.00,10.00,M,29.63,M,3.00,M,OVC,M,M,M,600.00,M,M,M,BR,KVAY 010625Z AUTO 01010KT 3SM BR OVC006 A2963 RMK MADISHF
VAY,2017-04-01 06:30,-74.8457,39.9429,M,M,M,M,M,M,29.64,M,3.00,M,OVC,M,M,M,600.00,M,M,M,BR,KVAY 010630Z AUTO /////KT 3SM BR OVC006 A2964 RMK MADISHF
VAY,2017-04-01 06:35,-74.8457,39.9429,M,M,M,20.00,10.00,M,29.64,M,2.50,M,OVC,M,M,M,600.00,M,M,M,BR,KVAY 010635Z AUTO 02010KT 2 1/2SM BR OVC006 A2964 RMK CIG 4V9  MADISHF
VAY,2017-04-01 06:38,-74.8457,39.9429,41.00,39.00,92.52,10.00,9.00,0.00,29.64,M,2.50,M,OVC,M,M,M,600.00,M,M,M,BR,KVAY 010638Z AUTO 01009KT 2 1/2SM BR OVC006 05/04 A2964 RMK AO2 RAE03 CIG 004V009 P0000 T00500039 $
VAY,2017-04-01 06:40,-74.8457,39.9429,M,M,M,10.00,8.00,M,29.64,M,2.50,M,OVC,M,M,M,600.00,M,M,M,BR,KVAY 010640Z AUTO 01008KT 2 1/2SM BR OVC006 A2964 RMK CIG 4V9  MADISHF
VAY,2017-04-01 06:45,-74.8457,39.9429,M,M,M,360.00,8.00,M,29.64,M,2.50,M,OVC,M,M,M,600.00,M,M,M,BR,KVAY 010645Z AUTO 36008KT 2 1/2SM BR OVC006 A2964 RMK CIG 4V9  MADISHF
VAY,2017-04-01 06:50,-74.8457,39.9429,M,M,M,M,M,M,29.64,M,3.00,M,OVC,M,M,M,600.00,M,M,M,BR,KVAY 010650Z AUTO /////KT 3SM BR OVC006 A2964 RMK CIG 4V9  MADISHF
VAY,2017-04-01 06:54,-74.8457,39.9429,39.90,39.00,96.55,10.00,11.00,0.00,29.64,1003.80,3.00,M,OVC,M,M,M,600.00,M,M,M,BR,KVAY 010654Z AUTO 01011KT 3SM BR OVC006 04/04 A2964 RMK AO2 RAE03 CIG 004V009 SLP038 P0000 T00440039 $
VAY,2017-04-01 06:55,-74.8457,39.9429,M,M,M,360.00,10.00,M,29.64,M,3.00,M,OVC,M,M,M,600.00,M,M,M,BR,KVAY 010655Z AUTO 36010KT 3SM BR OVC006 A2964 RMK CIG 4V9  MADISHF
VAY,2017-04-01 07:00,-74.8457,39.9429,M,M,M,10.00,9.00,M,29.64,M,3.00,M,OVC,M,M,M,600.00,M,M,M,BR,KVAY 010700Z AUTO 01009KT 3SM BR OVC006 A2964 RMK CIG 4V9  MADISHF
VAY,2017-04-01 07:05,-74.8457,39.9429,M,M,M,360.00,9.00,M,29.64,M,3.50,M,OVC,M,M,M,600.00,M,M,M,BR,KVAY 010705Z AUTO 36009KT 3SM BR OVC006 A2964 RMK CIG 4V8  MADISHF
VAY,2017-04-01 07:10,-74.8457,39.9429,M,M,M,350.00,9.00,M,29.65,M,3.50,M,OVC,M,M,M,600.00,M,M,M,BR,KVAY 010710Z AUTO 35009KT 3SM BR OVC006 A2965 RMK CIG 4V8  MADISHF
VAY,2017-04-01 07:15,-74.8457,39.9429,M,M,M,360.00,10.00,M,29.65,M,3.50,M,OVC,M,M,M,600.00,M,M,M,BR,KVAY 010715Z AUTO 36010KT 3SM BR OVC006 A2965 RMK CIG 4V9  MADISHF
VAY,2017-04-01 07:20,-74.8457,39.9429,M,M,M,360.00,10.00,M,29.65,M,3.50,M,OVC,M,M,M,600.00,M,M,M,BR,KVAY 010720Z AUTO 36010KT 3SM BR OVC006 A2965 RMK CIG 4V9  MADISHF
VAY,2017-04-01 07:25,-74.8457,39.9429,M,M,M,350.00,11.00,M,29.65,M,3.00,M,OVC,M,M,M,600.00,M,M,M,-RA BR,KVAY 010725Z AUTO 35011KT 3SM -RA BR OVC006 A2965 RMK MADISHF
VAY,2017-04-01 07:30,-74.8457,39.9429,M,M,M,350.00,11.00,M,29.65,M,3.50,M,OVC,M,M,M,600.00,M,M,M,-RA BR,KVAY 010730Z AUTO 35011KT 3SM -RA BR OVC006 A2965 RMK CIG 4V10  MADISHF
VAY,2017-04-01 07:35,-74.8457,39.9429,M,M,M,340.00,12.00,M,29.65,M,4.00,M,OVC,M,M,M,600.00,M,M,M,-RA BR,KVAY 010735Z AUTO 34012KT 4SM -RA BR OVC006 A2965 RMK CIG 4V10  MADISHF
VAY,2017-04-01 07:40,-74.8457,39.9429,M,M,M,350.00,8.00,M,29.65,M,4.00,M,OVC,M,M,M,600.00,M,M,M,-RA BR,KVAY 010740Z AUTO 35008KT 4SM -RA BR OVC006 A2965 RMK MADISHF
VAY,2017-04-01 07:45,-74.8457,39.9429,M,M,M,350.00,9.00,M,29.65,M,4.00,M,OVC,M,M,M,600.00,M,M,M,BR,KVAY 010745Z AUTO 35009KT 4SM BR OVC006 A2965 RMK MADISHF
VAY,2017-04-01 07:50,-74.8457,39.9429,M,M,M,350.00,10.00,M,29.66,M,4.00,M,OVC,M,M,M,600.00,M,M,M,BR,KVAY 010750Z AUTO 35010KT 4SM BR OVC006 A2966 RMK CIG 4V10  MADISHF
VAY,2017-04-01 07:54,-74.8457,39.9429,39.00,37.90,95.78,350.00,10.00,0.00,29.66,1004.10,4.00,M,OVC,M,M,M,600.00,M,M,M,BR,KVAY 010754Z AUTO 35010KT 4SM BR OVC006 04/03 A2966 RMK AO2 RAB22E44 CIG 004V009 SLP041 P0000 T00390033 $
VAY,2017-04-01 07:55,-74.8457,39.9429,M,M,M,350.00,9.00,M,29.66,M,4.00,M,OVC,M,M,M,600.00,M,M,M,BR,KVAY 010755Z AUTO 35009KT 4SM BR OVC006 A2966 RMK CIG 4V9  MADISHF
VAY,2017-04-01 08:00,-74.8457,39.9429,M,M,M,340.00,8.00,M,29.66,M,4.00,M,OVC,M,M,M,600.00,M,M,M,BR,KVAY 010800Z AUTO 34008KT 4SM BR OVC006 A2966 RMK CIG 4V9  MADISHF
VAY,2017-04-01 08:05,-74.8457,39.9429,M,M,M,340.00,9.00,M,29.66,M,5.00,M,OVC,M,M,M,600.00,M,M,M,BR,KVAY 010805Z AUTO 34009KT 5SM BR OVC006 A2966 RMK CIG 4V11  MADISHF
VAY,2017-04-01 08:10,-74.8457,39.9429,M,M,M,340.00,8.00,M,29.66,M,4.00,M,OVC,M,M,M,600.00,M,M,M,BR,KVAY 010810Z AUTO 34008KT 4SM BR OVC006 A2966 RMK CIG 4V11  MADISHF
VAY,2017-04-01 08:15,-74.8457,39.9429,M,M,M,340.00,6.00,M,29.66,M,4.00,M,OVC,M,M,M,700.00,M,M,M,BR,KVAY 010815Z AUTO 34006KT 4SM BR OVC007 A2966 RMK CIG 5V11  MADISHF
VAY,2017-04-01 08:20,-74.8457,39.9429,M,M,M,340.00,9.00,M,29.66,M,4.00,M,OVC,M,M,M,700.00,M,M,M,BR,KVAY 010820Z AUTO 34009KT 4SM BR OVC007 A2966 RMK CIG 5V11  MADISHF
VAY,2017-04-01 08:25,-74.8457,39.9429,M,M,M,350.00,8.00,M,29.66,M,5.00,M,OVC,M,M,M,700.00,M,M,M,BR,KVAY 010825Z AUTO 35008KT 5SM BR OVC007 A2966 RMK CIG 5V11  MADISHF
VAY,2017-04-01 08:30,-74.8457,39.9429,M,M,M,340.00,8.00,M,29.67,M,5.00,M,OVC,M,M,M,700.00,M,M,M,BR,KVAY 010830Z AUTO 34008KT 5SM BR OVC007 A2967 RMK MADISHF
VAY,2017-04-01 08:35,-74.8457,39.9429,M,M,M,340.00,7.00,M,29.67,M,4.00,M,OVC,M,M,M,700.00,M,M,M,BR,KVAY 010835Z AUTO 34007KT 4SM BR OVC007 A2967 RMK MADISHF
VAY,2017-04-01 08:40,-74.8457,39.9429,M,M,M,340.00,9.00,M,29.67,M,4.00,M,OVC,M,M,M,700.00,M,M,M,BR,KVAY 010840Z AUTO 34009KT 4SM BR OVC007 A2967 RMK MADISHF
VAY,2017-04-01 08:45,-74.8457,39.9429,M,M,M,350.00,9.00,M,29.67,M,4.00,M,BKN,OVC,M,M,700.00,999.00,M,M,BR,KVAY 010845Z AUTO 35009KT 4SM BR BKN007 OVC009 A2967 RMK MADISHF
VAY,2017-04-01 08:50,-74.8457,39.9429,M,M,M,350.00,9.00,M,29.68,M,4.00,M,OVC,M,M,M,700.00,M,M,M,BR,KVAY 010850Z AUTO 35009KT 4SM BR OVC007 A2968 RMK MADISHF
VAY,2017-04-01 08:54,-74.8457,39.9429,37.90,37.00,96.52,350.00,10.00,0.00,29.68,1004.90,4.00,M,BKN,OVC,M,M,700.00,1000.00,M,M,BR,KVAY 010854Z AUTO 35010KT 4SM BR BKN007 OVC010 03/03 A2968 RMK AO2 SLP049 60000 T00330028 51021 $
VAY,2017-04-01 08:55,-74.8457,39.9429,M,M,M,350.00,9.00,M,29.68,M,4.00,M,BKN,OVC,M,M,700.00,999.00,M,M,BR,KVAY 010855Z AUTO 35009KT 4SM BR BKN007 OVC009 A2968 RMK MADISHF
VAY,2017-04-01 09:00,-74.8457,39.9429,M,M,M,350.00,10.00,M,29.68,M,4.00,M,BKN,OVC,M,M,600.00,999.00,M,M,BR,KVAY 010900Z AUTO 35010KT 4SM BR BKN006 OVC009 A2968 RMK CIG 6V9  MADISHF
VAY,2017-04-01 09:05,-74.8457,39.9429,M,M,M,340.00,7.00,M,29.68,M,4.00,M,OVC,M,M,M,800.00,M,M,M,BR,KVAY 010905Z AUTO 34007KT 4SM BR OVC008 A2968 RMK MADISHF
VAY,2017-04-01 09:10,-74.8457,39.9429,M,M,M,340.00,9.00,M,29.69,M,5.00,M,OVC,M,M,M,800.00,M,M,M,BR,KVAY 010910Z AUTO 34009KT 5SM BR OVC008 A2969 RMK MADISHF
VAY,2017-04-01 09:15,-74.8457,39.9429,M,M,M,330.00,9.00,M,29.69,M,4.00,M,OVC,M,M,M,800.00,M,M,M,BR,KVAY 010915Z AUTO 33009KT 4SM BR OVC008 A2969 RMK MADISHF
VAY,2017-04-01 09:20,-74.8457,39.9429,M,M,M,330.00,10.00,M,29.69,M,4.00,M,OVC,M,M,M,800.00,M,M,M,BR,KVAY 010920Z AUTO 33010KT 4SM BR OVC008 A2969 RMK MADISHF
VAY,2017-04-01 09:25,-74.8457,39.9429,M,M,M,340.00,7.00,M,29.69,M,4.00,M,OVC,M,M,M,800.00,M,M,M,BR,KVAY 010925Z AUTO 34007KT 4SM BR OVC008 A2969 RMK MADISHF
VAY,2017-04-01 09:30,-74.8457,39.9429,M,M,M,340.00,7.00,M,29.69,M,5.00,M,OVC,M,M,M,800.00,M,M,M,BR,KVAY 010930Z AUTO 34007KT 5SM BR OVC008 A2969 RMK MADISHF
VAY,2017-04-01 09:35,-74.8457,39.9429,M,M,M,330.00,9.00,M,29.70,M,5.00,M,OVC,M,M,M,800.00,M,M,M,BR,KVAY 010935Z AUTO 33009KT 5SM BR OVC008 A2970 RMK CIG 6V10  MADISHF
VAY,2017-04-01 09:40,-74.8457,39.9429,M,M,M,330.00,8.00,M,29.70,M,5.00,M,OVC,M,M,M,800.00,M,M,M,BR,KVAY 010940Z AUTO 33008KT 5SM BR OVC008 A2970 RMK CIG 6V12  MADISHF
VAY,2017-04-01 09:45,-74.8457,39.9429,M,M,M,340.00,9.00,M,29.70,M,5.00,M,OVC,M,M,M,800.00,M,M,M,BR,KVAY 010945Z AUTO 34009KT 5SM BR OVC008 A2970 RMK CIG 6V12  MADISHF
VAY,2017-04-01 09:50,-74.8457,39.9429,M,M,M,340.00,10.00,M,29.70,M,6.00,M,BKN,OVC,M,M,800.00,1200.00,M,M,BR,KVAY 010950Z AUTO 34010KT 6SM BR BKN008 OVC012 A2970 RMK MADISHF
VAY,2017-04-01 09:54,-74.8457,39.9429,37.90,37.00,96.52,340.00,10.00,0.00,29.71,1005.90,6.00,M,BKN,OVC,M,M,800.00,1200.00,M,M,BR,KVAY 010954Z AUTO 34010KT 6SM BR BKN008 OVC012 03/03 A2971 RMK AO2 SLP059 T00330028 $
VAY,2017-04-01 09:55,-74.8457,39.9429,M,M,M,340.00,9.00,M,29.71,M,6.00,M,BKN,OVC,M,M,800.00,1200.00,M,M,BR,KVAY 010955Z AUTO 34009KT 6SM BR BKN008 OVC012 A2971 RMK MADISHF
VAY,2017-04-01 10:00,-74.8457,39.9429,M,M,M,330.00,9.00,M,29.71,M,6.00,M,BKN,OVC,M,M,800.00,1200.00,M,M,BR,KVAY 011000Z AUTO 33009KT 6SM BR BKN008 OVC012 A2971 RMK MADISHF
VAY,2017-04-01 10:05,-74.8457,39.9429,M,M,M,340.00,9.00,M,29.72,M,7.00,M,BKN,OVC,M,M,800.00,1200.00,M,M,M,KVAY 011005Z AUTO 34009KT 7SM BKN008 OVC012 A2972 RMK MADISHF
VAY,2017-04-01 10:10,-74.8457,39.9429,M,M,M,330.00,10.00,M,29.72,M,9.00,M,BKN,OVC,M,M,800.00,1200.00,M,M,M,KVAY 011010Z AUTO 33010KT 9SM BKN008 OVC012 A2972 RMK MADISHF
VAY,2017-04-01 10:15,-74.8457,39.9429,M,M,M,330.00,9.00,M,29.72,M,10.00,M,OVC,M,M,M,800.00,M,M,M,M,KVAY 011015Z AUTO 33009KT 10SM OVC008 A2972 RMK MADISHF
VAY,2017-04-01 10:20,-74.8457,39.9429,M,M,M,330.00,10.00,M,29.73,M,10.00,M,OVC,M,M,M,999.00,M,M,M,M,KVAY 011020Z AUTO 33010KT 10SM OVC009 A2973 RMK MADISHF
VAY,2017-04-01 10:22,-74.8457,39.9429,37.90,36.00,92.78,340.00,10.00,0.00,29.73,M,10.00,M,OVC,M,M,M,1000.00,M,M,M,M,KVAY 011022Z AUTO 34010KT 10SM OVC010 03/02 A2973 RMK AO2 T00330022 $
VAY,2017-04-01 10:25,-74.8457,39.9429,M,M,M,330.00,8.00,M,29.73,M,10.00,M,OVC,M,M,M,999.00,M,M,M,M,KVAY 011025Z AUTO 33008KT 10SM OVC009 A2973 RMK MADISHF
VAY,2017-04-01 10:30,-74.8457,39.9429,M,M,M,340.00,9.00,M,29.73,M,9.00,M,BKN,OVC,M,M,999.00,1600.00,M,M,M,KVAY 011030Z AUTO 34009KT 9SM BKN009 OVC016 A2973 RMK MADISHF
VAY,2017-04-01 10:35,-74.8457,39.9429,M,M,M,330.00,7.00,M,29.73,M,7.00,M,BKN,OVC,M,M,999.00,1600.00,M,M,M,KVAY 011035Z AUTO 33007KT 7SM BKN009 OVC016 A2973 RMK MADISHF
VAY,2017-04-01 10:40,-74.8457,39.9429,M,M,M,330.00,10.00,M,29.74,M,7.00,15.00,OVC,M,M,M,999.00,M,M,M,M,KVAY 011040Z AUTO 33010G15KT 7SM OVC009 A2974 RMK MADISHF
VAY,2017-04-01 10:45,-74.8457,39.9429,M,M,M,330.00,9.00,M,29.74,M,9.00,M,BKN,OVC,M,M,999.00,1600.00,M,M,M,KVAY 011045Z AUTO 33009KT 9SM BKN009 OVC016 A2974 RMK MADISHF
VAY,2017-04-01 10:50,-74.8457,39.9429,M,M,M,330.00,8.00,M,29.74,M,10.00,M,BKN,OVC,M,M,999.00,1600.00,M,M,M,KVAY 011050Z AUTO 33008KT 10SM BKN009 OVC016 A2974 RMK MADISHF
VAY,2017-04-01 10:54,-74.8457,39.9429,37.90,37.00,96.52,330.00,7.00,0.00,29.74,1007.10,10.00,M,BKN,OVC,M,M,1000.00,1600.00,M,M,M,KVAY 011054Z AUTO 33007KT 10SM BKN010 OVC016 03/03 A2974 RMK AO2 SLP071 T00330028 $
VAY,2017-04-01 10:55,-74.8457,39.9429,M,M,M,330.00,7.00,M,29.74,M,10.00,M,BKN,OVC,M,M,999.00,1600.00,M,M,M,KVAY 011055Z AUTO 33007KT 10SM BKN009 OVC016 A2974 RMK MADISHF
VAY,2017-04-01 11:00,-74.8457,39.9429,M,M,M,330.00,6.00,M,29.75,M,8.00,M,BKN,OVC,M,M,999.00,1600.00,M,M,M,KVAY 011100Z AUTO 33006KT 8SM BKN009 OVC016 A2975 RMK MADISHF
VAY,2017-04-01 11:05,-74.8457,39.9429,M,M,M,330.00,8.00,M,29.75,M,7.00,M,BKN,OVC,M,M,800.00,1300.00,M,M,M,KVAY 011105Z AUTO 33008KT 7SM BKN008 OVC013 A2975 RMK MADISHF
VAY,2017-04-01 11:10,-74.8457,39.9429,37.90,37.00,96.52,320.00,9.00,0.00,29.75,M,7.00,M,BKN,OVC,M,M,800.00,1300.00,M,M,M,KVAY 011110Z AUTO 32009KT 7SM BKN008 OVC013 03/03 A2975 RMK AO2 T00330028 $
VAY,2017-04-01 11:15,-74.8457,39.9429,M,M,M,330.00,10.00,M,29.75,M,9.00,M,OVC,M,M,M,999.00,M,M,M,M,KVAY 011115Z AUTO 33010KT 9SM OVC009 A2975 RMK MADISHF
VAY,2017-04-01 11:19,-74.8457,39.9429,37.90,35.10,89.53,330.00,12.00,0.00,29.75,M,10.00,M,OVC,M,M,M,1200.00,M,M,M,M,KVAY 011119Z AUTO 33012KT 10SM OVC012 03/02 A2975 RMK AO2 T00330017 $
VAY,2017-04-01 11:20,-74.8457,39.9429,M,M,M,330.00,11.00,M,29.75,M,10.00,M,OVC,M,M,M,1200.00,M,M,M,M,KVAY 011120Z AUTO 33011KT 10SM OVC012 A2975 RMK MADISHF
VAY,2017-04-01 11:25,-74.8457,39.9429,M,M,M,330.00,11.00,M,29.76,M,10.00,M,OVC,M,M,M,1200.00,M,M,M,M,KVAY 011125Z AUTO 33011KT 10SM OVC012 A2976 RMK MADISHF
VAY,2017-04-01 11:30,-74.8457,39.9429,M,M,M,330.00,10.00,M,29.76,M,10.00,M,FEW,OVC,M,M,800.00,1200.00,M,M,M,KVAY 011130Z AUTO 33010KT 10SM FEW008 OVC012 A2976 RMK MADISHF
VAY,2017-04-01 11:33,-74.8457,39.9429,37.90,35.10,89.53,320.00,9.00,0.00,29.76,M,10.00,M,FEW,OVC,M,M,800.00,1200.00,M,M,M,KVAY 011133Z AUTO 32009KT 10SM FEW008 OVC012 03/02 A2976 RMK AO2 T00330017 $
VAY,2017-04-01 11:35,-74.8457,39.9429,M,M,M,330.00,7.00,M,29.76,M,10.00,M,FEW,OVC,M,M,800.00,1200.00,M,M,M,KVAY 011135Z AUTO 33007KT 10SM FEW008 OVC012 A2976 RMK MADISHF
VAY,2017-04-01 11:40,-74.8457,39.9429,M,M,M,330.00,9.00,M,29.77,M,10.00,M,BKN,OVC,M,M,1400.00,1900.00,M,M,M,KVAY 011140Z AUTO 33009KT 10SM BKN014 OVC019 A2977 RMK MADISHF
VAY,2017-04-01 11:45,-74.8457,39.9429,M,M,M,320.00,9.00,M,29.77,M,10.00,M,OVC,M,M,M,1400.00,M,M,M,M,KVAY 011145Z AUTO 32009KT 10SM OVC014 A2977 RMK MADISHF
VAY,2017-04-01 11:50,-74.8457,39.9429,M,M,M,330.00,8.00,M,29.77,M,10.00,M,BKN,OVC,M,M,1400.00,1999.00,M,M,M,KVAY 011150Z AUTO 33008KT 10SM BKN014 OVC019 A2977 RMK MADISHF
VAY,2017-04-01 11:54,-74.8457,39.9429,37.90,35.10,89.53,330.00,6.00,0.00,29.77,1008.10,10.00,M,BKN,OVC,M,M,1400.00,2000.00,M,M,M,KVAY 011154Z AUTO 33006KT 10SM BKN014 OVC020 03/02 A2977 RMK AO2 SLP081 60000 70105 T00330017 10056 20033 52032 $
VAY,2017-04-01 11:55,-74.8457,39.9429,M,M,M,330.00,7.00,M,29.77,M,10.00,M,BKN,OVC,M,M,1400.00,1999.00,M,M,M,KVAY 011155Z AUTO 33007KT 10SM BKN014 OVC019 A2977 RMK MADISHF
VAY,2017-04-01 12:00,-74.8457,39.9429,M,M,M,330.00,9.00,M,29.78,M,10.00,M,BKN,OVC,M,M,1400.00,1999.00,M,M,M,KVAY 011200Z AUTO 33009KT 10SM BKN014 OVC019 A2978 RMK MADISHF
VAY,2017-04-01 12:05,-74.8457,39.9429,M,M,M,330.00,9.00,M,29.78,M,10.00,M,BKN,BKN,OVC,M,1400.00,1900.00,2800.00,M,M,KVAY 011205Z AUTO 33009KT 10SM BKN014 BKN019 OVC028 A2978 RMK MADISHF
VAY,2017-04-01 12:10,-74.8457,39.9429,M,M,M,330.00,11.00,M,29.78,M,10.00,M,BKN,OVC,M,M,1400.00,2800.00,M,M,M,KVAY 011210Z AUTO 33011KT 10SM BKN014 OVC028 A2978 RMK MADISHF
VAY,2017-04-01 12:15,-74.8457,39.9429,M,M,M,330.00,10.00,M,29.78,M,10.00,M,BKN,OVC,M,M,1400.00,2800.00,M,M,M,KVAY 011215Z AUTO 33010KT 10SM BKN014 OVC028 A2978 RMK MADISHF
VAY,2017-04-01 12:20,-74.8457,39.9429,M,M,M,330.00,13.00,M,29.78,M,10.00,18.00,BKN,OVC,M,M,1500.00,2800.00,M,M,M,KVAY 011220Z AUTO 33013G18KT 10SM BKN015 OVC028 A2978 RMK MADISHF
VAY,2017-04-01 12:25,-74.8457,39.9429,37.90,35.10,89.53,330.00,11.00,0.00,29.79,M,10.00,18.00,BKN,OVC,M,M,1500.00,2800.00,M,M,M,KVAY 011225Z AUTO 33011G18KT 10SM BKN015 OVC028 03/02 A2979 RMK AO2 T00330017 $
VAY,2017-04-01 12:30,-74.8457,39.9429,M,M,M,330.00,9.00,M,29.79,M,10.00,M,BKN,OVC,M,M,1500.00,2800.00,M,M,M,KVAY 011230Z AUTO 33009KT 10SM BKN015 OVC028 A2979 RMK MADISHF
VAY,2017-04-01 12:35,-74.8457,39.9429,M,M,M,340.00,10.00,M,29.79,M,10.00,M,BKN,OVC,M,M,1500.00,2800.00,M,M,M,KVAY 011235Z AUTO 34010KT 10SM BKN015 OVC028 A2979 RMK MADISHF
VAY,2017-04-01 12:40,-74.8457,39.9429,M,M,M,320.00,10.00,M,29.79,M,10.00,M,BKN,OVC,M,M,1500.00,2800.00,M,M,M,KVAY 011240Z AUTO 32010KT 10SM BKN015 OVC028 A2979 RMK MADISHF
VAY,2017-04-01 12:45,-74.8457,39.9429,M,M,M,330.00,11.00,M,29.79,M,10.00,M,BKN,OVC,M,M,1500.00,2900.00,M,M,M,KVAY 011245Z AUTO 33011KT 10SM BKN015 OVC029 A2979 RMK MADISHF
VAY,2017-04-01 12:50,-74.8457,39.9429,M,M,M,340.00,10.00,M,29.79,M,10.00,M,BKN,OVC,M,M,1699.00,2800.00,M,M,M,KVAY 011250Z AUTO 34010KT 10SM BKN016 OVC028 A2979 RMK MADISHF
VAY,2017-04-01 12:54,-74.8457,39.9429,39.90,35.10,82.80,340.00,12.00,0.00,29.79,1008.80,10.00,M,OVC,M,M,M,1700.00,M,M,M,M,KVAY 011254Z AUTO 34012KT 10SM OVC017 04/02 A2979 RMK AO2 SLP088 T00440017 $
VAY,2017-04-01 12:55,-74.8457,39.9429,M,M,M,340.00,12.00,M,29.79,M,10.00,17.00,BKN,OVC,M,M,1699.00,3399.00,M,M,M,KVAY 011255Z AUTO 34012G17KT 10SM BKN016 OVC033 A2979 RMK MADISHF
VAY,2017-04-01 13:00,-74.8457,39.9429,M,M,M,340.00,11.00,M,29.79,M,10.00,M,BKN,OVC,M,M,1699.00,3399.00,M,M,M,KVAY 011300Z AUTO 34011KT 10SM BKN016 OVC033 A2979 RMK MADISHF
VAY,2017-04-01 13:05,-74.8457,39.9429,M,M,M,M,M,M,29.79,M,10.00,M,BKN,OVC,M,M,1699.00,3399.00,M,M,M,KVAY 011305Z AUTO /////KT 10SM BKN016 OVC033 A2979 RMK MADISHF
VAY,2017-04-01 13:10,-74.8457,39.9429,M,M,M,340.00,12.00,M,29.80,M,10.00,M,BKN,OVC,M,M,1699.00,3200.00,M,M,M,KVAY 011310Z AUTO 34012KT 10SM BKN016 OVC032 A2980 RMK MADISHF
VAY,2017-04-01 13:15,-74.8457,39.9429,M,M,M,340.00,10.00,M,29.80,M,10.00,M,BKN,BKN,OVC,M,1600.00,2700.00,3200.00,M,M,KVAY 011315Z AUTO 34010KT 10SM BKN016 BKN027 OVC032 A2980 RMK MADISHF
VAY,2017-04-01 13:20,-74.8457,39.9429,M,M,M,340.00,9.00,M,29.80,M,10.00,M,BKN,BKN,OVC,M,1600.00,2700.00,3300.00,M,M,KVAY 011320Z AUTO 34009KT 10SM BKN016 BKN027 OVC033 A2980 RMK MADISHF
VAY,2017-04-01 13:25,-74.8457,39.9429,M,M,M,340.00,9.00,M,29.80,M,10.00,M,BKN,OVC,M,M,1600.00,3100.00,M,M,M,KVAY 011325Z AUTO 34009KT 10SM BKN016 OVC031 A2980 RMK MADISHF
VAY,2017-04-01 13:30,-74.8457,39.9429,M,M,M,340.00,11.00,M,29.80,M,10.00,M,BKN,OVC,M,M,1600.00,3100.00,M,M,M,KVAY 011330Z AUTO 34011KT 10SM BKN016 OVC031 A2980 RMK MADISHF
VAY,2017-04-01 13:35,-74.8457,39.9429,M,M,M,350.00,9.00,M,29.81,M,10.00,14.00,BKN,OVC,M,M,1600.00,3100.00,M,M,M,KVAY 011335Z AUTO 35009G14KT 10SM BKN016 OVC031 A2981 RMK MADISHF
VAY,2017-04-01 13:40,-74.8457,39.9429,M,M,M,330.00,8.00,M,29.81,M,10.00,M,BKN,OVC,M,M,1699.00,3100.00,M,M,M,KVAY 011340Z AUTO 33008KT 10SM BKN016 OVC031 A2981 RMK MADISHF
VAY,2017-04-01 13:45,-74.8457,39.9429,M,M,M,340.00,11.00,M,29.81,M,10.00,M,BKN,OVC,M,M,1699.00,3300.00,M,M,M,KVAY 011345Z AUTO 34011KT 10SM BKN016 OVC033 A2981 RMK MADISHF
VAY,2017-04-01 13:50,-74.8457,39.9429,M,M,M,330.00,9.00,M,29.81,M,10.00,M,BKN,OVC,M,M,1699.00,3300.00,M,M,M,KVAY 011350Z AUTO 33009KT 10SM BKN016 OVC033 A2981 RMK MADISHF
VAY,2017-04-01 13:54,-74.8457,39.9429,42.10,36.00,78.80,350.00,13.00,0.00,29.81,1009.40,10.00,M,BKN,OVC,M,M,1900.00,3300.00,M,M,M,KVAY 011354Z AUTO 35013KT 10SM BKN019 OVC033 06/02 A2981 RMK AO2 SLP094 T00560022 $
VAY,2017-04-01 13:55,-74.8457,39.9429,M,M,M,350.00,12.00,M,29.81,M,10.00,M,BKN,OVC,M,M,1900.00,3300.00,M,M,M,KVAY 011355Z AUTO 35012KT 10SM BKN019 OVC033 A2981 RMK MADISHF
VAY,2017-04-01 14:00,-74.8457,39.9429,M,M,M,330.00,10.00,M,29.82,M,10.00,M,BKN,OVC,M,M,1900.00,3300.00,M,M,M,KVAY 011400Z AUTO 33010KT 10SM BKN019 OVC033 A2982 RMK MADISHF
VAY,2017-04-01 14:05,-74.8457,39.9429,M,M,M,330.00,12.00,M,29.82,M,10.00,17.00,BKN,OVC,M,M,1900.00,3300.00,M,M,M,KVAY 011405Z AUTO 33012G17KT 10SM BKN019 OVC033 A2982 RMK MADISHF
VAY,2017-04-01 14:10,-74.8457,39.9429,M,M,M,330.00,10.00,M,29.82,M,10.00,M,BKN,OVC,M,M,1900.00,3300.00,M,M,M,KVAY 011410Z AUTO 33010KT 10SM BKN019 OVC033 A2982 RMK MADISHF
VAY,2017-04-01 14:15,-74.8457,39.9429,M,M,M,330.00,10.00,M,29.82,M,10.00,M,BKN,OVC,M,M,1900.00,3300.00,M,M,M,KVAY 011415Z AUTO 33010KT 10SM BKN019 OVC033 A2982 RMK MADISHF
VAY,2017-04-01 14:20,-74.8457,39.9429,M,M,M,340.00,11.00,M,29.82,M,10.00,M,OVC,M,M,M,1900.00,M,M,M,M,KVAY 011420Z AUTO 34011KT 10SM OVC019 A2982 RMK MADISHF
VAY,2017-04-01 14:25,-74.8457,39.9429,M,M,M,330.00,11.00,M,29.83,M,10.00,M,OVC,M,M,M,1900.00,M,M,M,M,KVAY 011425Z AUTO 33011KT 10SM OVC019 A2983 RMK MADISHF
VAY,2017-04-01 14:30,-74.8457,39.9429,M,M,M,340.00,12.00,M,29.83,M,10.00,M,OVC,M,M,M,1900.00,M,M,M,M,KVAY 011430Z AUTO 34012KT 10SM OVC019 A2983 RMK MADISHF
VAY,2017-04-01 14:35,-74.8457,39.9429,M,M,M,340.00,12.00,M,29.83,M,10.00,M,OVC,M,M,M,1900.00,M,M,M,M,KVAY 011435Z AUTO 34012KT 10SM OVC019 A2983 RMK MADISHF
VAY,2017-04-01 14:40,-74.8457,39.9429,M,M,M,330.00,9.00,M,29.84,M,10.00,M,OVC,M,M,M,1900.00,M,M,M,M,KVAY 011440Z AUTO 33009KT 10SM OVC019 A2984 RMK MADISHF
VAY,2017-04-01 14:45,-74.8457,39.9429,M,M,M,340.00,11.00,M,29.84,M,10.00,M,OVC,M,M,M,1900.00,M,M,M,M,KVAY 011445Z AUTO 34011KT 10SM OVC019 A2984 RMK MADISHF
VAY,2017-04-01 14:50,-74.8457,39.9429,M,M,M,340.00,10.00,M,29.84,M,10.00,M,OVC,M,M,M,1900.00,M,M,M,M,KVAY 011450Z AUTO 34010KT 10SM OVC019 A2984 RMK MADISHF
VAY,2017-04-01 14:54,-74.8457,39.9429,43.00,35.10,73.45,340.00,11.00,0.00,29.84,1010.30,10.00,M,OVC,M,M,M,1900.00,M,M,M,M,KVAY 011454Z AUTO 34011KT 10SM OVC019 06/02 A2984 RMK AO2 SLP103 T00610017 53021 $
VAY,2017-04-01 14:55,-74.8457,39.9429,M,M,M,340.00,13.00,M,29.84,M,10.00,M,OVC,M,M,M,1900.00,M,M,M,M,KVAY 011455Z AUTO 34013KT 10SM OVC019 A2984 RMK MADISHF
VAY,2017-04-01 15:00,-74.8457,39.9429,M,M,M,320.00,8.00,M,29.83,M,10.00,M,OVC,M,M,M,1900.00,M,M,M,M,KVAY 011500Z AUTO 32008KT 10SM OVC019 A2983 RMK MADISHF
VAY,2017-04-01 15:05,-74.8457,39.9429,M,M,M,330.00,9.00,M,29.84,M,10.00,M,OVC,M,M,M,1900.00,M,M,M,M,KVAY 011505Z AUTO 33009KT 10SM OVC019 A2984 RMK MADISHF
VAY,2017-04-01 15:10,-74.8457,39.9429,M,M,M,320.00,12.00,M,29.84,M,10.00,M,OVC,M,M,M,1999.00,M,M,M,M,KVAY 011510Z AUTO 32012KT 10SM OVC019 A2984 RMK MADISHF
VAY,2017-04-01 15:15,-74.8457,39.9429,M,M,M,350.00,13.00,M,29.84,M,10.00,M,OVC,M,M,M,1999.00,M,M,M,M,KVAY 011515Z AUTO 35013KT 10SM OVC019 A2984 RMK MADISHF
VAY,2017-04-01 15:20,-74.8457,39.9429,M,M,M,330.00,11.00,M,29.84,M,10.00,M,OVC,M,M,M,1999.00,M,M,M,M,KVAY 011520Z AUTO 33011KT 10SM OVC019 A2984 RMK MADISHF
VAY,2017-04-01 15:25,-74.8457,39.9429,M,M,M,340.00,12.00,M,29.84,M,10.00,M,OVC,M,M,M,1999.00,M,M,M,M,KVAY 011525Z AUTO 34012KT 10SM OVC019 A2984 RMK MADISHF
VAY,2017-04-01 15:30,-74.8457,39.9429,M,M,M,340.00,12.00,M,29.85,M,10.00,M,BKN,M,M,M,2200.00,M,M,M,M,KVAY 011530Z AUTO 34012KT 10SM BKN022 A2985 RMK MADISHF
VAY,2017-04-01 15:35,-74.8457,39.9429,M,M,M,M,M,M,29.84,M,10.00,M,BKN,OVC,M,M,2200.00,3200.00,M,M,M,KVAY 011535Z AUTO /////KT 10SM BKN022 OVC032 A2984 RMK WND 31V01  MADISHF
VAY,2017-04-01 15:40,-74.8457,39.9429,M,M,M,340.00,8.00,M,29.84,M,10.00,M,BKN,OVC,M,M,2200.00,3000.00,M,M,M,KVAY 011540Z AUTO 34008KT 10SM BKN022 OVC030 A2984 RMK MADISHF
VAY,2017-04-01 15:45,-74.8457,39.9429,M,M,M,330.00,11.00,M,29.84,M,10.00,M,BKN,OVC,M,M,2400.00,3200.00,M,M,M,KVAY 011545Z AUTO 33011KT 10SM BKN024 OVC032 A2984 RMK MADISHF
VAY,2017-04-01 15:50,-74.8457,39.9429,M,M,M,340.00,10.00,M,29.84,M,10.00,M,BKN,OVC,M,M,2600.00,3200.00,M,M,M,KVAY 011550Z AUTO 34010KT 10SM BKN026 OVC032 A2984 RMK MADISHF
VAY,2017-04-01 15:54,-74.8457,39.9429,46.00,37.00,70.64,350.00,8.00,0.00,29.84,1010.30,10.00,M,BKN,OVC,M,M,2800.00,3300.00,M,M,M,KVAY 011554Z AUTO 35008KT 320V020 10SM BKN028 OVC033 08/03 A2984 RMK AO2 SLP103 T00780028 $
VAY,2017-04-01 15:55,-74.8457,39.9429,M,M,M,360.00,9.00,M,29.84,M,10.00,M,BKN,OVC,M,M,2800.00,3300.00,M,M,M,KVAY 011555Z AUTO 36009KT 10SM BKN028 OVC033 A2984 RMK MADISHF
VAY,2017-04-01 16:00,-74.8457,39.9429,M,M,M,340.00,13.00,M,29.83,M,10.00,M,BKN,M,M,M,2800.00,M,M,M,M,KVAY 011600Z AUTO 34013KT 10SM BKN028 A2983 RMK MADISHF
VAY,2017-04-01 16:05,-74.8457,39.9429,M,M,M,330.00,12.00,M,29.84,M,10.00,17.00,BKN,OVC,M,M,2800.00,3399.00,M,M,M,KVAY 011605Z AUTO 33012G17KT 10SM BKN028 OVC033 A2984 RMK MADISHF
VAY,2017-04-01 16:10,-74.8457,39.9429,M,M,M,320.00,14.00,M,29.83,M,10.00,19.00,BKN,OVC,M,M,3000.00,3399.00,M,M,M,KVAY 011610Z AUTO 32014G19KT 10SM BKN030 OVC033 A2983 RMK MADISHF
VAY,2017-04-01 16:15,-74.8457,39.9429,M,M,M,340.00,14.00,M,29.84,M,10.00,19.00,BKN,BKN,OVC,M,2800.00,3399.00,4100.00,M,M,KVAY 011615Z AUTO 34014G19KT 10SM BKN028 BKN033 OVC041 A2984 RMK MADISHF
VAY,2017-04-01 16:20,-74.8457,39.9429,M,M,M,M,M,M,29.83,M,10.00,M,FEW,BKN,OVC,M,2500.00,3200.00,4100.00,M,M,KVAY 011620Z AUTO /////KT 10SM FEW025 BKN032 OVC041 A2983 RMK MADISHF
VAY,2017-04-01 16:24,-74.8457,39.9429,48.00,36.00,62.97,340.00,16.00,0.00,29.84,M,10.00,23.00,BKN,OVC,M,M,3200.00,4100.00,M,M,M,KVAY 011624Z AUTO 34016G23KT 10SM BKN032 OVC041 09/02 A2984 RMK AO2 T00890022 $
VAY,2017-04-01 16:25,-74.8457,39.9429,M,M,M,340.00,15.00,M,29.84,M,10.00,M,BKN,OVC,M,M,3200.00,4100.00,M,M,M,KVAY 011625Z AUTO 34015KT 10SM BKN032 OVC041 A2984 RMK MADISHF
VAY,2017-04-01 16:30,-74.8457,39.9429,M,M,M,M,M,M,29.84,M,10.00,M,BKN,M,M,M,3500.00,M,M,M,M,KVAY 011630Z AUTO /////KT 10SM BKN035 A2984 RMK MADISHF
VAY,2017-04-01 16:35,-74.8457,39.9429,M,M,M,M,M,M,29.83,M,10.00,20.00,BKN,M,M,M,3399.00,M,M,M,M,KVAY 011635Z AUTO /////G20KT 10SM BKN033 A2983 RMK MADISHF
VAY,2017-04-01 16:40,-74.8457,39.9429,M,M,M,330.00,9.00,M,29.84,M,10.00,18.00,BKN,M,M,M,3399.00,M,M,M,M,KVAY 011640Z AUTO 33009G18KT 10SM BKN033 A2984 RMK MADISHF
VAY,2017-04-01 16:45,-74.8457,39.9429,M,M,M,320.00,13.00,M,29.84,M,10.00,M,OVC,M,M,M,3399.00,M,M,M,M,KVAY 011645Z AUTO 32013KT 10SM OVC033 A2984 RMK MADISHF
VAY,2017-04-01 16:50,-74.8457,39.9429,M,M,M,330.00,13.00,M,29.84,M,10.00,M,OVC,M,M,M,3399.00,M,M,M,M,KVAY 011650Z AUTO 33013KT 10SM OVC033 A2984 RMK MADISHF
VAY,2017-04-01 16:54,-74.8457,39.9429,48.00,34.00,58.16,340.00,11.00,0.00,29.84,1010.50,10.00,19.00,OVC,M,M,M,3400.00,M,M,M,M,KVAY 011654Z AUTO 34011G19KT 10SM OVC034 09/01 A2984 RMK AO2 SLP105 T00890011 $
VAY,2017-04-01 16:55,-74.8457,39.9429,M,M,M,340.00,12.00,M,29.84,M,10.00,M,OVC,M,M,M,3399.00,M,M,M,M,KVAY 011655Z AUTO 34012KT 10SM OVC033 A2984 RMK MADISHF
VAY,2017-04-01 17:00,-74.8457,39.9429,M,M,M,M,M,M,29.84,M,10.00,M,OVC,M,M,M,3300.00,M,M,M,M,KVAY 011700Z AUTO /////KT 10SM OVC033 A2984 RMK MADISHF
VAY,2017-04-01 17:05,-74.8457,39.9429,M,M,M,340.00,12.00,M,29.85,M,10.00,M,OVC,M,M,M,3300.00,M,M,M,M,KVAY 011705Z AUTO 34012KT 10SM OVC033 A2985 RMK MADISHF
VAY,2017-04-01 17:10,-74.8457,39.9429,M,M,M,330.00,11.00,M,29.85,M,10.00,M,OVC,M,M,M,3300.00,M,M,M,M,KVAY 011710Z AUTO 33011KT 10SM OVC033 A2985 RMK MADISHF
VAY,2017-04-01 17:15,-74.8457,39.9429,M,M,M,320.00,10.00,M,29.85,M,10.00,M,OVC,M,M,M,3300.00,M,M,M,M,KVAY 011715Z AUTO 32010KT 10SM OVC033 A2985 RMK MADISHF
VAY,2017-04-01 17:20,-74.8457,39.9429,M,M,M,350.00,10.00,M,29.85,M,10.00,M,OVC,M,M,M,3300.00,M,M,M,M,KVAY 011720Z AUTO 35010KT 10SM OVC033 A2985 RMK MADISHF
VAY,2017-04-01 17:25,-74.8457,39.9429,M,M,M,340.00,7.00,M,29.85,M,10.00,M,OVC,M,M,M,3300.00,M,M,M,M,KVAY 011725Z AUTO 34007KT 10SM OVC033 A2985 RMK MADISHF
VAY,2017-04-01 17:30,-74.8457,39.9429,M,M,M,320.00,11.00,M,29.85,M,10.00,16.00,OVC,M,M,M,3300.00,M,M,M,M,KVAY 011730Z AUTO 32011G16KT 10SM OVC033 A2985 RMK MADISHF
VAY,2017-04-01 17:35,-74.8457,39.9429,M,M,M,310.00,9.00,M,29.85,M,10.00,14.00,OVC,M,M,M,3100.00,M,M,M,M,KVAY 011735Z AUTO 31009G14KT 10SM OVC031 A2985 RMK WND 28V34  MADISHF
VAY,2017-04-01 17:40,-74.8457,39.9429,M,M,M,310.00,10.00,M,29.85,M,10.00,15.00,OVC,M,M,M,3100.00,M,M,M,M,KVAY 011740Z AUTO 31010G15KT 10SM OVC031 A2985 RMK MADISHF
VAY,2017-04-01 17:45,-74.8457,39.9429,M,M,M,310.00,11.00,M,29.85,M,10.00,17.00,OVC,M,M,M,3200.00,M,M,M,M,KVAY 011745Z AUTO 31011G17KT 10SM OVC032 A2985 RMK MADISHF
VAY,2017-04-01 17:50,-74.8457,39.9429,M,M,M,330.00,13.00,M,29.85,M,10.00,M,OVC,M,M,M,3399.00,M,M,M,M,KVAY 011750Z AUTO 33013KT 10SM OVC033 A2985 RMK MADISHF
VAY,2017-04-01 17:54,-74.8457,39.9429,48.90,36.00,60.88,330.00,11.00,0.00,29.85,1010.80,10.00,17.00,OVC,M,M,M,3400.00,M,M,M,M,KVAY 011754Z AUTO 33011G17KT 10SM OVC034 09/02 A2985 RMK AO2 SLP108 T00940022 10094 20033 53005 $
VAY,2017-04-01 17:55,-74.8457,39.9429,M,M,M,330.00,9.00,M,29.85,M,10.00,M,OVC,M,M,M,3399.00,M,M,M,M,KVAY 011755Z AUTO 33009KT 10SM OVC033 A2985 RMK MADISHF
VAY,2017-04-01 18:00,-74.8457,39.9429,M,M,M,310.00,12.00,M,29.86,M,10.00,M,OVC,M,M,M,3399.00,M,M,M,M,KVAY 011800Z AUTO 31012KT 10SM OVC033 A2986 RMK MADISHF
VAY,2017-04-01 18:05,-74.8457,39.9429,M,M,M,330.00,10.00,M,29.86,M,10.00,M,OVC,M,M,M,3600.00,M,M,M,M,KVAY 011805Z AUTO 33010KT 10SM OVC036 A2986 RMK MADISHF
VAY,2017-04-01 18:10,-74.8457,39.9429,M,M,M,330.00,8.00,M,29.86,M,10.00,M,OVC,M,M,M,3600.00,M,M,M,M,KVAY 011810Z AUTO 33008KT 10SM OVC036 A2986 RMK MADISHF
VAY,2017-04-01 18:15,-74.8457,39.9429,M,M,M,310.00,10.00,M,29.86,M,10.00,M,OVC,M,M,M,3600.00,M,M,M,M,KVAY 011815Z AUTO 31010KT 10SM OVC036 A2986 RMK WND 27V34  MADISHF
VAY,2017-04-01 18:20,-74.8457,39.9429,M,M,M,290.00,10.00,M,29.87,M,10.00,M,OVC,M,M,M,3600.00,M,M,M,M,KVAY 011820Z AUTO 29010KT 10SM OVC036 A2987 RMK MADISHF
VAY,2017-04-01 18:25,-74.8457,39.9429,M,M,M,300.00,10.00,M,29.86,M,10.00,M,OVC,M,M,M,3600.00,M,M,M,M,KVAY 011825Z AUTO 30010KT 10SM OVC036 A2986 RMK MADISHF
VAY,2017-04-01 18:30,-74.8457,39.9429,M,M,M,300.00,8.00,M,29.86,M,10.00,M,OVC,M,M,M,3600.00,M,M,M,M,KVAY 011830Z AUTO 30008KT 10SM OVC036 A2986 RMK MADISHF
VAY,2017-04-01 18:35,-74.8457,39.9429,M,M,M,M,M,M,29.86,M,10.00,M,OVC,M,M,M,3600.00,M,M,M,M,KVAY 011835Z AUTO /////KT 10SM OVC036 A2986 RMK MADISHF
VAY,2017-04-01 18:40,-74.8457,39.9429,M,M,M,290.00,9.00,M,29.86,M,10.00,M,OVC,M,M,M,3600.00,M,M,M,M,KVAY 011840Z AUTO 29009KT 10SM OVC036 A2986 RMK MADISHF
VAY,2017-04-01 18:45,-74.8457,39.9429,M,M,M,330.00,10.00,M,29.86,M,10.00,M,OVC,M,M,M,3600.00,M,M,M,M,KVAY 011845Z AUTO 33010KT 10SM OVC036 A2986 RMK MADISHF
VAY,2017-04-01 18:50,-74.8457,39.9429,M,M,M,340.00,13.00,M,29.86,M,10.00,M,OVC,M,M,M,3500.00,M,M,M,M,KVAY 011850Z AUTO 34013KT 10SM OVC035 A2986 RMK MADISHF
VAY,2017-04-01 18:54,-74.8457,39.9429,50.00,35.10,56.39,340.00,15.00,0.00,29.86,1010.90,10.00,21.00,OVC,M,M,M,3500.00,M,M,M,M,KVAY 011854Z AUTO 34015G21KT 10SM OVC035 10/02 A2986 RMK AO2 SLP109 T01000017 $
VAY,2017-04-01 18:55,-74.8457,39.9429,M,M,M,330.00,13.00,M,29.86,M,10.00,M,OVC,M,M,M,3700.00,M,M,M,M,KVAY 011855Z AUTO 33013KT 10SM OVC037 A2986 RMK WND 29V35  MADISHF
VAY,2017-04-01 19:00,-74.8457,39.9429,M,M,M,320.00,11.00,M,29.86,M,10.00,M,OVC,M,M,M,3500.00,M,M,M,M,KVAY 011900Z AUTO 32011KT 10SM OVC035 A2986 RMK MADISHF
VAY,2017-04-01 19:05,-74.8457,39.9429,M,M,M,310.00,8.00,M,29.86,M,10.00,M,OVC,M,M,M,3500.00,M,M,M,M,KVAY 011905Z AUTO 31008KT 10SM OVC035 A2986 RMK MADISHF
VAY,2017-04-01 19:10,-74.8457,39.9429,M,M,M,330.00,13.00,M,29.86,M,10.00,M,OVC,M,M,M,3500.00,M,M,M,M,KVAY 011910Z AUTO 33013KT 10SM OVC035 A2986 RMK MADISHF
VAY,2017-04-01 19:15,-74.8457,39.9429,M,M,M,320.00,13.00,M,29.86,M,10.00,18.00,OVC,M,M,M,3500.00,M,M,M,M,KVAY 011915Z AUTO 32013G18KT 10SM OVC035 A2986 RMK MADISHF
VAY,2017-04-01 19:20,-74.8457,39.9429,M,M,M,330.00,13.00,M,29.86,M,10.00,M,OVC,M,M,M,3500.00,M,M,M,M,KVAY 011920Z AUTO 33013KT 10SM OVC035 A2986 RMK MADISHF
VAY,2017-04-01 19:25,-74.8457,39.9429,M,M,M,320.00,12.00,M,29.87,M,10.00,M,OVC,M,M,M,3500.00,M,M,M,M,KVAY 011925Z AUTO 32012KT 10SM OVC035 A2987 RMK MADISHF
VAY,2017-04-01 19:30,-74.8457,39.9429,M,M,M,300.00,12.00,M,29.87,M,M,M,OVC,M,M,M,3500.00,M,M,M,M,KVAY 011930Z AUTO 30012KT OVC035 A2987 RMK MADISHF
VAY,2017-04-01 19:35,-74.8457,39.9429,M,M,M,330.00,11.00,M,29.87,M,M,M,OVC,M,M,M,3500.00,M,M,M,M,KVAY 011935Z AUTO 33011KT OVC035 A2987 RMK MADISHF
VAY,2017-04-01 19:40,-74.8457,39.9429,M,M,M,320.00,12.00,M,29.87,M,10.00,18.00,OVC,M,M,M,3700.00,M,M,M,M,KVAY 011940Z AUTO 32012G18KT 10SM OVC037 A2987 RMK WND 26V34  MADISHF
VAY,2017-04-01 19:45,-74.8457,39.9429,M,M,M,320.00,11.00,M,29.88,M,10.00,M,OVC,M,M,M,3700.00,M,M,M,M,KVAY 011945Z AUTO 32011KT 10SM OVC037 A2988 RMK MADISHF
VAY,2017-04-01 19:50,-74.8457,39.9429,M,M,M,310.00,10.00,M,29.88,M,10.00,M,OVC,M,M,M,3600.00,M,M,M,M,KVAY 011950Z AUTO 31010KT 10SM OVC036 A2988 RMK WND 28V34  MADISHF
VAY,2017-04-01 19:54,-74.8457,39.9429,50.00,35.10,56.39,300.00,7.00,0.00,29.89,1012.00,10.00,15.00,OVC,M,M,M,3600.00,M,M,M,M,KVAY 011954Z AUTO 30007G15KT 10SM OVC036 10/02 A2989 RMK AO2 PRESRR SLP120 T01000017 $
VAY,2017-04-01 19:55,-74.8457,39.9429,M,M,M,300.00,8.00,M,29.89,M,10.00,M,OVC,M,M,M,3600.00,M,M,M,M,KVAY 011955Z AUTO 30008KT 10SM OVC036 A2989 RMK MADISHF
VAY,2017-04-01 20:00,-74.8457,39.9429,M,M,M,300.00,11.00,M,29.89,M,10.00,M,OVC,M,M,M,3600.00,M,M,M,M,KVAY 012000Z AUTO 30011KT 10SM OVC036 A2989 RMK MADISHF
VAY,2017-04-01 20:05,-74.8457,39.9429,M,M,M,320.00,11.00,M,29.89,M,10.00,M,OVC,M,M,M,3600.00,M,M,M,M,KVAY 012005Z AUTO 32011KT 10SM OVC036 A2989 RMK MADISHF
VAY,2017-04-01 20:10,-74.8457,39.9429,M,M,M,320.00,14.00,M,29.89,M,10.00,M,OVC,M,M,M,3800.00,M,M,M,M,KVAY 012010Z AUTO 32014KT 10SM OVC038 A2989 RMK MADISHF
VAY,2017-04-01 20:15,-74.8457,39.9429,M,M,M,300.00,11.00,M,29.89,M,10.00,18.00,OVC,M,M,M,3800.00,M,M,M,M,KVAY 012015Z AUTO 30011G18KT 10SM OVC038 A2989 RMK MADISHF
VAY,2017-04-01 20:20,-74.8457,39.9429,M,M,M,310.00,10.00,M,29.89,M,10.00,16.00,OVC,M,M,M,3800.00,M,M,M,M,KVAY 012020Z AUTO 31010G16KT 10SM OVC038 A2989 RMK MADISHF
VAY,2017-04-01 20:25,-74.8457,39.9429,M,M,M,300.00,10.00,M,29.89,M,10.00,16.00,OVC,M,M,M,3900.00,M,M,M,M,KVAY 012025Z AUTO 30010G16KT 10SM OVC039 A2989 RMK MADISHF
VAY,2017-04-01 20:30,-74.8457,39.9429,M,M,M,310.00,9.00,M,29.90,M,10.00,16.00,OVC,M,M,M,3900.00,M,M,M,M,KVAY 012030Z AUTO 31009G16KT 10SM OVC039 A2990 RMK MADISHF
VAY,2017-04-01 20:35,-74.8457,39.9429,M,M,M,300.00,11.00,M,29.90,M,10.00,M,OVC,M,M,M,3900.00,M,M,M,M,KVAY 012035Z AUTO 30011KT 10SM OVC039 A2990 RMK MADISHF
VAY,2017-04-01 20:40,-74.8457,39.9429,M,M,M,310.00,10.00,M,29.90,M,10.00,15.00,OVC,M,M,M,3900.00,M,M,M,M,KVAY 012040Z AUTO 31010G15KT 10SM OVC039 A2990 RMK MADISHF
VAY,2017-04-01 20:45,-74.8457,39.9429,M,M,M,320.00,11.00,M,29.90,M,10.00,M,OVC,M,M,M,3900.00,M,M,M,M,KVAY 012045Z AUTO 32011KT 10SM OVC039 A2990 RMK MADISHF
VAY,2017-04-01 20:50,-74.8457,39.9429,M,M,M,320.00,10.00,M,29.90,M,10.00,M,OVC,M,M,M,3900.00,M,M,M,M,KVAY 012050Z AUTO 32010KT 10SM OVC039 A2990 RMK MADISHF
VAY,2017-04-01 20:54,-74.8457,39.9429,50.00,35.10,56.39,320.00,11.00,0.00,29.91,1012.60,10.00,20.00,OVC,M,M,M,3900.00,M,M,M,M,KVAY 012054Z AUTO 32011G20KT 10SM OVC039 10/02 A2991 RMK AO2 SLP126 T01000017 53019 $
VAY,2017-04-01 20:55,-74.8457,39.9429,M,M,M,320.00,10.00,M,29.91,M,10.00,M,OVC,M,M,M,3900.00,M,M,M,M,KVAY 012055Z AUTO 32010KT 10SM OVC039 A2991 RMK MADISHF
VAY,2017-04-01 21:00,-74.8457,39.9429,M,M,M,330.00,12.00,M,29.91,M,10.00,M,OVC,M,M,M,3900.00,M,M,M,M,KVAY 012100Z AUTO 33012KT 10SM OVC039 A2991 RMK MADISHF
VAY,2017-04-01 21:05,-74.8457,39.9429,M,M,M,330.00,11.00,M,29.91,M,10.00,M,OVC,M,M,M,3900.00,M,M,M,M,KVAY 012105Z AUTO 33011KT 10SM OVC039 A2991 RMK MADISHF
VAY,2017-04-01 21:10,-74.8457,39.9429,M,M,M,330.00,10.00,M,29.91,M,10.00,M,OVC,M,M,M,3900.00,M,M,M,M,KVAY 012110Z AUTO 33010KT 10SM OVC039 A2991 RMK MADISHF
VAY,2017-04-01 21:15,-74.8457,39.9429,M,M,M,320.00,12.00,M,29.91,M,10.00,18.00,OVC,M,M,M,3900.00,M,M,M,M,KVAY 012115Z AUTO 32012G18KT 10SM OVC039 A2991 RMK MADISHF
VAY,2017-04-01 21:20,-74.8457,39.9429,M,M,M,320.00,14.00,M,29.91,M,10.00,M,OVC,M,M,M,3900.00,M,M,M,M,KVAY 012120Z AUTO 32014KT 10SM OVC039 A2991 RMK MADISHF
VAY,2017-04-01 21:25,-74.8457,39.9429,M,M,M,330.00,14.00,M,29.91,M,10.00,M,OVC,M,M,M,3900.00,M,M,M,M,KVAY 012125Z AUTO 33014KT 10SM OVC039 A2991 RMK MADISHF
VAY,2017-04-01 21:30,-74.8457,39.9429,M,M,M,330.00,13.00,M,29.91,M,10.00,M,OVC,M,M,M,3900.00,M,M,M,M,KVAY 012130Z AUTO 33013KT 10SM OVC039 A2991 RMK MADISHF
VAY,2017-04-01 21:35,-74.8457,39.9429,M,M,M,330.00,11.00,M,29.92,M,10.00,16.00,OVC,M,M,M,3999.00,M,M,M,M,KVAY 012135Z AUTO 33011G16KT 10SM OVC039 A2992 RMK MADISHF
VAY,2017-04-01 21:40,-74.8457,39.9429,M,M,M,330.00,12.00,M,29.92,M,10.00,M,OVC,M,M,M,3999.00,M,M,M,M,KVAY 012140Z AUTO 33012KT 10SM OVC039 A2992 RMK MADISHF
VAY,2017-04-01 21:45,-74.8457,39.9429,M,M,M,320.00,10.00,M,29.92,M,10.00,15.00,OVC,M,M,M,3999.00,M,M,M,M,KVAY 012145Z AUTO 32010G15KT 10SM OVC039 A2992 RMK MADISHF
VAY,2017-04-01 21:50,-74.8457,39.9429,M,M,M,320.00,10.00,M,29.93,M,10.00,17.00,OVC,M,M,M,3999.00,M,M,M,M,KVAY 012150Z AUTO 32010G17KT 10SM OVC039 A2993 RMK MADISHF
VAY,2017-04-01 21:54,-74.8457,39.9429,50.00,34.00,53.97,310.00,8.00,0.00,29.93,1013.50,10.00,18.00,OVC,M,M,M,4000.00,M,M,M,M,KVAY 012154Z AUTO 31008G18KT 10SM OVC040 10/01 A2993 RMK AO2 SLP135 T01000011 $
VAY,2017-04-01 21:55,-74.8457,39.9429,M,M,M,320.00,9.00,M,29.93,M,10.00,M,OVC,M,M,M,3999.00,M,M,M,M,KVAY 012155Z AUTO 32009KT 10SM OVC039 A2993 RMK MADISHF
VAY,2017-04-01 22:00,-74.8457,39.9429,M,M,M,330.00,11.00,M,29.94,M,10.00,M,OVC,M,M,M,3999.00,M,M,M,M,KVAY 012200Z AUTO 33011KT 10SM OVC039 A2994 RMK MADISHF
VAY,2017-04-01 22:05,-74.8457,39.9429,M,M,M,340.00,12.00,M,29.94,M,10.00,M,OVC,M,M,M,3999.00,M,M,M,M,KVAY 012205Z AUTO 34012KT 10SM OVC039 A2994 RMK MADISHF
VAY,2017-04-01 22:10,-74.8457,39.9429,M,M,M,330.00,11.00,M,29.94,M,10.00,M,OVC,M,M,M,3999.00,M,M,M,M,KVAY 012210Z AUTO 33011KT 10SM OVC039 A2994 RMK MADISHF
VAY,2017-04-01 22:15,-74.8457,39.9429,M,M,M,330.00,9.00,M,29.95,M,10.00,14.00,OVC,M,M,M,3999.00,M,M,M,M,KVAY 012215Z AUTO 33009G14KT 10SM OVC039 A2995 RMK MADISHF
VAY,2017-04-01 22:20,-74.8457,39.9429,M,M,M,330.00,9.00,M,29.95,M,10.00,M,OVC,M,M,M,3900.00,M,M,M,M,KVAY 012220Z AUTO 33009KT 10SM OVC039 A2995 RMK MADISHF
VAY,2017-04-01 22:25,-74.8457,39.9429,M,M,M,330.00,10.00,M,29.95,M,10.00,M,OVC,M,M,M,3900.00,M,M,M,M,KVAY 012225Z AUTO 33010KT 10SM OVC039 A2995 RMK MADISHF
VAY,2017-04-01 22:30,-74.8457,39.9429,M,M,M,330.00,10.00,M,29.95,M,10.00,M,OVC,M,M,M,3700.00,M,M,M,M,KVAY 012230Z AUTO 33010KT 10SM OVC037 A2995 RMK MADISHF
VAY,2017-04-01 22:35,-74.8457,39.9429,M,M,M,320.00,11.00,M,29.96,M,10.00,M,OVC,M,M,M,3700.00,M,M,M,M,KVAY 012235Z AUTO 32011KT 10SM OVC037 A2996 RMK MADISHF
VAY,2017-04-01 22:40,-74.8457,39.9429,M,M,M,330.00,9.00,M,29.96,M,10.00,M,OVC,M,M,M,3700.00,M,M,M,M,KVAY 012240Z AUTO 33009KT 10SM OVC037 A2996 RMK WND 29V35  MADISHF
VAY,2017-04-01 22:45,-74.8457,39.9429,M,M,M,330.00,11.00,M,29.96,M,10.00,M,OVC,M,M,M,3700.00,M,M,M,M,KVAY 012245Z AUTO 33011KT 10SM OVC037 A2996 RMK MADISHF
VAY,2017-04-01 22:50,-74.8457,39.9429,M,M,M,330.00,8.00,M,29.97,M,10.00,M,OVC,M,M,M,3700.00,M,M,M,M,KVAY 012250Z AUTO 33008KT 10SM OVC037 A2997 RMK MADISHF
VAY,2017-04-01 22:54,-74.8457,39.9429,48.90,35.10,58.75,340.00,12.00,0.00,29.97,1014.90,10.00,17.00,OVC,M,M,M,3500.00,M,M,M,M,KVAY 012254Z AUTO 34012G17KT 10SM OVC035 09/02 A2997 RMK AO2 SLP149 T00940017 $
VAY,2017-04-01 22:55,-74.8457,39.9429,M,M,M,330.00,10.00,M,29.97,M,10.00,M,OVC,M,M,M,3500.00,M,M,M,M,KVAY 012255Z AUTO 33010KT 10SM OVC035 A2997 RMK MADISHF
VAY,2017-04-01 23:00,-74.8457,39.9429,M,M,M,330.00,10.00,M,29.98,M,10.00,M,OVC,M,M,M,3500.00,M,M,M,M,KVAY 012300Z AUTO 33010KT 10SM OVC035 A2998 RMK MADISHF
VAY,2017-04-01 23:05,-74.8457,39.9429,M,M,M,M,M,M,29.98,M,10.00,M,OVC,M,M,M,3500.00,M,M,M,M,KVAY 012305Z AUTO /////KT 10SM OVC035 A2998 RMK MADISHF
VAY,2017-04-01 23:10,-74.8457,39.9429,M,M,M,330.00,10.00,M,29.99,M,10.00,M,OVC,M,M,M,3600.00,M,M,M,M,KVAY 012310Z AUTO 33010KT 10SM OVC036 A2999 RMK MADISHF
VAY,2017-04-01 23:15,-74.8457,39.9429,M,M,M,330.00,10.00,M,29.99,M,10.00,M,OVC,M,M,M,3600.00,M,M,M,M,KVAY 012315Z AUTO 33010KT 10SM OVC036 A2999 RMK MADISHF
VAY,2017-04-01 23:20,-74.8457,39.9429,M,M,M,330.00,12.00,M,29.99,M,10.00,M,OVC,M,M,M,3700.00,M,M,M,M,KVAY 012320Z AUTO 33012KT 10SM OVC037 A2999 RMK MADISHF
VAY,2017-04-01 23:25,-74.8457,39.9429,M,M,M,330.00,12.00,M,29.99,M,10.00,M,OVC,M,M,M,3700.00,M,M,M,M,KVAY 012325Z AUTO 33012KT 10SM OVC037 A2999 RMK MADISHF
VAY,2017-04-01 23:30,-74.8457,39.9429,M,M,M,340.00,10.00,M,30.00,M,10.00,M,OVC,M,M,M,3900.00,M,M,M,M,KVAY 012330Z AUTO 34010KT 10SM OVC039 A3000 RMK MADISHF
VAY,2017-04-01 23:35,-74.8457,39.9429,M,M,M,340.00,12.00,M,30.00,M,10.00,18.00,OVC,M,M,M,3900.00,M,M,M,M,KVAY 012335Z AUTO 34012G18KT 10SM OVC039 A3000 RMK MADISHF
VAY,2017-04-01 23:40,-74.8457,39.9429,M,M,M,330.00,10.00,M,30.00,M,10.00,15.00,OVC,M,M,M,3800.00,M,M,M,M,KVAY 012340Z AUTO 33010G15KT 10SM OVC038 A3000 RMK MADISHF
VAY,2017-04-01 23:45,-74.8457,39.9429,M,M,M,340.00,11.00,M,30.00,M,10.00,M,OVC,M,M,M,3800.00,M,M,M,M,KVAY 012345Z AUTO 34011KT 10SM OVC038 A3000 RMK MADISHF
VAY,2017-04-01 23:50,-74.8457,39.9429,M,M,M,340.00,12.00,M,30.01,M,10.00,M,OVC,M,M,M,3800.00,M,M,M,M,KVAY 012350Z AUTO 34012KT 10SM OVC038 A3001 RMK MADISHF
VAY,2017-04-01 23:54,-74.8457,39.9429,48.00,34.00,58.16,340.00,11.00,0.00,30.01,1016.00,10.00,19.00,OVC,M,M,M,3800.00,M,M,M,M,KVAY 012354Z AUTO 34011G19KT 10SM OVC038 09/01 A3001 RMK AO2 SLP160 T00890011 10106 20089 53034 $
VAY,2017-04-01 23:55,-74.8457,39.9429,M,M,M,330.00,10.00,M,30.01,M,10.00,M,OVC,M,M,M,3800.00,M,M,M,M,KVAY 012355Z AUTO 33010KT 10SM OVC038 A3001 RMK MADISHF
