#DEBUG: Format Typ    -> comma
#DEBUG: Time Period   -> 2017-04-01 00:00:00+00:00 2017-04-02 00:00:00+00:00
#DEBUG: Time Zone     -> Etc/UTC
#DEBUG: Data Contact   -> daryl herzmann akrherz@iastate.edu 515-294-5978
#DEBUG: Entries Found -> -1
station,valid,lon,lat,tmpf, dwpf, relh, drct, sknt, p01i, alti, mslp, vsby, gust, skyc1, skyc2, skyc3, skyc4, skyl1, skyl2, skyl3, skyl4, presentwx, metar
VJI,2017-04-01 00:15,-82.0333,36.6871,53.60,43.90,69.57,300.00,10.00,0.00,29.84,M,10.00,14.00,BKN,BKN,OVC,M,3400.00,3900.00,5500.00,M,M,KVJI 010015Z AUTO 30010G14KT 10SM BKN034 BKN039 OVC055 12/07 A2984 RMK AO2 T01200066
VJI,2017-04-01 00:35,-82.0333,36.6871,53.60,44.20,70.37,300.00,7.00,0.00,29.85,M,10.00,M,SCT,BKN,OVC,M,3300.00,4900.00,5500.00,M,M,KVJI 010035Z AUTO 30007KT 10SM SCT033 BKN049 OVC055 12/07 A2985 RMK AO2 T01200068
VJI,2017-04-01 00:55,-82.0333,36.6871,53.10,44.80,73.33,290.00,7.00,0.00,29.86,M,10.00,M,BKN,BKN,OVC,M,2600.00,3900.00,4800.00,M,M,KVJI 010055Z AUTO 29007KT 10SM BKN026 BKN039 OVC048 12/07 A2986 RMK AO2 T01170071
VJI,2017-04-01 01:15,-82.0333,36.6871,52.90,45.00,74.44,290.00,8.00,0.00,29.87,M,10.00,14.00,BKN,BKN,OVC,M,2600.00,4100.00,5000.00,M,M,KVJI 010115Z AUTO 29008G14KT 10SM BKN026 BKN041 OVC050 12/07 A2987 RMK AO2 T01160072
VJI,2017-04-01 01:35,-82.0333,36.6871,52.70,45.10,75.27,280.00,9.00,0.00,29.89,M,10.00,M,SCT,BKN,OVC,M,2200.00,4300.00,5000.00,M,M,KVJI 010135Z AUTO 28009KT 10SM SCT022 BKN043 OVC050 12/07 A2989 RMK AO2 T01150073
VJI,2017-04-01 01:55,-82.0333,36.6871,51.80,46.20,81.12,280.00,8.00,0.00,29.89,M,10.00,M,SCT,BKN,OVC,M,1600.00,2900.00,4800.00,M,M,KVJI 010155Z AUTO 28008KT 10SM SCT016 BKN029 OVC048 11/08 A2989 RMK AO2 T01100079
VJI,2017-04-01 02:15,-82.0333,36.6871,50.70,46.60,85.78,290.00,8.00,0.00,29.89,M,10.00,M,SCT,SCT,BKN,M,1300.00,2500.00,4800.00,M,M,KVJI 010215Z AUTO 29008KT 10SM SCT013 SCT025 BKN048 10/08 A2989 RMK AO2 T01040081
VJI,2017-04-01 02:35,-82.0333,36.6871,50.40,46.80,87.39,280.00,6.00,0.00,29.90,M,10.00,M,SCT,SCT,BKN,M,1300.00,2000.00,5000.00,M,M,KVJI 010235Z AUTO 28006KT 10SM SCT013 SCT020 BKN050 10/08 A2990 RMK AO2 T01020082
VJI,2017-04-01 02:55,-82.0333,36.6871,50.20,46.80,88.05,290.00,5.00,0.00,29.90,M,10.00,M,SCT,OVC,M,M,1500.00,5000.00,M,M,M,KVJI 010255Z AUTO 29005KT 10SM SCT015 OVC050 10/08 A2990 RMK AO2 T01010082
VJI,2017-04-01 03:15,-82.0333,36.6871,49.60,46.40,88.68,290.00,5.00,0.00,29.89,M,10.00,M,SCT,SCT,BKN,M,1300.00,2700.00,5000.00,M,M,KVJI 010315Z AUTO 29005KT 10SM SCT013 SCT027 BKN050 10/08 A2989 RMK AO2 T00980080
VJI,2017-04-01 03:35,-82.0333,36.6871,49.30,46.40,89.68,290.00,5.00,0.00,29.89,M,10.00,M,SCT,SCT,M,M,1100.00,2900.00,M,M,M,KVJI 010335Z AUTO 29005KT 10SM SCT011 SCT029 10/08 A2989 RMK AO2 T00960080
VJI,2017-04-01 03:55,-82.0333,36.6871,49.30,46.60,90.36,290.00,5.00,0.00,29.89,M,10.00,M,BKN,BKN,M,M,1300.00,2700.00,M,M,M,KVJI 010355Z AUTO 29005KT 10SM BKN013 BKN027 10/08 A2989 RMK AO2 T00960081
VJI,2017-04-01 04:15,-82.0333,36.6871,50.40,47.50,89.73,290.00,6.00,0.00,29.90,M,10.00,M,BKN,OVC,M,M,1300.00,2300.00,M,M,M,KVJI 010415Z AUTO 29006KT 10SM BKN013 OVC023 10/09 A2990 RMK AO2 T01020086
VJI,2017-04-01 04:35,-82.0333,36.6871,50.40,47.30,89.06,280.00,7.00,0.00,29.90,M,10.00,M,SCT,BKN,OVC,M,1300.00,2000.00,2500.00,M,M,KVJI 010435Z AUTO 28007KT 10SM SCT013 BKN020 OVC025 10/09 A2990 RMK AO2 T01020085
VJI,2017-04-01 04:55,-82.0333,36.6871,50.50,47.30,88.73,280.00,8.00,0.00,29.91,M,10.00,M,SCT,BKN,OVC,M,1400.00,2200.00,2700.00,M,M,KVJI 010455Z AUTO 28008KT 10SM SCT014 BKN022 OVC027 10/09 A2991 RMK AO2 T01030085
VJI,2017-04-01 05:15,-82.0333,36.6871,50.90,47.50,88.08,280.00,8.00,0.00,29.90,M,10.00,M,OVC,M,M,M,2700.00,M,M,M,M,KVJI 010515Z AUTO 28008KT 10SM OVC027 11/09 A2990 RMK AO2 T01050086
VJI,2017-04-01 05:35,-82.0333,36.6871,50.90,47.70,88.75,290.00,11.00,0.00,29.91,M,10.00,M,OVC,M,M,M,2500.00,M,M,M,M,KVJI 010535Z AUTO 29011KT 10SM OVC025 11/09 A2991 RMK AO2 T01050087
VJI,2017-04-01 05:55,-82.0333,36.6871,50.90,47.30,87.42,290.00,10.00,0.00,29.91,M,10.00,M,OVC,M,M,M,2500.00,M,M,M,M,KVJI 010555Z AUTO 29010KT 10SM OVC025 11/09 A2991 RMK AO2 T01050085 10121 20095 401590095
VJI,2017-04-01 06:15,-82.0333,36.6871,50.70,46.90,86.75,300.00,9.00,0.00,29.91,M,10.00,M,OVC,M,M,M,2300.00,M,M,M,M,KVJI 010615Z AUTO 30009KT 10SM OVC023 10/08 A2991 RMK AO2 T01040083
VJI,2017-04-01 06:35,-82.0333,36.6871,50.20,46.80,88.05,300.00,8.00,0.00,29.92,M,7.00,14.00,SCT,OVC,M,M,1100.00,2300.00,M,M,M,KVJI 010635Z AUTO 30008G14KT 7SM SCT011 OVC023 10/08 A2992 RMK AO2 T01010082
VJI,2017-04-01 06:55,-82.0333,36.6871,49.60,46.80,90.03,280.00,7.00,0.00,29.92,M,7.00,M,SCT,OVC,M,M,1100.00,2300.00,M,M,M,KVJI 010655Z AUTO 28007KT 7SM SCT011 OVC023 10/08 A2992 RMK AO2 T00980082
VJI,2017-04-01 07:15,-82.0333,36.6871,49.80,46.80,89.37,290.00,6.00,0.00,29.93,M,10.00,M,SCT,SCT,OVC,M,1100.00,2000.00,2500.00,M,M,KVJI 010715Z AUTO 29006KT 10SM SCT011 SCT020 OVC025 10/08 A2993 RMK AO2 T00990082
VJI,2017-04-01 07:35,-82.0333,36.6871,50.00,46.40,87.37,290.00,6.00,0.00,29.93,M,10.00,M,SCT,OVC,M,M,1600.00,2200.00,M,M,M,KVJI 010735Z AUTO 29006KT 10SM SCT016 OVC022 10/08 A2993 RMK AO2 T01000080
VJI,2017-04-01 07:55,-82.0333,36.6871,50.00,45.70,85.09,280.00,6.00,0.00,29.94,M,10.00,M,BKN,OVC,M,M,2000.00,3000.00,M,M,M,KVJI 010755Z AUTO 28006KT 10SM BKN020 OVC030 10/08 A2994 RMK AO2 T01000076
VJI,2017-04-01 08:15,-82.0333,36.6871,50.00,45.00,82.86,290.00,5.00,0.00,29.95,M,10.00,M,BKN,OVC,M,M,2300.00,2900.00,M,M,M,KVJI 010815Z AUTO 29005KT 10SM BKN023 OVC029 10/07 A2995 RMK AO2 T01000072
VJI,2017-04-01 08:35,-82.0333,36.6871,50.00,44.60,81.61,290.00,5.00,0.00,29.95,M,10.00,M,OVC,M,M,M,2000.00,M,M,M,M,KVJI 010835Z AUTO 29005KT 10SM OVC020 10/07 A2995 RMK AO2 T01000070
VJI,2017-04-01 08:55,-82.0333,36.6871,50.00,44.10,80.06,290.00,5.00,0.00,29.97,M,10.00,M,OVC,M,M,M,1800.00,M,M,M,M,KVJI 010855Z AUTO 29005KT 10SM OVC018 10/07 A2997 RMK AO2 T01000067
VJI,2017-04-01 09:15,-82.0333,36.6871,50.00,44.20,80.37,280.00,6.00,0.00,29.97,M,10.00,M,OVC,M,M,M,1800.00,M,M,M,M,KVJI 010915Z AUTO 28006KT 10SM OVC018 10/07 A2997 RMK AO2 T01000068
VJI,2017-04-01 09:35,-82.0333,36.6871,49.60,44.10,81.27,290.00,3.00,0.00,29.98,M,10.00,M,OVC,M,M,M,1600.00,M,M,M,M,KVJI 010935Z AUTO 29003KT 10SM OVC016 10/07 A2998 RMK AO2 T00980067
VJI,2017-04-01 09:55,-82.0333,36.6871,49.50,44.20,81.88,300.00,5.00,0.00,29.99,M,10.00,M,OVC,M,M,M,1600.00,M,M,M,M,KVJI 010955Z AUTO 30005KT 10SM OVC016 10/07 A2999 RMK AO2 T00970068
VJI,2017-04-01 10:15,-82.0333,36.6871,49.50,44.40,82.51,300.00,4.00,0.00,29.99,M,10.00,M,OVC,M,M,M,1600.00,M,M,M,M,KVJI 011015Z AUTO 30004KT 10SM OVC016 10/07 A2999 RMK AO2 T00970069
VJI,2017-04-01 10:35,-82.0333,36.6871,49.30,44.40,83.13,310.00,4.00,0.00,30.00,M,10.00,M,OVC,M,M,M,1600.00,M,M,M,M,KVJI 011035Z AUTO 31004KT 10SM OVC016 10/07 A3000 RMK AO2 T00960069
VJI,2017-04-01 10:55,-82.0333,36.6871,49.10,44.10,82.80,330.00,5.00,0.00,30.01,M,10.00,M,BKN,OVC,M,M,1600.00,2500.00,M,M,M,KVJI 011055Z AUTO 33005KT 10SM BKN016 OVC025 10/07 A3001 RMK AO2 T00950067
VJI,2017-04-01 11:15,-82.0333,36.6871,49.10,43.70,81.54,290.00,6.00,0.00,30.02,M,10.00,M,SCT,OVC,M,M,1900.00,2500.00,M,M,M,KVJI 011115Z AUTO 29006KT 10SM SCT019 OVC025 10/07 A3002 RMK AO2 T00950065
VJI,2017-04-01 11:35,-82.0333,36.6871,49.10,44.20,83.11,290.00,4.00,0.00,30.02,M,10.00,M,SCT,OVC,M,M,2000.00,2500.00,M,M,M,KVJI 011135Z AUTO 29004KT 10SM SCT020 OVC025 10/07 A3002 RMK AO2 T00950068
VJI,2017-04-01 11:55,-82.0333,36.6871,49.10,44.60,84.39,300.00,4.00,0.00,30.02,M,10.00,M,OVC,M,M,M,1700.00,M,M,M,M,KVJI 011155Z AUTO 30004KT 10SM OVC017 10/07 A3002 RMK AO2 70005 T00950070 10105 20095
VJI,2017-04-01 12:15,-82.0333,36.6871,49.10,44.20,83.11,330.00,7.00,0.00,30.03,M,10.00,M,OVC,M,M,M,1700.00,M,M,M,M,KVJI 011215Z AUTO 33007KT 10SM OVC017 10/07 A3003 RMK AO2 T00950068
VJI,2017-04-01 12:35,-82.0333,36.6871,48.90,44.10,83.42,310.00,4.00,0.00,30.05,M,10.00,M,OVC,M,M,M,1700.00,M,M,M,M,KVJI 011235Z AUTO 31004KT 10SM OVC017 09/07 A3005 RMK AO2 T00940067
VJI,2017-04-01 12:55,-82.0333,36.6871,49.10,43.90,82.17,290.00,6.00,0.00,30.05,M,10.00,M,OVC,M,M,M,1900.00,M,M,M,M,KVJI 011255Z AUTO 29006KT 10SM OVC019 10/07 A3005 RMK AO2 T00950066
VJI,2017-04-01 13:15,-82.0333,36.6871,49.30,44.20,82.49,280.00,6.00,0.00,30.05,M,10.00,M,OVC,M,M,M,2100.00,M,M,M,M,KVJI 011315Z AUTO 28006KT 10SM OVC021 10/07 A3005 RMK AO2 T00960068
VJI,2017-04-01 13:35,-82.0333,36.6871,49.30,44.80,84.40,280.00,5.00,0.00,30.06,M,10.00,M,BKN,OVC,M,M,1800.00,2300.00,M,M,M,KVJI 011335Z AUTO 28005KT 10SM BKN018 OVC023 10/07 A3006 RMK AO2 T00960071
VJI,2017-04-01 13:55,-82.0333,36.6871,49.80,44.60,82.22,310.00,3.00,0.00,30.06,M,10.00,M,OVC,M,M,M,1700.00,M,M,M,M,KVJI 011355Z AUTO 31003KT 10SM OVC017 10/07 A3006 RMK AO2 T00990070
VJI,2017-04-01 14:15,-82.0333,36.6871,50.00,44.80,82.23,290.00,7.00,0.00,30.07,M,10.00,M,BKN,OVC,M,M,1700.00,2400.00,M,M,M,KVJI 011415Z AUTO 29007KT 10SM BKN017 OVC024 10/07 A3007 RMK AO2 T01000071
VJI,2017-04-01 14:35,-82.0333,36.6871,50.00,44.60,81.61,320.00,3.00,0.00,30.07,M,10.00,M,BKN,OVC,M,M,1700.00,2400.00,M,M,M,KVJI 011435Z AUTO 32003KT 10SM BKN017 OVC024 10/07 A3007 RMK AO2 T01000070
VJI,2017-04-01 14:55,-82.0333,36.6871,50.20,44.60,81.00,300.00,7.00,0.00,30.08,M,10.00,M,OVC,M,M,M,1500.00,M,M,M,M,KVJI 011455Z AUTO 30007KT 10SM OVC015 10/07 A3008 RMK AO2 T01010070
VJI,2017-04-01 15:15,-82.0333,36.6871,49.50,45.10,84.74,330.00,6.00,0.00,30.09,M,7.00,M,OVC,M,M,M,1300.00,M,M,M,M,KVJI 011515Z AUTO 33006KT 7SM OVC013 10/07 A3009 RMK AO2 T00970073
VJI,2017-04-01 15:35,-82.0333,36.6871,50.20,44.40,80.39,320.00,8.00,0.00,30.09,M,10.00,M,OVC,M,M,M,1500.00,M,M,M,M,KVJI 011535Z AUTO 32008KT 10SM OVC015 10/07 A3009 RMK AO2 T01010069
VJI,2017-04-01 15:55,-82.0333,36.6871,50.20,44.80,81.62,340.00,8.00,0.00,30.10,M,7.00,M,BKN,OVC,M,M,1500.00,2000.00,M,M,M,KVJI 011555Z AUTO 34008KT 7SM BKN015 OVC020 10/07 A3010 RMK AO2 T01010071
VJI,2017-04-01 16:15,-82.0333,36.6871,52.30,44.20,73.81,340.00,7.00,0.00,30.09,M,10.00,M,SCT,BKN,OVC,M,1700.00,2400.00,2900.00,M,M,KVJI 011615Z AUTO 34007KT 300V010 10SM SCT017 BKN024 OVC029 11/07 A3009 RMK AO2 T01130068
VJI,2017-04-01 16:35,-82.0333,36.6871,53.20,43.90,70.60,300.00,7.00,0.00,30.09,M,10.00,M,OVC,M,M,M,2400.00,M,M,M,M,KVJI 011635Z AUTO 30007KT 10SM OVC024 12/07 A3009 RMK AO2 T01180066
VJI,2017-04-01 16:55,-82.0333,36.6871,53.60,43.20,67.73,350.00,4.00,0.00,30.09,M,10.00,M,OVC,M,M,M,2500.00,M,M,M,M,KVJI 011655Z AUTO 35004KT 10SM OVC025 12/06 A3009 RMK AO2 T01200062
VJI,2017-04-01 17:15,-82.0333,36.6871,54.00,43.00,66.24,290.00,9.00,0.00,30.09,M,10.00,M,OVC,M,M,M,2500.00,M,M,M,M,KVJI 011715Z AUTO 29009KT 10SM OVC025 12/06 A3009 RMK AO2 T01220061
VJI,2017-04-01 17:35,-82.0333,36.6871,54.50,45.10,70.47,270.00,6.00,0.00,30.09,M,10.00,M,OVC,M,M,M,2500.00,M,M,M,M,KVJI 011735Z AUTO 27006KT 10SM OVC025 13/07 A3009 RMK AO2 T01250073
VJI,2017-04-01 17:55,-82.0333,36.6871,54.50,45.00,70.20,280.00,6.00,0.00,30.09,M,10.00,M,OVC,M,M,M,2300.00,M,M,M,M,KVJI 011755Z AUTO 28006KT 10SM OVC023 13/07 A3009 RMK AO2 T01250072 10126 20093
VJI,2017-04-01 18:15,-82.0333,36.6871,54.50,43.50,66.30,330.00,4.00,0.00,30.09,M,10.00,M,OVC,M,M,M,2300.00,M,M,M,M,KVJI 011815Z AUTO 33004KT 10SM OVC023 13/06 A3009 RMK AO2 T01250064
VJI,2017-04-01 18:35,-82.0333,36.6871,54.70,43.50,65.82,310.00,3.00,0.00,30.09,M,10.00,14.00,OVC,M,M,M,2300.00,M,M,M,M,KVJI 011835Z AUTO 31003G14KT 10SM OVC023 13/06 A3009 RMK AO2 T01260064
VJI,2017-04-01 18:55,-82.0333,36.6871,57.40,44.80,62.72,290.00,7.00,0.00,30.09,M,10.00,M,SCT,OVC,M,M,2500.00,3400.00,M,M,M,KVJI 011855Z AUTO 29007KT 10SM SCT025 OVC034 14/07 A3009 RMK AO2 T01410071
VJI,2017-04-01 19:15,-82.0333,36.6871,57.40,45.10,63.44,230.00,8.00,0.00,30.08,M,10.00,M,OVC,M,M,M,3400.00,M,M,M,M,KVJI 011915Z AUTO 23008KT 10SM OVC034 14/07 A3008 RMK AO2 T01410073
VJI,2017-04-01 19:35,-82.0333,36.6871,57.40,45.00,63.20,270.00,5.00,0.00,30.08,M,10.00,M,SCT,OVC,M,M,2800.00,3400.00,M,M,M,KVJI 011935Z AUTO 27005KT 10SM SCT028 OVC034 14/07 A3008 RMK AO2 T01410072
VJI,2017-04-01 19:55,-82.0333,36.6871,58.80,46.00,62.42,270.00,10.00,0.00,30.07,M,10.00,M,OVC,M,M,M,3200.00,M,M,M,M,KVJI 011955Z AUTO 27010KT 10SM OVC032 15/08 A3007 RMK AO2 T01490078
VJI,2017-04-01 20:15,-82.0333,36.6871,57.40,45.10,63.44,200.00,5.00,0.00,30.07,M,10.00,M,OVC,M,M,M,3300.00,M,M,M,M,KVJI 012015Z AUTO 20005KT 10SM OVC033 14/07 A3007 RMK AO2 T01410073
VJI,2017-04-01 20:35,-82.0333,36.6871,59.90,45.00,57.78,270.00,6.00,0.00,30.07,M,10.00,M,OVC,M,M,M,3300.00,M,M,M,M,KVJI 012035Z AUTO 27006KT 10SM OVC033 16/07 A3007 RMK AO2 T01550072
VJI,2017-04-01 20:55,-82.0333,36.6871,59.90,44.80,57.35,270.00,6.00,0.00,30.08,M,10.00,M,BKN,M,M,M,3500.00,M,M,M,M,KVJI 012055Z AUTO 27006KT 10SM BKN035 16/07 A3008 RMK AO2 T01550071
VJI,2017-04-01 21:15,-82.0333,36.6871,60.60,45.30,57.01,300.00,3.00,0.00,30.08,M,10.00,M,BKN,M,M,M,3500.00,M,M,M,M,KVJI 012115Z AUTO 30003KT 10SM BKN035 16/07 A3008 RMK AO2 T01590074
VJI,2017-04-01 21:35,-82.0333,36.6871,59.90,43.90,55.41,360.00,5.00,0.00,30.09,M,10.00,M,BKN,M,M,M,3500.00,M,M,M,M,KVJI 012135Z AUTO 36005KT 10SM BKN035 16/07 A3009 RMK AO2 T01550066
VJI,2017-04-01 21:55,-82.0333,36.6871,60.10,44.60,56.51,350.00,4.00,0.00,30.09,M,10.00,M,BKN,M,M,M,3700.00,M,M,M,M,KVJI 012155Z AUTO 35004KT 10SM BKN037 16/07 A3009 RMK AO2 T01560070
VJI,2017-04-01 22:15,-82.0333,36.6871,60.10,44.20,55.65,350.00,5.00,0.00,30.09,M,10.00,M,BKN,M,M,M,3700.00,M,M,M,M,KVJI 012215Z AUTO 35005KT 10SM BKN037 16/07 A3009 RMK AO2 T01560068
VJI,2017-04-01 22:35,-82.0333,36.6871,59.20,43.70,56.38,340.00,7.00,0.00,30.10,M,10.00,M,BKN,M,M,M,3700.00,M,M,M,M,KVJI 012235Z AUTO 34007KT 10SM BKN037 15/07 A3010 RMK AO2 T01510065
VJI,2017-04-01 22:55,-82.0333,36.6871,57.40,43.50,59.68,350.00,8.00,0.00,30.11,M,10.00,M,BKN,M,M,M,3700.00,M,M,M,M,KVJI 012255Z AUTO 35008KT 10SM BKN037 14/06 A3011 RMK AO2 T01410064
VJI,2017-04-01 23:15,-82.0333,36.6871,55.40,43.70,64.65,350.00,6.00,0.00,30.11,M,10.00,M,SCT,M,M,M,3700.00,M,M,M,M,KVJI 012315Z AUTO 35006KT 10SM SCT037 13/07 A3011 RMK AO2 T01300065
VJI,2017-04-01 23:35,-82.0333,36.6871,53.80,43.50,68.01,360.00,5.00,0.00,30.13,M,10.00,M,CLR,M,M,M,M,M,M,M,M,KVJI 012335Z AUTO 36005KT 10SM CLR 12/06 A3013 RMK AO2 T01210064
VJI,2017-04-01 23:55,-82.0333,36.6871,52.00,43.00,71.28,10.00,5.00,0.00,30.14,M,10.00,M,CLR,M,M,M,M,M,M,M,M,KVJI 012355Z AUTO 01005KT 10SM CLR 11/06 A3014 RMK AO2 T01110061 10161 20111
