#DEBUG: Format Typ    -> comma
#DEBUG: Time Period   -> 2017-04-01 00:00:00+00:00 2017-04-02 00:00:00+00:00
#DEBUG: Time Zone     -> Etc/UTC
#DEBUG: Data Contact   -> daryl herzmann akrherz@iastate.edu 515-294-5978
#DEBUG: Entries Found -> -1
station,valid,lon,lat,tmpf, dwpf, relh, drct, sknt, p01i, alti, mslp, vsby, gust, skyc1, skyc2, skyc3, skyc4, skyl1, skyl2, skyl3, skyl4, presentwx, metar
VSF,2017-04-01 00:00,-72.5173,43.3436,M,M,M,350.00,3.00,0.01,30.03,M,2.00,M,OVC,M,M,M,2300.00,M,M,M,-SN BR,KVSF 010000Z AUTO 35003KT 2SM -SN BR OVC023 A3003 RMK P0001 MADISHF
VSF,2017-04-01 00:02,-72.5173,43.3436,30.90,28.90,92.18,360.00,3.00,0.01,30.03,M,2.00,M,FEW,OVC,M,M,1600.00,2300.00,M,M,-SN BR,KVSF 010002Z AUTO 36003KT 2SM -SN BR FEW016 OVC023 M01/M02 A3003 RMK AO2 P0001 T10061017
VSF,2017-04-01 00:05,-72.5173,43.3436,M,M,M,0.00,0.00,0.01,30.03,M,2.00,M,OVC,M,M,M,2300.00,M,M,M,-SN BR,KVSF 010005Z AUTO 00000KT 2SM -SN BR OVC023 A3003 RMK P0001 MADISHF
VSF,2017-04-01 00:10,-72.5173,43.3436,M,M,M,0.00,0.00,0.02,30.03,M,1.50,M,OVC,M,M,M,2100.00,M,M,M,-SN BR,KVSF 010010Z AUTO 00000KT 1 1/2SM -SN BR OVC021 A3003 RMK P0002 MADISHF
VSF,2017-04-01 00:12,-72.5173,43.3436,30.90,28.90,92.18,20.00,3.00,0.02,30.03,M,1.25,M,OVC,M,M,M,2100.00,M,M,M,-SN BR,KVSF 010012Z AUTO 02003KT 1 1/4SM -SN BR OVC021 M01/M02 A3003 RMK AO2 P0002 T10061017
VSF,2017-04-01 00:15,-72.5173,43.3436,M,M,M,0.00,0.00,0.03,30.03,M,1.00,M,VV ,M,M,M,1999.00,M,M,M,-SN BR,KVSF 010015Z AUTO 00000KT 1SM -SN BR VV019 A3003 RMK P0003 MADISHF
VSF,2017-04-01 00:20,-72.5173,43.3436,M,M,M,10.00,3.00,0.03,30.03,M,0.75,M,VV ,M,M,M,1699.00,M,M,M,-SN BR,KVSF 010020Z AUTO 01003KT 1SM -SN BR VV016 A3003 RMK P0003 MADISHF
VSF,2017-04-01 00:23,-72.5173,43.3436,30.90,28.90,92.18,0.00,0.00,0.04,30.03,M,0.75,M,VV ,M,M,M,1600.00,M,M,M,-SN BR,KVSF 010023Z AUTO 00000KT 3/4SM -SN BR VV016 M01/M02 A3003 RMK AO2 P0004 T10061017
VSF,2017-04-01 00:25,-72.5173,43.3436,M,M,M,0.00,0.00,0.04,30.03,M,0.75,M,VV ,M,M,M,1500.00,M,M,M,-SN BR,KVSF 010025Z AUTO 00000KT 1SM -SN BR VV015 A3003 RMK P0004 MADISHF
VSF,2017-04-01 00:30,-72.5173,43.3436,M,M,M,20.00,3.00,0.05,30.03,M,0.75,M,VV ,M,M,M,1200.00,M,M,M,-SN BR,KVSF 010030Z AUTO 02003KT 1SM -SN BR VV012 A3003 RMK P0005 MADISHF
VSF,2017-04-01 00:32,-72.5173,43.3436,30.90,28.00,88.84,10.00,3.00,0.05,30.03,M,0.75,M,VV ,M,M,M,1200.00,M,M,M,-SN BR,KVSF 010032Z AUTO 01003KT 3/4SM -SN BR VV012 M01/M02 A3003 RMK AO2 P0005 T10061022
VSF,2017-04-01 00:35,-72.5173,43.3436,M,M,M,20.00,3.00,0.06,30.03,M,0.75,M,VV ,M,M,M,1100.00,M,M,M,-SN BR,KVSF 010035Z AUTO 02003KT 1SM -SN BR VV011 A3003 RMK P0006 MADISHF
VSF,2017-04-01 00:40,-72.5173,43.3436,M,M,M,0.00,0.00,0.07,30.02,M,0.75,M,VV ,M,M,M,999.00,M,M,M,-SN BR,KVSF 010040Z AUTO 00000KT 1SM -SN BR VV009 A3002 RMK P0007 MADISHF
VSF,2017-04-01 00:45,-72.5173,43.3436,M,M,M,0.00,0.00,0.08,30.02,M,0.50,M,VV ,M,M,M,900.00,M,M,M,SN FZFG,KVSF 010045Z AUTO 00000KT 1/2SM SN FZFG VV009 A3002 RMK P0008 MADISHF
VSF,2017-04-01 00:50,-72.5173,43.3436,M,M,M,0.00,0.00,0.09,30.02,M,0.50,M,VV ,M,M,M,900.00,M,M,M,SN FZFG,KVSF 010050Z AUTO 00000KT 1/2SM SN FZFG VV009 A3002 RMK P0009 MADISHF
VSF,2017-04-01 00:51,-72.5173,43.3436,30.20,28.40,92.92,0.00,0.00,0.09,30.02,M,0.50,M,VV ,M,M,M,900.00,M,M,M,SN FZFG,KVSF 010051Z AUTO 00000KT 1/2SM SN FZFG VV009 M01/M02 A3002 RMK AO2 P0009
VSF,2017-04-01 00:54,-72.5173,43.3436,30.90,28.90,92.18,0.00,0.00,0.10,30.02,1017.40,0.50,M,VV ,M,M,M,800.00,M,M,M,SN FZFG,KVSF 010054Z AUTO 00000KT 1/2SM SN FZFG VV008 M01/M02 A3002 RMK AO2 SLP174 P0010 T10061017
VSF,2017-04-01 00:55,-72.5173,43.3436,M,M,M,0.00,0.00,M,30.02,M,0.50,M,VV ,M,M,M,800.00,M,M,M,SN FZFG,KVSF 010055Z AUTO 00000KT 1/2SM SN FZFG VV008 A3002 RMK MADISHF
VSF,2017-04-01 01:00,-72.5173,43.3436,M,M,M,0.00,0.00,0.01,30.02,M,0.50,M,VV ,M,M,M,800.00,M,M,M,SN FZFG,KVSF 010100Z AUTO 00000KT 1/2SM SN FZFG VV008 A3002 RMK P0001 MADISHF
VSF,2017-04-01 01:05,-72.5173,43.3436,M,M,M,0.00,0.00,0.02,30.02,M,0.50,M,VV ,M,M,M,800.00,M,M,M,SN FZFG,KVSF 010105Z AUTO 00000KT 1/2SM SN FZFG VV008 A3002 RMK P0002 MADISHF
VSF,2017-04-01 01:10,-72.5173,43.3436,M,M,M,0.00,0.00,0.03,30.02,M,0.50,M,VV ,M,M,M,800.00,M,M,M,SN FZFG,KVSF 010110Z AUTO 00000KT 1/2SM SN FZFG VV008 A3002 RMK P0003 MADISHF
VSF,2017-04-01 01:15,-72.5173,43.3436,M,M,M,0.00,0.00,0.04,30.01,M,0.50,M,VV ,M,M,M,800.00,M,M,M,SN FZFG,KVSF 010115Z AUTO 00000KT 1/2SM SN FZFG VV008 A3001 RMK P0004 MADISHF
VSF,2017-04-01 01:20,-72.5173,43.3436,M,M,M,0.00,0.00,0.05,30.01,M,0.50,M,VV ,M,M,M,800.00,M,M,M,SN FZFG,KVSF 010120Z AUTO 00000KT 1/2SM SN FZFG VV008 A3001 RMK P0005 MADISHF
VSF,2017-04-01 01:25,-72.5173,43.3436,M,M,M,0.00,0.00,0.06,30.01,M,0.50,M,VV ,M,M,M,800.00,M,M,M,SN FZFG,KVSF 010125Z AUTO 00000KT 1/2SM SN FZFG VV008 A3001 RMK P0006 MADISHF
VSF,2017-04-01 01:30,-72.5173,43.3436,M,M,M,340.00,3.00,0.07,30.01,M,0.75,M,VV ,M,M,M,900.00,M,M,M,-SN BR,KVSF 010130Z AUTO 34003KT 1SM -SN BR VV009 A3001 RMK P0007 MADISHF
VSF,2017-04-01 01:35,-72.5173,43.3436,M,M,M,360.00,3.00,0.08,30.01,M,0.75,M,VV ,M,M,M,900.00,M,M,M,-SN BR,KVSF 010135Z AUTO 36003KT 1SM -SN BR VV009 A3001 RMK P0008 MADISHF
VSF,2017-04-01 01:40,-72.5173,43.3436,M,M,M,30.00,3.00,0.08,30.00,M,0.75,M,VV ,M,M,M,900.00,M,M,M,-SN BR,KVSF 010140Z AUTO 03003KT 1SM -SN BR VV009 A3000 RMK P0008 MADISHF
VSF,2017-04-01 01:45,-72.5173,43.3436,M,M,M,30.00,3.00,0.09,30.00,M,0.75,M,VV ,M,M,M,999.00,M,M,M,-SN BR,KVSF 010145Z AUTO 03003KT 1SM -SN BR VV009 A3000 RMK P0009 VRB03KT  MADISHF
VSF,2017-04-01 01:50,-72.5173,43.3436,30.20,28.40,92.92,20.00,3.00,0.10,30.00,M,0.75,M,VV ,M,M,M,1000.00,M,M,M,-SN BR,KVSF 010150Z AUTO 02003KT 3/4SM -SN BR VV010 M01/M02 A3000 RMK AO2 P0010
VSF,2017-04-01 01:54,-72.5173,43.3436,30.90,28.00,88.84,30.00,3.00,0.11,30.00,1016.60,0.75,M,VV ,M,M,M,1000.00,M,M,M,-SN BR,KVSF 010154Z AUTO 03003KT 3/4SM -SN BR VV010 M01/M02 A3000 RMK AO2 SLP166 P0011 T10061022
VSF,2017-04-01 01:55,-72.5173,43.3436,M,M,M,30.00,3.00,M,30.00,M,0.75,M,VV ,M,M,M,999.00,M,M,M,-SN BR,KVSF 010155Z AUTO 03003KT 1SM -SN BR VV009 A3000 RMK MADISHF
VSF,2017-04-01 02:00,-72.5173,43.3436,M,M,M,20.00,4.00,0.01,30.00,M,0.50,M,VV ,M,M,M,900.00,M,M,M,SN FZFG,KVSF 010200Z AUTO 02004KT 1/2SM SN FZFG VV009 A3000 RMK P0001 VRB04KT  MADISHF
VSF,2017-04-01 02:05,-72.5173,43.3436,M,M,M,20.00,3.00,0.01,30.00,M,0.75,M,VV ,M,M,M,999.00,M,M,M,-SN BR,KVSF 010205Z AUTO 02003KT 1SM -SN BR VV009 A3000 RMK P0001 VRB03KT  MADISHF
VSF,2017-04-01 02:10,-72.5173,43.3436,M,M,M,10.00,4.00,0.02,30.00,M,0.75,M,VV ,M,M,M,1100.00,M,M,M,-SN BR,KVSF 010210Z AUTO 01004KT 1SM -SN BR VV011 A3000 RMK P0002 MADISHF
VSF,2017-04-01 02:15,-72.5173,43.3436,M,M,M,30.00,4.00,0.03,29.99,M,0.75,M,VV ,M,M,M,1100.00,M,M,M,-SN BR,KVSF 010215Z AUTO 03004KT 1SM -SN BR VV011 A2999 RMK P0003 VRB04KT  MADISHF
VSF,2017-04-01 02:20,-72.5173,43.3436,M,M,M,30.00,3.00,0.03,29.99,M,0.75,M,VV ,M,M,M,1100.00,M,M,M,-SN BR,KVSF 010220Z AUTO 03003KT 1SM -SN BR VV011 A2999 RMK P0003 MADISHF
VSF,2017-04-01 02:25,-72.5173,43.3436,M,M,M,40.00,5.00,0.04,29.99,M,0.75,M,VV ,M,M,M,1200.00,M,M,M,-SN BR,KVSF 010225Z AUTO 04005KT 1SM -SN BR VV012 A2999 RMK P0004 MADISHF
VSF,2017-04-01 02:30,-72.5173,43.3436,M,M,M,40.00,5.00,0.05,29.99,M,0.75,M,VV ,M,M,M,1300.00,M,M,M,-SN BR,KVSF 010230Z AUTO 04005KT 1SM -SN BR VV013 A2999 RMK P0005 MADISHF
VSF,2017-04-01 02:35,-72.5173,43.3436,M,M,M,40.00,4.00,0.06,29.99,M,1.00,M,FEW,BKN,OVC,M,999.00,1300.00,2600.00,M,-SN BR,KVSF 010235Z AUTO 04004KT 1SM -SN BR FEW009 BKN013 OVC026 A2999 RMK P0006 MADISHF
VSF,2017-04-01 02:37,-72.5173,43.3436,30.00,27.00,88.44,30.00,4.00,0.06,29.99,M,1.25,M,FEW,BKN,OVC,M,1000.00,1300.00,2600.00,M,-SN BR,KVSF 010237Z AUTO 03004KT 1 1/4SM -SN BR FEW010 BKN013 OVC026 M01/M03 A2999 RMK AO2 P0006 T10111028
VSF,2017-04-01 02:40,-72.5173,43.3436,M,M,M,30.00,3.00,0.06,29.99,M,1.25,M,FEW,BKN,OVC,M,999.00,1300.00,2400.00,M,-SN BR,KVSF 010240Z AUTO 03003KT 1 1/2SM -SN BR FEW009 BKN013 OVC024 A2999 RMK P0006 MADISHF
VSF,2017-04-01 02:45,-72.5173,43.3436,M,M,M,40.00,5.00,0.07,29.99,M,1.25,M,BKN,OVC,M,M,1699.00,2600.00,M,M,-SN BR,KVSF 010245Z AUTO 04005KT 1 1/2SM -SN BR BKN016 OVC026 A2999 RMK P0007 MADISHF
VSF,2017-04-01 02:47,-72.5173,43.3436,30.00,27.00,88.44,40.00,4.00,0.07,29.99,M,1.25,M,FEW,BKN,OVC,M,1100.00,1700.00,2600.00,M,-SN BR,KVSF 010247Z AUTO 04004KT 1 1/4SM -SN BR FEW011 BKN017 OVC026 M01/M03 A2999 RMK AO2 P0007 T10111028
VSF,2017-04-01 02:50,-72.5173,43.3436,M,M,M,30.00,3.00,0.08,29.99,M,1.25,M,BKN,OVC,M,M,1699.00,2400.00,M,M,-SN BR,KVSF 010250Z AUTO 03003KT 1 1/2SM -SN BR BKN016 OVC024 A2999 RMK P0008 MADISHF
VSF,2017-04-01 02:54,-72.5173,43.3436,30.00,27.00,88.44,50.00,6.00,0.09,29.99,1016.20,1.00,M,BKN,OVC,M,M,1500.00,2400.00,M,M,-SN BR,KVSF 010254Z AUTO 05006KT 1SM -SN BR BKN015 OVC024 M01/M03 A2999 RMK AO2 SLP162 P0009 60030 T10111028 56012
VSF,2017-04-01 02:55,-72.5173,43.3436,M,M,M,40.00,5.00,M,M,M,1.00,M,BKN,OVC,M,M,1500.00,2400.00,M,M,-SN BR,KVSF 010255Z AUTO 04005KT 1SM -SN BR BKN015 OVC024 RMK MADISHF
VSF,2017-04-01 03:00,-72.5173,43.3436,M,M,M,30.00,3.00,0.01,29.99,M,1.00,M,BKN,OVC,M,M,1900.00,2700.00,M,M,-SN BR,KVSF 010300Z AUTO 03003KT 1SM -SN BR BKN019 OVC027 A2999 RMK P0001 MADISHF
VSF,2017-04-01 03:05,-72.5173,43.3436,M,M,M,30.00,4.00,0.02,29.98,M,1.50,M,BKN,OVC,M,M,2300.00,2900.00,M,M,-SN BR,KVSF 010305Z AUTO 03004KT 1 1/2SM -SN BR BKN023 OVC029 A2998 RMK P0002 MADISHF
VSF,2017-04-01 03:10,-72.5173,43.3436,M,M,M,20.00,3.00,0.02,29.98,M,2.00,M,BKN,OVC,M,M,2300.00,2900.00,M,M,-SN BR,KVSF 010310Z AUTO 02003KT 2SM -SN BR BKN023 OVC029 A2998 RMK P0002 VRB03KT  MADISHF
VSF,2017-04-01 03:15,-72.5173,43.3436,M,M,M,20.00,3.00,0.03,29.98,M,1.75,M,BKN,OVC,M,M,2100.00,2900.00,M,M,-SN BR,KVSF 010315Z AUTO 02003KT 2SM -SN BR BKN021 OVC029 A2998 RMK P0003 MADISHF
VSF,2017-04-01 03:20,-72.5173,43.3436,M,M,M,20.00,4.00,0.03,29.98,M,1.50,M,BKN,OVC,M,M,2100.00,2900.00,M,M,-SN BR,KVSF 010320Z AUTO 02004KT 1 1/2SM -SN BR BKN021 OVC029 A2998 RMK P0003 MADISHF
VSF,2017-04-01 03:25,-72.5173,43.3436,M,M,M,30.00,3.00,0.04,29.98,M,1.25,M,BKN,OVC,M,M,2100.00,2900.00,M,M,-SN BR,KVSF 010325Z AUTO 03003KT 1 1/2SM -SN BR BKN021 OVC029 A2998 RMK P0004 VRB03KT  MADISHF
VSF,2017-04-01 03:30,-72.5173,43.3436,M,M,M,30.00,3.00,0.05,29.97,M,1.00,M,VV ,M,M,M,1800.00,M,M,M,-SN BR,KVSF 010330Z AUTO 03003KT 1SM -SN BR VV018 A2997 RMK P0005 MADISHF
VSF,2017-04-01 03:35,-72.5173,43.3436,M,M,M,40.00,3.00,0.05,29.97,M,1.00,M,VV ,M,M,M,1600.00,M,M,M,-SN BR,KVSF 010335Z AUTO 04003KT 1SM -SN BR VV016 A2997 RMK P0005 MADISHF
VSF,2017-04-01 03:39,-72.5173,43.3436,30.00,27.00,88.44,M,3.00,0.06,29.97,M,0.75,M,VV ,M,M,M,1400.00,M,M,M,-SN BR,KVSF 010339Z AUTO VRB03KT 3/4SM -SN BR VV014 M01/M03 A2997 RMK AO2 P0006 T10111028
VSF,2017-04-01 03:40,-72.5173,43.3436,M,M,M,20.00,4.00,0.06,29.97,M,0.75,M,VV ,M,M,M,1400.00,M,M,M,-SN BR,KVSF 010340Z AUTO 02004KT 1SM -SN BR VV014 A2997 RMK P0006 MADISHF
VSF,2017-04-01 03:45,-72.5173,43.3436,M,M,M,30.00,4.00,0.07,29.96,M,0.75,M,VV ,M,M,M,1200.00,M,M,M,-SN BR,KVSF 010345Z AUTO 03004KT 1SM -SN BR VV012 A2996 RMK P0007 MADISHF
VSF,2017-04-01 03:50,-72.5173,43.3436,M,M,M,20.00,4.00,0.08,29.96,M,0.75,M,VV ,M,M,M,1100.00,M,M,M,-SN BR,KVSF 010350Z AUTO 02004KT 1SM -SN BR VV011 A2996 RMK P0008 MADISHF
VSF,2017-04-01 03:54,-72.5173,43.3436,30.00,27.00,88.44,M,5.00,0.09,29.96,1015.20,0.75,M,VV ,M,M,M,1000.00,M,M,M,-SN BR,KVSF 010354Z AUTO VRB05KT 3/4SM -SN BR VV010 M01/M03 A2996 RMK AO2 SLP152 P0009 T10111028
VSF,2017-04-01 03:55,-72.5173,43.3436,M,M,M,20.00,5.00,M,29.96,M,0.75,M,VV ,M,M,M,999.00,M,M,M,-SN BR,KVSF 010355Z AUTO 02005KT 1SM -SN BR VV009 A2996 RMK VRB05KT  MADISHF
VSF,2017-04-01 04:00,-72.5173,43.3436,M,M,M,40.00,4.00,0.01,29.96,M,0.50,M,VV ,M,M,M,999.00,M,M,M,SN FZFG,KVSF 010400Z AUTO 04004KT 1/2SM SN FZFG VV009 A2996 RMK P0001 VRB04KT  MADISHF
VSF,2017-04-01 04:05,-72.5173,43.3436,M,M,M,30.00,4.00,0.02,29.96,M,0.50,M,VV ,M,M,M,900.00,M,M,M,SN FZFG,KVSF 010405Z AUTO 03004KT 1/2SM SN FZFG VV009 A2996 RMK P0002 MADISHF
VSF,2017-04-01 04:07,-72.5173,43.3436,30.00,27.00,88.44,M,3.00,0.03,29.96,M,0.50,M,VV ,M,M,M,800.00,M,M,M,SN FZFG,KVSF 010407Z AUTO VRB03KT 1/2SM SN FZFG VV008 M01/M03 A2996 RMK AO2 P0003 T10111028
VSF,2017-04-01 04:10,-72.5173,43.3436,M,M,M,30.00,4.00,0.03,29.96,M,0.50,M,VV ,M,M,M,800.00,M,M,M,SN FZFG,KVSF 010410Z AUTO 03004KT 1/2SM SN FZFG VV008 A2996 RMK P0003 MADISHF
VSF,2017-04-01 04:15,-72.5173,43.3436,M,M,M,40.00,3.00,0.05,29.96,M,0.50,M,VV ,M,M,M,800.00,M,M,M,SN FZFG,KVSF 010415Z AUTO 04003KT 1/2SM SN FZFG VV008 A2996 RMK P0005 MADISHF
VSF,2017-04-01 04:20,-72.5173,43.3436,M,M,M,30.00,4.00,0.06,29.96,M,0.50,M,VV ,M,M,M,700.00,M,M,M,SN FZFG,KVSF 010420Z AUTO 03004KT 1/2SM SN FZFG VV007 A2996 RMK P0006 VRB04KT  MADISHF
VSF,2017-04-01 04:25,-72.5173,43.3436,M,M,M,10.00,3.00,0.07,29.95,M,0.50,M,VV ,M,M,M,800.00,M,M,M,SN FZFG,KVSF 010425Z AUTO 01003KT 1/2SM SN FZFG VV008 A2995 RMK P0007 MADISHF
VSF,2017-04-01 04:30,-72.5173,43.3436,M,M,M,350.00,3.00,0.08,29.95,M,0.75,M,BKN,OVC,M,M,999.00,3100.00,M,M,-SN BR,KVSF 010430Z AUTO 35003KT 1SM -SN BR BKN009 OVC031 A2995 RMK P0008 MADISHF
VSF,2017-04-01 04:31,-72.5173,43.3436,30.00,27.00,88.44,360.00,3.00,0.08,29.95,M,1.00,M,BKN,OVC,M,M,1000.00,3100.00,M,M,-SN BR,KVSF 010431Z AUTO 36003KT 1SM -SN BR BKN010 OVC031 M01/M03 A2995 RMK AO2 P0008 T10111028
VSF,2017-04-01 04:35,-72.5173,43.3436,M,M,M,360.00,3.00,0.08,29.95,M,1.50,M,BKN,OVC,M,M,1200.00,3100.00,M,M,-SN BR,KVSF 010435Z AUTO 36003KT 1 1/2SM -SN BR BKN012 OVC031 A2995 RMK P0008 VRB03KT  MADISHF
VSF,2017-04-01 04:40,-72.5173,43.3436,M,M,M,10.00,3.00,0.09,29.94,M,1.75,M,BKN,OVC,M,M,1600.00,3100.00,M,M,-SN BR,KVSF 010440Z AUTO 01003KT 2SM -SN BR BKN016 OVC031 A2994 RMK P0009 MADISHF
VSF,2017-04-01 04:45,-72.5173,43.3436,M,M,M,30.00,3.00,0.09,29.94,M,1.75,M,BKN,OVC,M,M,1800.00,3100.00,M,M,-SN BR,KVSF 010445Z AUTO 03003KT 2SM -SN BR BKN018 OVC031 A2994 RMK P0009 MADISHF
VSF,2017-04-01 04:46,-72.5173,43.3436,30.00,27.00,88.44,20.00,3.00,0.09,29.94,M,1.75,M,BKN,OVC,M,M,1800.00,3100.00,M,M,-SN BR,KVSF 010446Z AUTO 02003KT 1 3/4SM -SN BR BKN018 OVC031 M01/M03 A2994 RMK AO2 P0009 T10111028
VSF,2017-04-01 04:50,-72.5173,43.3436,M,M,M,360.00,3.00,0.10,29.94,M,1.75,M,BKN,OVC,M,M,1999.00,3100.00,M,M,-SN BR,KVSF 010450Z AUTO 36003KT 2SM -SN BR BKN019 OVC031 A2994 RMK P0010 MADISHF
VSF,2017-04-01 04:54,-72.5173,43.3436,30.00,27.00,88.44,10.00,3.00,0.10,29.94,1014.50,1.50,M,BKN,OVC,M,M,2000.00,3100.00,M,M,-SN BR,KVSF 010454Z AUTO 01003KT 1 1/2SM -SN BR BKN020 OVC031 M01/M03 A2994 RMK AO2 SLP145 P0010 T10111028 400171011
VSF,2017-04-01 04:55,-72.5173,43.3436,M,M,M,20.00,3.00,M,29.94,M,1.50,M,BKN,OVC,M,M,1999.00,3100.00,M,M,-SN BR,KVSF 010455Z AUTO 02003KT 1 1/2SM -SN BR BKN019 OVC031 A2994 RMK MADISHF
VSF,2017-04-01 05:00,-72.5173,43.3436,M,M,M,20.00,3.00,0.01,29.94,M,1.25,M,BKN,OVC,M,M,1800.00,2900.00,M,M,-SN BR,KVSF 010500Z AUTO 02003KT 1 1/2SM -SN BR BKN018 OVC029 A2994 RMK P0001 VRB03KT  MADISHF
VSF,2017-04-01 05:05,-72.5173,43.3436,M,M,M,30.00,4.00,0.01,29.93,M,1.00,M,VV ,M,M,M,1699.00,M,M,M,-SN BR,KVSF 010505Z AUTO 03004KT 1SM -SN BR VV016 A2993 RMK P0001 MADISHF
VSF,2017-04-01 05:10,-72.5173,43.3436,M,M,M,20.00,3.00,0.02,29.93,M,1.00,M,VV ,M,M,M,1600.00,M,M,M,-SN BR,KVSF 010510Z AUTO 02003KT 1SM -SN BR VV016 A2993 RMK P0002 VRB03KT  MADISHF
VSF,2017-04-01 05:15,-72.5173,43.3436,M,M,M,40.00,4.00,0.03,29.93,M,1.00,M,VV ,M,M,M,1500.00,M,M,M,-SN BR,KVSF 010515Z AUTO 04004KT 1SM -SN BR VV015 A2993 RMK P0003 MADISHF
VSF,2017-04-01 05:20,-72.5173,43.3436,30.00,27.00,88.44,40.00,3.00,0.04,29.93,M,0.75,M,VV ,M,M,M,1300.00,M,M,M,-SN BR,KVSF 010520Z AUTO 04003KT 3/4SM -SN BR VV013 M01/M03 A2993 RMK AO2 P0004 T10111028
VSF,2017-04-01 05:25,-72.5173,43.3436,M,M,M,20.00,3.00,0.06,29.93,M,0.75,M,VV ,M,M,M,1200.00,M,M,M,-SN BR,KVSF 010525Z AUTO 02003KT 1SM -SN BR VV012 A2993 RMK P0006 VRB03KT  MADISHF
VSF,2017-04-01 05:30,-72.5173,43.3436,M,M,M,360.00,3.00,0.07,29.92,M,0.75,M,VV ,M,M,M,1200.00,M,M,M,-SN BR,KVSF 010530Z AUTO 36003KT 1SM -SN BR VV012 A2992 RMK P0007 MADISHF
VSF,2017-04-01 05:35,-72.5173,43.3436,M,M,M,20.00,3.00,0.08,29.92,M,1.00,M,VV ,M,M,M,1300.00,M,M,M,-SN BR,KVSF 010535Z AUTO 02003KT 1SM -SN BR VV013 A2992 RMK P0008 MADISHF
VSF,2017-04-01 05:40,-72.5173,43.3436,M,M,M,0.00,0.00,0.09,29.92,M,1.00,M,VV ,M,M,M,1300.00,M,M,M,-SN BR,KVSF 010540Z AUTO 00000KT 1SM -SN BR VV013 A2992 RMK P0009 MADISHF
VSF,2017-04-01 05:41,-72.5173,43.3436,30.00,28.00,92.15,0.00,0.00,0.09,29.92,M,1.00,M,VV ,M,M,M,1300.00,M,M,M,-SN BR,KVSF 010541Z AUTO 00000KT 1SM -SN BR VV013 M01/M02 A2992 RMK AO2 P0009 T10111022
VSF,2017-04-01 05:45,-72.5173,43.3436,M,M,M,10.00,3.00,0.10,29.92,M,1.25,M,OVC,M,M,M,1400.00,M,M,M,-SN BR,KVSF 010545Z AUTO 01003KT 1 1/2SM -SN BR OVC014 A2992 RMK P0010 VRB03KT  MADISHF
VSF,2017-04-01 05:50,-72.5173,43.3436,M,M,M,10.00,3.00,0.10,29.92,M,1.50,M,OVC,M,M,M,1600.00,M,M,M,-SN BR,KVSF 010550Z AUTO 01003KT 1 1/2SM -SN BR OVC016 A2992 RMK P0010 MADISHF
VSF,2017-04-01 05:54,-72.5173,43.3436,30.90,28.00,88.84,360.00,3.00,0.11,29.92,1013.80,1.50,M,OVC,M,M,M,1600.00,M,M,M,-SN BR,KVSF 010554Z AUTO 36003KT 1 1/2SM -SN BR OVC016 M01/M02 A2992 RMK AO2 SLP138 P0011 60060 T10061022 11006 21011 56023
VSF,2017-04-01 05:55,-72.5173,43.3436,M,M,M,0.00,0.00,M,29.92,M,1.50,M,OVC,M,M,M,1600.00,M,M,M,-SN BR,KVSF 010555Z AUTO 00000KT 1 1/2SM -SN BR OVC016 A2992 RMK MADISHF
VSF,2017-04-01 06:00,-72.5173,43.3436,M,M,M,10.00,3.00,0.01,29.92,M,1.50,M,OVC,M,M,M,1600.00,M,M,M,-SN BR,KVSF 010600Z AUTO 01003KT 1 1/2SM -SN BR OVC016 A2992 RMK P0001 VRB03KT  MADISHF
VSF,2017-04-01 06:05,-72.5173,43.3436,M,M,M,20.00,3.00,0.02,29.91,M,1.25,M,OVC,M,M,M,1600.00,M,M,M,-SN BR,KVSF 010605Z AUTO 02003KT 1 1/2SM -SN BR OVC016 A2991 RMK P0002 MADISHF
VSF,2017-04-01 06:10,-72.5173,43.3436,M,M,M,10.00,3.00,0.03,29.91,M,1.25,M,OVC,M,M,M,1600.00,M,M,M,-SN BR,KVSF 010610Z AUTO 01003KT 1 1/2SM -SN BR OVC016 A2991 RMK P0003 MADISHF
VSF,2017-04-01 06:15,-72.5173,43.3436,30.90,28.00,88.84,30.00,3.00,0.04,29.91,M,0.75,M,VV ,M,M,M,1400.00,M,M,M,-SN BR,KVSF 010615Z AUTO 03003KT 3/4SM -SN BR VV014 M01/M02 A2991 RMK AO2 P0004 T10061022
VSF,2017-04-01 06:20,-72.5173,43.3436,M,M,M,10.00,3.00,0.05,29.91,M,0.75,M,FEW,OVC,M,M,600.00,1200.00,M,M,-SN BR,KVSF 010620Z AUTO 01003KT 1SM -SN BR FEW006 OVC012 A2991 RMK P0005 MADISHF
VSF,2017-04-01 06:25,-72.5173,43.3436,30.90,28.00,88.84,10.00,3.00,0.06,29.91,M,0.75,M,FEW,OVC,M,M,600.00,1200.00,M,M,-SN BR,KVSF 010625Z AUTO 01003KT 3/4SM -SN BR FEW006 OVC012 M01/M02 A2991 RMK AO2 P0006 T10061022
VSF,2017-04-01 06:30,-72.5173,43.3436,M,M,M,20.00,3.00,0.07,29.91,M,0.75,M,FEW,OVC,M,M,600.00,999.00,M,M,-SN BR,KVSF 010630Z AUTO 02003KT 1SM -SN BR FEW006 OVC009 A2991 RMK P0007 VRB03KT  MADISHF
VSF,2017-04-01 06:35,-72.5173,43.3436,M,M,M,20.00,4.00,0.08,29.90,M,0.75,M,VV ,M,M,M,900.00,M,M,M,-SN BR,KVSF 010635Z AUTO 02004KT 1SM -SN BR VV009 A2990 RMK P0008 MADISHF
VSF,2017-04-01 06:40,-72.5173,43.3436,30.90,28.00,88.84,0.00,0.00,0.09,29.90,M,0.75,M,VV ,M,M,M,900.00,M,M,M,-SN BR,KVSF 010640Z AUTO 00000KT 3/4SM -SN BR VV009 M01/M02 A2990 RMK AO2 P0009 T10061022
VSF,2017-04-01 06:45,-72.5173,43.3436,M,M,M,50.00,3.00,0.09,29.91,M,0.75,M,VV ,M,M,M,999.00,M,M,M,-SN BR,KVSF 010645Z AUTO 05003KT 1SM -SN BR VV009 A2991 RMK P0009 MADISHF
VSF,2017-04-01 06:47,-72.5173,43.3436,30.90,28.00,88.84,30.00,4.00,0.10,29.90,M,1.00,M,FEW,OVC,M,M,700.00,1100.00,M,M,-SN BR,KVSF 010647Z AUTO 03004KT 1SM -SN BR FEW007 OVC011 M01/M02 A2990 RMK AO2 P0010 T10061022
VSF,2017-04-01 06:50,-72.5173,43.3436,M,M,M,10.00,3.00,0.10,29.90,M,1.00,M,FEW,OVC,M,M,700.00,1100.00,M,M,-SN BR,KVSF 010650Z AUTO 01003KT 1SM -SN BR FEW007 OVC011 A2990 RMK P0010 VRB03KT  MADISHF
VSF,2017-04-01 06:54,-72.5173,43.3436,30.90,28.00,88.84,M,3.00,0.11,29.90,1013.30,1.00,M,FEW,OVC,M,M,700.00,1100.00,M,M,-SN BR,KVSF 010654Z AUTO VRB03KT 1SM -SN BR FEW007 OVC011 M01/M02 A2990 RMK AO2 SLP133 P0011 T10061022
VSF,2017-04-01 06:55,-72.5173,43.3436,M,M,M,360.00,3.00,M,29.90,M,1.00,M,FEW,OVC,M,M,700.00,1100.00,M,M,-SN BR,KVSF 010655Z AUTO 36003KT 1SM -SN BR FEW007 OVC011 A2990 RMK MADISHF
VSF,2017-04-01 07:00,-72.5173,43.3436,M,M,M,20.00,3.00,0.01,29.90,M,1.00,M,VV ,M,M,M,1100.00,M,M,M,-SN BR,KVSF 010700Z AUTO 02003KT 1SM -SN BR VV011 A2990 RMK P0001 MADISHF
VSF,2017-04-01 07:05,-72.5173,43.3436,M,M,M,30.00,4.00,0.01,29.90,M,1.00,M,VV ,M,M,M,1200.00,M,M,M,-SN BR,KVSF 010705Z AUTO 03004KT 1SM -SN BR VV012 A2990 RMK P0001 VRB04KT  MADISHF
VSF,2017-04-01 07:10,-72.5173,43.3436,M,M,M,30.00,3.00,0.02,29.90,M,1.00,M,VV ,M,M,M,1300.00,M,M,M,-SN BR,KVSF 010710Z AUTO 03003KT 1SM -SN BR VV013 A2990 RMK P0002 VRB03KT  MADISHF
VSF,2017-04-01 07:15,-72.5173,43.3436,M,M,M,40.00,3.00,0.02,29.90,M,1.00,M,VV ,M,M,M,1200.00,M,M,M,-SN BR,KVSF 010715Z AUTO 04003KT 1SM -SN BR VV012 A2990 RMK P0002 MADISHF
VSF,2017-04-01 07:20,-72.5173,43.3436,M,M,M,20.00,3.00,0.03,29.90,M,1.25,M,FEW,OVC,M,M,999.00,1300.00,M,M,-SN BR,KVSF 010720Z AUTO 02003KT 1 1/2SM -SN BR FEW009 OVC013 A2990 RMK P0003 VRB03KT  MADISHF
VSF,2017-04-01 07:25,-72.5173,43.3436,M,M,M,10.00,3.00,0.03,29.89,M,1.50,M,OVC,M,M,M,1500.00,M,M,M,-SN BR,KVSF 010725Z AUTO 01003KT 1 1/2SM -SN BR OVC015 A2989 RMK P0003 VRB03KT  MADISHF
VSF,2017-04-01 07:27,-72.5173,43.3436,30.90,28.00,88.84,M,4.00,0.03,29.89,M,1.50,M,OVC,M,M,M,1500.00,M,M,M,-SN BR,KVSF 010727Z AUTO VRB04KT 1 1/2SM -SN BR OVC015 M01/M02 A2989 RMK AO2 P0003 T10061022
VSF,2017-04-01 07:30,-72.5173,43.3436,M,M,M,20.00,3.00,0.04,29.89,M,1.50,M,OVC,M,M,M,1500.00,M,M,M,-SN BR,KVSF 010730Z AUTO 02003KT 1 1/2SM -SN BR OVC015 A2989 RMK P0004 MADISHF
VSF,2017-04-01 07:35,-72.5173,43.3436,M,M,M,40.00,4.00,0.04,29.89,M,1.25,M,OVC,M,M,M,1500.00,M,M,M,-SN BR,KVSF 010735Z AUTO 04004KT 1 1/2SM -SN BR OVC015 A2989 RMK P0004 MADISHF
VSF,2017-04-01 07:40,-72.5173,43.3436,M,M,M,0.00,0.00,0.05,29.89,M,1.25,M,OVC,M,M,M,1500.00,M,M,M,-SN BR,KVSF 010740Z AUTO 00000KT 1 1/2SM -SN BR OVC015 A2989 RMK P0005 MADISHF
VSF,2017-04-01 07:45,-72.5173,43.3436,M,M,M,20.00,4.00,0.05,29.89,M,1.25,M,OVC,M,M,M,1500.00,M,M,M,-SN BR,KVSF 010745Z AUTO 02004KT 1 1/2SM -SN BR OVC015 A2989 RMK P0005 VRB04KT  MADISHF
VSF,2017-04-01 07:50,-72.5173,43.3436,M,M,M,10.00,4.00,0.06,29.89,M,1.50,M,OVC,M,M,M,1500.00,M,M,M,-SN BR,KVSF 010750Z AUTO 01004KT 1 1/2SM -SN BR OVC015 A2989 RMK P0006 MADISHF
VSF,2017-04-01 07:54,-72.5173,43.3436,30.90,28.00,88.84,360.00,3.00,0.06,29.89,1012.80,1.50,M,OVC,M,M,M,1500.00,M,M,M,-SN BR,KVSF 010754Z AUTO 36003KT 1 1/2SM -SN BR OVC015 M01/M02 A2989 RMK AO2 SLP128 P0006 T10061022
VSF,2017-04-01 07:55,-72.5173,43.3436,M,M,M,20.00,3.00,M,29.89,M,1.50,M,OVC,M,M,M,1500.00,M,M,M,-SN BR,KVSF 010755Z AUTO 02003KT 1 1/2SM -SN BR OVC015 A2989 RMK MADISHF
VSF,2017-04-01 08:00,-72.5173,43.3436,M,M,M,40.00,4.00,M,29.89,M,1.50,M,OVC,M,M,M,1500.00,M,M,M,-SN BR,KVSF 010800Z AUTO 04004KT 1 1/2SM -SN BR OVC015 A2989 RMK MADISHF
VSF,2017-04-01 08:05,-72.5173,43.3436,M,M,M,10.00,4.00,0.01,29.89,M,1.75,M,OVC,M,M,M,1699.00,M,M,M,-SN BR,KVSF 010805Z AUTO 01004KT 2SM -SN BR OVC016 A2989 RMK P0001 MADISHF
VSF,2017-04-01 08:10,-72.5173,43.3436,M,M,M,360.00,3.00,0.01,29.89,M,1.75,M,OVC,M,M,M,1699.00,M,M,M,-SN BR,KVSF 010810Z AUTO 36003KT 2SM -SN BR OVC016 A2989 RMK P0001 VRB03KT  MADISHF
VSF,2017-04-01 08:15,-72.5173,43.3436,M,M,M,30.00,6.00,0.02,29.89,M,1.75,M,OVC,M,M,M,1699.00,M,M,M,-SN BR,KVSF 010815Z AUTO 03006KT 2SM -SN BR OVC016 A2989 RMK P0002 MADISHF
VSF,2017-04-01 08:20,-72.5173,43.3436,M,M,M,60.00,5.00,0.02,29.89,M,2.00,M,FEW,OVC,M,M,1400.00,1900.00,M,M,-SN BR,KVSF 010820Z AUTO 06005KT 2SM -SN BR FEW014 OVC019 A2989 RMK P0002 MADISHF
VSF,2017-04-01 08:24,-72.5173,43.3436,32.00,28.00,84.98,M,5.00,0.02,29.89,M,2.50,M,FEW,OVC,M,M,1400.00,1900.00,M,M,-SN BR,KVSF 010824Z AUTO VRB05KT 2 1/2SM -SN BR FEW014 OVC019 00/M02 A2989 RMK AO2 P0002 T00001022
VSF,2017-04-01 08:25,-72.5173,43.3436,M,M,M,50.00,5.00,0.02,29.89,M,2.50,M,FEW,OVC,M,M,1400.00,1900.00,M,M,-SN BR,KVSF 010825Z AUTO 05005KT 2 1/2SM -SN BR FEW014 OVC019 A2989 RMK P0002 VRB05KT  MADISHF
VSF,2017-04-01 08:30,-72.5173,43.3436,M,M,M,30.00,4.00,0.02,29.89,M,2.50,M,FEW,OVC,M,M,1400.00,1999.00,M,M,-SN BR,KVSF 010830Z AUTO 03004KT 2 1/2SM -SN BR FEW014 OVC019 A2989 RMK P0002 MADISHF
VSF,2017-04-01 08:35,-72.5173,43.3436,M,M,M,40.00,3.00,0.03,29.89,M,2.50,M,FEW,OVC,M,M,1300.00,1999.00,M,M,-SN BR,KVSF 010835Z AUTO 04003KT 2 1/2SM -SN BR FEW013 OVC019 A2989 RMK P0003 MADISHF
VSF,2017-04-01 08:40,-72.5173,43.3436,M,M,M,0.00,0.00,0.03,29.89,M,2.00,M,OVC,M,M,M,1999.00,M,M,M,-SN BR,KVSF 010840Z AUTO 00000KT 2SM -SN BR OVC019 A2989 RMK P0003 MADISHF
VSF,2017-04-01 08:45,-72.5173,43.3436,M,M,M,0.00,0.00,0.03,29.89,M,1.75,M,FEW,OVC,M,M,1500.00,1999.00,M,M,-SN BR,KVSF 010845Z AUTO 00000KT 2SM -SN BR FEW015 OVC019 A2989 RMK P0003 MADISHF
VSF,2017-04-01 08:50,-72.5173,43.3436,M,M,M,0.00,0.00,0.04,29.89,M,1.75,M,OVC,M,M,M,1800.00,M,M,M,-SN BR,KVSF 010850Z AUTO 00000KT 2SM -SN BR OVC018 A2989 RMK P0004 MADISHF
VSF,2017-04-01 08:51,-72.5173,43.3436,30.20,28.40,92.92,360.00,3.00,0.04,29.89,M,1.75,M,OVC,M,M,M,1800.00,M,M,M,-SN BR,KVSF 010851Z AUTO 36003KT 1 3/4SM -SN BR OVC018 M01/M02 A2989 RMK AO2 P0004
VSF,2017-04-01 08:54,-72.5173,43.3436,30.90,28.90,92.18,10.00,3.00,0.04,29.89,1012.80,1.75,M,SCT,OVC,M,M,1300.00,1800.00,M,M,-SN BR,KVSF 010854Z AUTO 01003KT 1 3/4SM -SN BR SCT013 OVC018 M01/M02 A2989 RMK AO2 SLP128 P0004 60021 T10061017 56005
VSF,2017-04-01 08:55,-72.5173,43.3436,M,M,M,0.00,0.00,M,29.89,M,1.75,M,FEW,OVC,M,M,999.00,1800.00,M,M,-SN BR,KVSF 010855Z AUTO 00000KT 2SM -SN BR FEW009 OVC018 A2989 RMK MADISHF
VSF,2017-04-01 09:00,-72.5173,43.3436,M,M,M,10.00,3.00,M,29.89,M,1.50,M,OVC,M,M,M,1600.00,M,M,M,-SN BR,KVSF 010900Z AUTO 01003KT 1 1/2SM -SN BR OVC016 A2989 RMK MADISHF
VSF,2017-04-01 09:05,-72.5173,43.3436,M,M,M,360.00,4.00,M,29.89,M,1.50,M,OVC,M,M,M,1600.00,M,M,M,-SN BR,KVSF 010905Z AUTO 36004KT 1 1/2SM -SN BR OVC016 A2989 RMK MADISHF
VSF,2017-04-01 09:10,-72.5173,43.3436,M,M,M,350.00,4.00,0.01,29.89,M,1.75,M,FEW,OVC,M,M,999.00,1600.00,M,M,-SN BR,KVSF 010910Z AUTO 35004KT 2SM -SN BR FEW009 OVC016 A2989 RMK P0001 MADISHF
VSF,2017-04-01 09:15,-72.5173,43.3436,M,M,M,20.00,5.00,0.01,29.89,M,2.00,M,SCT,OVC,M,M,1200.00,1600.00,M,M,-SN BR,KVSF 010915Z AUTO 02005KT 2SM -SN BR SCT012 OVC016 A2989 RMK P0001 MADISHF
VSF,2017-04-01 09:18,-72.5173,43.3436,32.00,28.00,84.98,M,3.00,0.01,29.89,M,2.00,M,SCT,OVC,M,M,1200.00,1600.00,M,M,-SN BR,KVSF 010918Z AUTO VRB03KT 2SM -SN BR SCT012 OVC016 00/M02 A2989 RMK AO2 P0001 T00001022
VSF,2017-04-01 09:20,-72.5173,43.3436,M,M,M,50.00,3.00,0.01,29.89,M,2.00,M,SCT,OVC,M,M,1200.00,1600.00,M,M,-SN BR,KVSF 010920Z AUTO 05003KT 2SM -SN BR SCT012 OVC016 A2989 RMK P0001 MADISHF
VSF,2017-04-01 09:25,-72.5173,43.3436,M,M,M,40.00,3.00,0.01,29.89,M,2.00,M,SCT,OVC,M,M,999.00,1699.00,M,M,-SN BR,KVSF 010925Z AUTO 04003KT 2SM -SN BR SCT009 OVC016 A2989 RMK P0001 VRB03KT  MADISHF
VSF,2017-04-01 09:30,-72.5173,43.3436,M,M,M,360.00,4.00,0.02,29.89,M,2.00,M,FEW,OVC,M,M,999.00,1699.00,M,M,-SN BR,KVSF 010930Z AUTO 36004KT 2SM -SN BR FEW009 OVC016 A2989 RMK P0002 VRB04KT  MADISHF
VSF,2017-04-01 09:35,-72.5173,43.3436,M,M,M,10.00,3.00,0.02,29.89,M,2.50,M,FEW,OVC,M,M,999.00,1900.00,M,M,-SN BR,KVSF 010935Z AUTO 01003KT 2 1/2SM -SN BR FEW009 OVC019 A2989 RMK P0002 MADISHF
VSF,2017-04-01 09:40,-72.5173,43.3436,M,M,M,350.00,5.00,0.02,29.89,M,2.50,M,FEW,OVC,M,M,999.00,1900.00,M,M,-SN BR,KVSF 010940Z AUTO 35005KT 2 1/2SM -SN BR FEW009 OVC019 A2989 RMK P0002 MADISHF
VSF,2017-04-01 09:45,-72.5173,43.3436,M,M,M,350.00,5.00,0.02,29.89,M,2.00,M,FEW,OVC,M,M,999.00,1900.00,M,M,-SN BR,KVSF 010945Z AUTO 35005KT 2SM -SN BR FEW009 OVC019 A2989 RMK P0002 MADISHF
VSF,2017-04-01 09:50,-72.5173,43.3436,M,M,M,340.00,3.00,0.02,29.89,M,2.00,M,SCT,OVC,M,M,1300.00,1900.00,M,M,-SN BR,KVSF 010950Z AUTO 34003KT 2SM -SN BR SCT013 OVC019 A2989 RMK P0002 MADISHF
VSF,2017-04-01 09:54,-72.5173,43.3436,30.90,28.00,88.84,M,5.00,0.02,29.89,1012.90,2.00,M,OVC,M,M,M,1700.00,M,M,M,-SN BR,KVSF 010954Z AUTO VRB05KT 2SM -SN BR OVC017 M01/M02 A2989 RMK AO2 SLP129 P0002 T10061022
VSF,2017-04-01 09:55,-72.5173,43.3436,M,M,M,360.00,4.00,M,29.89,M,2.00,M,OVC,M,M,M,1699.00,M,M,M,-SN BR,KVSF 010955Z AUTO 36004KT 2SM -SN BR OVC016 A2989 RMK VRB04KT  MADISHF
VSF,2017-04-01 10:00,-72.5173,43.3436,M,M,M,10.00,3.00,M,29.89,M,2.00,M,FEW,OVC,M,M,1400.00,1900.00,M,M,-SN BR,KVSF 011000Z AUTO 01003KT 2SM -SN BR FEW014 OVC019 A2989 RMK MADISHF
VSF,2017-04-01 10:05,-72.5173,43.3436,M,M,M,360.00,3.00,0.01,29.89,M,2.00,M,BKN,OVC,M,M,1699.00,2300.00,M,M,-SN BR,KVSF 011005Z AUTO 36003KT 2SM -SN BR BKN016 OVC023 A2989 RMK P0001 MADISHF
VSF,2017-04-01 10:10,-72.5173,43.3436,M,M,M,360.00,3.00,0.01,29.90,M,2.00,M,BKN,OVC,M,M,1500.00,2100.00,M,M,-SN BR,KVSF 011010Z AUTO 36003KT 2SM -SN BR BKN015 OVC021 A2990 RMK P0001 VRB03KT  MADISHF
VSF,2017-04-01 10:15,-72.5173,43.3436,M,M,M,340.00,4.00,0.02,29.90,M,1.25,M,OVC,M,M,M,1500.00,M,M,M,-SN BR,KVSF 011015Z AUTO 34004KT 1 1/2SM -SN BR OVC015 A2990 RMK P0002 MADISHF
VSF,2017-04-01 10:17,-72.5173,43.3436,30.90,28.00,88.84,M,4.00,0.02,29.90,M,1.00,M,VV ,M,M,M,1400.00,M,M,M,-SN BR,KVSF 011017Z AUTO VRB04KT 1SM -SN BR VV014 M01/M02 A2990 RMK AO2 P0002 T10061022
VSF,2017-04-01 10:20,-72.5173,43.3436,M,M,M,0.00,0.00,0.03,29.90,M,1.00,M,VV ,M,M,M,1300.00,M,M,M,-SN BR,KVSF 011020Z AUTO 00000KT 1SM -SN BR VV013 A2990 RMK P0003 MADISHF
VSF,2017-04-01 10:25,-72.5173,43.3436,M,M,M,340.00,3.00,0.03,29.90,M,1.00,M,VV ,M,M,M,1200.00,M,M,M,-SN BR,KVSF 011025Z AUTO 34003KT 1SM -SN BR VV012 A2990 RMK P0003 VRB03KT  MADISHF
VSF,2017-04-01 10:30,-72.5173,43.3436,M,M,M,0.00,0.00,0.04,29.90,M,1.25,M,OVC,M,M,M,1200.00,M,M,M,-SN BR,KVSF 011030Z AUTO 00000KT 1 1/2SM -SN BR OVC012 A2990 RMK P0004 MADISHF
VSF,2017-04-01 10:35,-72.5173,43.3436,M,M,M,350.00,4.00,0.04,29.90,M,1.25,M,OVC,M,M,M,1200.00,M,M,M,-SN BR,KVSF 011035Z AUTO 35004KT 1 1/2SM -SN BR OVC012 A2990 RMK P0004 MADISHF
VSF,2017-04-01 10:40,-72.5173,43.3436,M,M,M,350.00,3.00,0.04,29.91,M,1.25,M,OVC,M,M,M,1200.00,M,M,M,-SN BR,KVSF 011040Z AUTO 35003KT 1 1/2SM -SN BR OVC012 A2991 RMK P0004 MADISHF
VSF,2017-04-01 10:45,-72.5173,43.3436,M,M,M,360.00,3.00,0.05,29.91,M,1.50,M,OVC,M,M,M,1200.00,M,M,M,-SN BR,KVSF 011045Z AUTO 36003KT 1 1/2SM -SN BR OVC012 A2991 RMK P0005 VRB03KT  MADISHF
VSF,2017-04-01 10:50,-72.5173,43.3436,M,M,M,0.00,0.00,0.05,29.91,M,1.50,M,OVC,M,M,M,1400.00,M,M,M,-SN BR,KVSF 011050Z AUTO 00000KT 1 1/2SM -SN BR OVC014 A2991 RMK P0005 MADISHF
VSF,2017-04-01 10:54,-72.5173,43.3436,30.90,28.00,88.84,360.00,3.00,0.05,29.90,1013.30,1.00,M,VV ,M,M,M,1500.00,M,M,M,-SN BR,KVSF 011054Z AUTO 36003KT 1SM -SN BR VV015 M01/M02 A2990 RMK AO2 SLP133 P0005 T10061022
VSF,2017-04-01 10:55,-72.5173,43.3436,M,M,M,360.00,3.00,M,29.90,M,1.00,M,VV ,M,M,M,1500.00,M,M,M,-SN BR,KVSF 011055Z AUTO 36003KT 1SM -SN BR VV015 A2990 RMK MADISHF
VSF,2017-04-01 11:00,-72.5173,43.3436,M,M,M,340.00,4.00,M,29.90,M,1.00,M,VV ,M,M,M,1699.00,M,M,M,-SN BR,KVSF 011100Z AUTO 34004KT 1SM -SN BR VV016 A2990 RMK MADISHF
VSF,2017-04-01 11:05,-72.5173,43.3436,M,M,M,0.00,0.00,0.01,29.90,M,1.00,M,VV ,M,M,M,1800.00,M,M,M,-SN BR,KVSF 011105Z AUTO 00000KT 1SM -SN BR VV018 A2990 RMK P0001 MADISHF
VSF,2017-04-01 11:10,-72.5173,43.3436,M,M,M,350.00,3.00,0.01,29.90,M,1.00,M,VV ,M,M,M,1699.00,M,M,M,-SN BR,KVSF 011110Z AUTO 35003KT 1SM -SN BR VV016 A2990 RMK P0001 VRB03KT  MADISHF
VSF,2017-04-01 11:15,-72.5173,43.3436,M,M,M,0.00,0.00,0.01,29.91,M,1.00,M,VV ,M,M,M,1699.00,M,M,M,-SN BR,KVSF 011115Z AUTO 00000KT 1SM -SN BR VV016 A2991 RMK P0001 MADISHF
VSF,2017-04-01 11:20,-72.5173,43.3436,M,M,M,0.00,0.00,0.02,29.91,M,1.00,M,VV ,M,M,M,1699.00,M,M,M,-SN BR,KVSF 011120Z AUTO 00000KT 1SM -SN BR VV016 A2991 RMK P0002 MADISHF
VSF,2017-04-01 11:25,-72.5173,43.3436,M,M,M,0.00,0.00,0.02,29.91,M,1.00,M,VV ,M,M,M,1699.00,M,M,M,-SN BR,KVSF 011125Z AUTO 00000KT 1SM -SN BR VV016 A2991 RMK P0002 MADISHF
VSF,2017-04-01 11:30,-72.5173,43.3436,M,M,M,360.00,3.00,0.02,29.91,M,1.00,M,VV ,M,M,M,1600.00,M,M,M,-SN BR,KVSF 011130Z AUTO 36003KT 1SM -SN BR VV016 A2991 RMK P0002 VRB03KT  MADISHF
VSF,2017-04-01 11:35,-72.5173,43.3436,M,M,M,10.00,3.00,0.03,29.91,M,1.00,M,VV ,M,M,M,1600.00,M,M,M,-SN BR,KVSF 011135Z AUTO 01003KT 1SM -SN BR VV016 A2991 RMK P0003 MADISHF
VSF,2017-04-01 11:40,-72.5173,43.3436,M,M,M,360.00,3.00,0.03,29.91,M,0.75,M,VV ,M,M,M,1500.00,M,M,M,-SN BR,KVSF 011140Z AUTO 36003KT 1SM -SN BR VV015 A2991 RMK P0003 VRB03KT  MADISHF
VSF,2017-04-01 11:45,-72.5173,43.3436,32.00,28.90,88.17,10.00,5.00,0.03,29.91,M,0.75,M,VV ,M,M,M,1400.00,M,M,M,-SN BR,KVSF 011145Z AUTO 01005KT 3/4SM -SN BR VV014 00/M02 A2991 RMK AO2 P0003 T00001017
VSF,2017-04-01 11:50,-72.5173,43.3436,M,M,M,20.00,3.00,0.04,29.91,M,0.75,M,VV ,M,M,M,1400.00,M,M,M,-SN BR,KVSF 011150Z AUTO 02003KT 1SM -SN BR VV014 A2991 RMK P0004 VRB03KT  MADISHF
VSF,2017-04-01 11:54,-72.5173,43.3436,32.00,28.90,88.17,M,3.00,0.04,29.91,1013.70,0.75,M,VV ,M,M,M,1300.00,M,M,M,-SN BR,KVSF 011154Z AUTO VRB03KT 3/4SM -SN BR VV013 00/M02 A2991 RMK AO2 SLP137 P0004 60032 70150 T00001017 10000 21006 53009
VSF,2017-04-01 11:55,-72.5173,43.3436,M,M,M,360.00,3.00,M,29.91,M,0.75,M,VV ,M,M,M,1300.00,M,M,M,-SN BR,KVSF 011155Z AUTO 36003KT 1SM -SN BR VV013 A2991 RMK VRB03KT  MADISHF
VSF,2017-04-01 12:00,-72.5173,43.3436,M,M,M,10.00,4.00,0.01,29.92,M,0.75,M,VV ,M,M,M,1300.00,M,M,M,-SN BR,KVSF 011200Z AUTO 01004KT 1SM -SN BR VV013 A2992 RMK P0001 VRB04KT  MADISHF
VSF,2017-04-01 12:05,-72.5173,43.3436,M,M,M,360.00,3.00,0.01,29.92,M,0.75,M,VV ,M,M,M,1300.00,M,M,M,-SN BR,KVSF 011205Z AUTO 36003KT 1SM -SN BR VV013 A2992 RMK P0001 MADISHF
VSF,2017-04-01 12:10,-72.5173,43.3436,M,M,M,10.00,4.00,0.01,29.92,M,0.75,M,VV ,M,M,M,1300.00,M,M,M,-SN BR,KVSF 011210Z AUTO 01004KT 1SM -SN BR VV013 A2992 RMK P0001 VRB04KT  MADISHF
VSF,2017-04-01 12:15,-72.5173,43.3436,M,M,M,360.00,5.00,0.02,29.92,M,0.75,M,VV ,M,M,M,1300.00,M,M,M,-SN BR,KVSF 011215Z AUTO 36005KT 1SM -SN BR VV013 A2992 RMK P0002 VRB05KT  MADISHF
VSF,2017-04-01 12:20,-72.5173,43.3436,M,M,M,360.00,3.00,0.02,29.92,M,0.75,M,VV ,M,M,M,1300.00,M,M,M,-SN BR,KVSF 011220Z AUTO 36003KT 1SM -SN BR VV013 A2992 RMK P0002 VRB03KT  MADISHF
VSF,2017-04-01 12:25,-72.5173,43.3436,M,M,M,10.00,3.00,0.03,29.92,M,0.75,M,VV ,M,M,M,1300.00,M,M,M,-SN BR,KVSF 011225Z AUTO 01003KT 1SM -SN BR VV013 A2992 RMK P0003 MADISHF
VSF,2017-04-01 12:30,-72.5173,43.3436,M,M,M,10.00,4.00,0.03,29.92,M,0.75,M,VV ,M,M,M,1400.00,M,M,M,-SN BR,KVSF 011230Z AUTO 01004KT 1SM -SN BR VV014 A2992 RMK P0003 MADISHF
VSF,2017-04-01 12:35,-72.5173,43.3436,M,M,M,10.00,4.00,0.03,29.92,M,0.75,M,VV ,M,M,M,1400.00,M,M,M,-SN BR,KVSF 011235Z AUTO 01004KT 1SM -SN BR VV014 A2992 RMK P0003 VRB04KT  MADISHF
VSF,2017-04-01 12:40,-72.5173,43.3436,M,M,M,10.00,4.00,0.04,29.92,M,0.75,M,VV ,M,M,M,1500.00,M,M,M,-SN BR,KVSF 011240Z AUTO 01004KT 1SM -SN BR VV015 A2992 RMK P0004 MADISHF
VSF,2017-04-01 12:42,-72.5173,43.3436,32.00,28.90,88.17,20.00,4.00,0.04,29.92,M,0.75,M,VV ,M,M,M,1500.00,M,M,M,-SN BR,KVSF 011242Z AUTO 02004KT 3/4SM -SN BR VV015 00/M02 A2992 RMK AO2 P0004 T00001017
VSF,2017-04-01 12:45,-72.5173,43.3436,M,M,M,10.00,5.00,0.04,29.92,M,0.75,M,VV ,M,M,M,1500.00,M,M,M,-SN BR,KVSF 011245Z AUTO 01005KT 1SM -SN BR VV015 A2992 RMK P0004 MADISHF
VSF,2017-04-01 12:50,-72.5173,43.3436,M,M,M,10.00,4.00,0.04,29.92,M,0.75,M,VV ,M,M,M,1600.00,M,M,M,-SN BR,KVSF 011250Z AUTO 01004KT 1SM -SN BR VV016 A2992 RMK P0004 MADISHF
VSF,2017-04-01 12:54,-72.5173,43.3436,32.00,28.90,88.17,360.00,4.00,0.04,29.92,1013.80,0.75,M,VV ,M,M,M,1600.00,M,M,M,-SN BR,KVSF 011254Z AUTO 36004KT 3/4SM -SN BR VV016 00/M02 A2992 RMK AO2 SLP138 P0004 T00001017
VSF,2017-04-01 12:55,-72.5173,43.3436,M,M,M,350.00,4.00,M,29.92,M,0.75,M,VV ,M,M,M,1600.00,M,M,M,-SN BR,KVSF 011255Z AUTO 35004KT 1SM -SN BR VV016 A2992 RMK MADISHF
VSF,2017-04-01 13:00,-72.5173,43.3436,M,M,M,10.00,5.00,M,29.92,M,0.75,M,VV ,M,M,M,1699.00,M,M,M,-SN BR,KVSF 011300Z AUTO 01005KT 1SM -SN BR VV016 A2992 RMK MADISHF
VSF,2017-04-01 13:05,-72.5173,43.3436,M,M,M,360.00,5.00,0.01,29.92,M,1.00,M,VV ,M,M,M,1699.00,M,M,M,-SN BR,KVSF 011305Z AUTO 36005KT 1SM -SN BR VV016 A2992 RMK P0001 MADISHF
VSF,2017-04-01 13:10,-72.5173,43.3436,M,M,M,20.00,3.00,0.01,29.92,M,1.00,M,VV ,M,M,M,1699.00,M,M,M,-SN BR,KVSF 011310Z AUTO 02003KT 1SM -SN BR VV016 A2992 RMK P0001 VRB03KT  MADISHF
VSF,2017-04-01 13:11,-72.5173,43.3436,32.00,28.90,88.17,M,3.00,0.01,29.92,M,1.00,M,VV ,M,M,M,1700.00,M,M,M,-SN BR,KVSF 011311Z AUTO VRB03KT 1SM -SN BR VV017 00/M02 A2992 RMK AO2 P0001 T00001017
VSF,2017-04-01 13:15,-72.5173,43.3436,M,M,M,360.00,4.00,0.01,29.92,M,1.00,M,VV ,M,M,M,1800.00,M,M,M,-SN BR,KVSF 011315Z AUTO 36004KT 1SM -SN BR VV018 A2992 RMK P0001 VRB04KT  MADISHF
VSF,2017-04-01 13:20,-72.5173,43.3436,M,M,M,10.00,5.00,0.01,29.92,M,1.00,M,VV ,M,M,M,1900.00,M,M,M,-SN BR,KVSF 011320Z AUTO 01005KT 1SM -SN BR VV019 A2992 RMK P0001 VRB05KT  MADISHF
VSF,2017-04-01 13:25,-72.5173,43.3436,M,M,M,360.00,5.00,0.01,29.92,M,1.00,M,VV ,M,M,M,1800.00,M,M,M,-SN BR,KVSF 011325Z AUTO 36005KT 1SM -SN BR VV018 A2992 RMK P0001 MADISHF
VSF,2017-04-01 13:30,-72.5173,43.3436,M,M,M,360.00,5.00,0.02,29.92,M,1.25,M,BKN,BKN,OVC,M,1800.00,2300.00,2900.00,M,-SN BR,KVSF 011330Z AUTO 36005KT 1 1/2SM -SN BR BKN018 BKN023 OVC029 A2992 RMK P0002 VRB05KT  MADISHF
VSF,2017-04-01 13:35,-72.5173,43.3436,M,M,M,10.00,3.00,0.02,29.92,M,1.25,M,BKN,OVC,M,M,1999.00,2900.00,M,M,-SN BR,KVSF 011335Z AUTO 01003KT 1 1/2SM -SN BR BKN019 OVC029 A2992 RMK P0002 VRB03KT  MADISHF
VSF,2017-04-01 13:40,-72.5173,43.3436,M,M,M,350.00,7.00,0.02,29.93,M,1.25,M,FEW,BKN,OVC,M,1600.00,1999.00,3100.00,M,-SN BR,KVSF 011340Z AUTO 35007KT 1 1/2SM -SN BR FEW016 BKN019 OVC031 A2993 RMK P0002 MADISHF
VSF,2017-04-01 13:45,-72.5173,43.3436,M,M,M,350.00,5.00,0.02,29.93,M,1.25,M,FEW,BKN,OVC,M,1600.00,1999.00,2900.00,M,-SN BR,KVSF 011345Z AUTO 35005KT 1 1/2SM -SN BR FEW016 BKN019 OVC029 A2993 RMK P0002 VRB05KT  MADISHF
VSF,2017-04-01 13:50,-72.5173,43.3436,M,M,M,10.00,4.00,0.02,29.93,M,1.00,M,FEW,BKN,OVC,M,1500.00,1999.00,2900.00,M,-SN BR,KVSF 011350Z AUTO 01004KT 1SM -SN BR FEW015 BKN019 OVC029 A2993 RMK P0002 MADISHF
VSF,2017-04-01 13:54,-72.5173,43.3436,33.10,30.00,88.23,M,3.00,0.02,29.93,1014.20,1.00,M,BKN,OVC,M,M,2000.00,2900.00,M,M,-SN BR,KVSF 011354Z AUTO VRB03KT 1SM -SN BR BKN020 OVC029 01/M01 A2993 RMK AO2 SLP142 P0002 T00061011
VSF,2017-04-01 13:55,-72.5173,43.3436,M,M,M,10.00,4.00,M,29.93,M,1.00,M,BKN,OVC,M,M,1999.00,2900.00,M,M,-SN BR,KVSF 011355Z AUTO 01004KT 1SM -SN BR BKN019 OVC029 A2993 RMK MADISHF
VSF,2017-04-01 14:00,-72.5173,43.3436,M,M,M,0.00,0.00,0.01,29.93,M,1.00,M,VV ,M,M,M,1900.00,M,M,M,-SN BR,KVSF 011400Z AUTO 00000KT 1SM -SN BR VV019 A2993 RMK P0001 MADISHF
VSF,2017-04-01 14:05,-72.5173,43.3436,M,M,M,10.00,4.00,0.01,29.93,M,1.00,M,VV ,M,M,M,1800.00,M,M,M,-SN BR,KVSF 011405Z AUTO 01004KT 1SM -SN BR VV018 A2993 RMK P0001 MADISHF
VSF,2017-04-01 14:10,-72.5173,43.3436,M,M,M,10.00,6.00,0.01,29.93,M,1.00,M,VV ,M,M,M,1800.00,M,M,M,-SN BR,KVSF 011410Z AUTO 01006KT 1SM -SN BR VV018 A2993 RMK P0001 MADISHF
VSF,2017-04-01 14:15,-72.5173,43.3436,M,M,M,360.00,5.00,0.01,29.94,M,1.00,M,VV ,M,M,M,1699.00,M,M,M,-SN BR,KVSF 011415Z AUTO 36005KT 1SM -SN BR VV016 A2994 RMK P0001 MADISHF
VSF,2017-04-01 14:20,-72.5173,43.3436,M,M,M,20.00,4.00,0.02,29.94,M,0.75,M,VV ,M,M,M,1699.00,M,M,M,-SN BR,KVSF 011420Z AUTO 02004KT 1SM -SN BR VV016 A2994 RMK P0002 MADISHF
VSF,2017-04-01 14:22,-72.5173,43.3436,33.10,30.00,88.23,M,3.00,0.02,29.94,M,0.75,M,VV ,M,M,M,1600.00,M,M,M,-SN BR,KVSF 011422Z AUTO VRB03KT 3/4SM -SN BR VV016 01/M01 A2994 RMK AO2 P0002 T00061011
VSF,2017-04-01 14:25,-72.5173,43.3436,M,M,M,350.00,5.00,0.02,29.94,M,0.75,M,VV ,M,M,M,1600.00,M,M,M,-SN BR,KVSF 011425Z AUTO 35005KT 1SM -SN BR VV016 A2994 RMK P0002 MADISHF
VSF,2017-04-01 14:30,-72.5173,43.3436,M,M,M,10.00,7.00,0.02,29.94,M,0.75,M,VV ,M,M,M,1600.00,M,M,M,-SN BR,KVSF 011430Z AUTO 01007KT 1SM -SN BR VV016 A2994 RMK P0002 MADISHF
VSF,2017-04-01 14:35,-72.5173,43.3436,M,M,M,10.00,4.00,0.03,29.94,M,0.75,M,VV ,M,M,M,1600.00,M,M,M,-SN BR,KVSF 011435Z AUTO 01004KT 1SM -SN BR VV016 A2994 RMK P0003 MADISHF
VSF,2017-04-01 14:40,-72.5173,43.3436,M,M,M,10.00,4.00,0.03,29.94,M,1.00,M,VV ,M,M,M,1699.00,M,M,M,-SN BR,KVSF 011440Z AUTO 01004KT 1SM -SN BR VV016 A2994 RMK P0003 MADISHF
VSF,2017-04-01 14:44,-72.5173,43.3436,33.10,30.00,88.23,20.00,5.00,0.03,29.94,M,1.00,M,BKN,OVC,M,M,1700.00,2200.00,M,M,-SN BR,KVSF 011444Z AUTO 02005KT 1SM -SN BR BKN017 OVC022 01/M01 A2994 RMK AO2 P0003 T00061011
VSF,2017-04-01 14:45,-72.5173,43.3436,M,M,M,10.00,6.00,0.03,29.94,M,1.00,M,BKN,OVC,M,M,1699.00,2200.00,M,M,-SN BR,KVSF 011445Z AUTO 01006KT 1SM -SN BR BKN016 OVC022 A2994 RMK P0003 MADISHF
VSF,2017-04-01 14:50,-72.5173,43.3436,M,M,M,10.00,4.00,0.03,29.94,M,1.25,M,BKN,OVC,M,M,1699.00,2300.00,M,M,-SN BR,KVSF 011450Z AUTO 01004KT 1 1/2SM -SN BR BKN016 OVC023 A2994 RMK P0003 VRB04KT  MADISHF
VSF,2017-04-01 14:54,-72.5173,43.3436,34.00,30.00,85.11,20.00,6.00,0.03,29.94,1014.50,1.25,M,OVC,M,M,M,1900.00,M,M,M,-SN BR,KVSF 011454Z AUTO 02006KT 1 1/4SM -SN BR OVC019 01/M01 A2994 RMK AO2 SLP145 P0003 60009 T00111011 53008
VSF,2017-04-01 14:55,-72.5173,43.3436,M,M,M,20.00,6.00,M,29.94,M,1.50,M,OVC,M,M,M,1900.00,M,M,M,-SN BR,KVSF 011455Z AUTO 02006KT 1 1/2SM -SN BR OVC019 A2994 RMK MADISHF
VSF,2017-04-01 15:00,-72.5173,43.3436,M,M,M,360.00,4.00,M,29.94,M,1.50,M,OVC,M,M,M,1900.00,M,M,M,-SN BR,KVSF 011500Z AUTO 36004KT 1 1/2SM -SN BR OVC019 A2994 RMK VRB04KT  MADISHF
VSF,2017-04-01 15:05,-72.5173,43.3436,M,M,M,10.00,3.00,M,29.94,M,1.50,M,OVC,M,M,M,1900.00,M,M,M,-SN BR,KVSF 011505Z AUTO 01003KT 1 1/2SM -SN BR OVC019 A2994 RMK VRB03KT  MADISHF
VSF,2017-04-01 15:10,-72.5173,43.3436,M,M,M,20.00,4.00,M,29.94,M,1.50,M,OVC,M,M,M,1900.00,M,M,M,-SN BR,KVSF 011510Z AUTO 02004KT 1 1/2SM -SN BR OVC019 A2994 RMK VRB04KT  MADISHF
VSF,2017-04-01 15:15,-72.5173,43.3436,M,M,M,20.00,4.00,M,29.94,M,1.50,M,FEW,OVC,M,M,1600.00,2100.00,M,M,-SN BR,KVSF 011515Z AUTO 02004KT 1 1/2SM -SN BR FEW016 OVC021 A2994 RMK MADISHF
VSF,2017-04-01 15:20,-72.5173,43.3436,M,M,M,30.00,5.00,M,29.94,M,1.75,M,FEW,BKN,OVC,M,1600.00,2100.00,3100.00,M,-SN BR,KVSF 011520Z AUTO 03005KT 2SM -SN BR FEW016 BKN021 OVC031 A2994 RMK MADISHF
VSF,2017-04-01 15:25,-72.5173,43.3436,M,M,M,0.00,0.00,0.01,29.93,M,2.00,M,SCT,BKN,OVC,M,1600.00,2200.00,3100.00,M,-SN BR,KVSF 011525Z AUTO 00000KT 2SM -SN BR SCT016 BKN022 OVC031 A2993 RMK P0001 MADISHF
VSF,2017-04-01 15:30,-72.5173,43.3436,M,M,M,350.00,5.00,0.01,29.93,M,2.50,M,FEW,BKN,OVC,M,1600.00,2200.00,3100.00,M,-SN,KVSF 011530Z AUTO 35005KT 2 1/2SM -SN FEW016 BKN022 OVC031 A2993 RMK P0001 MADISHF
VSF,2017-04-01 15:31,-72.5173,43.3436,35.10,30.00,81.46,350.00,6.00,0.01,29.93,M,2.50,M,FEW,BKN,OVC,M,1600.00,2200.00,3300.00,M,-SN,KVSF 011531Z AUTO 35006KT 2 1/2SM -SN FEW016 BKN022 OVC033 02/M01 A2993 RMK AO2 P0001 T00171011
VSF,2017-04-01 15:35,-72.5173,43.3436,M,M,M,20.00,3.00,0.01,29.93,M,3.00,M,FEW,BKN,OVC,M,1600.00,2400.00,3200.00,M,-SN,KVSF 011535Z AUTO 02003KT 3SM -SN FEW016 BKN024 OVC032 A2993 RMK P0001 MADISHF
VSF,2017-04-01 15:39,-72.5173,43.3436,35.10,30.90,84.49,M,3.00,0.01,29.93,M,4.00,M,FEW,BKN,OVC,M,1900.00,2600.00,3200.00,M,-SN BR,KVSF 011539Z AUTO VRB03KT 4SM -SN BR FEW019 BKN026 OVC032 02/M01 A2993 RMK AO2 P0001 T00171006
VSF,2017-04-01 15:40,-72.5173,43.3436,M,M,M,350.00,4.00,0.01,29.93,M,5.00,M,FEW,BKN,OVC,M,1600.00,2600.00,3399.00,M,-SN BR,KVSF 011540Z AUTO 35004KT 5SM -SN BR FEW016 BKN026 OVC033 A2993 RMK P0001 MADISHF
VSF,2017-04-01 15:45,-72.5173,43.3436,M,M,M,10.00,4.00,0.01,29.93,M,7.00,M,FEW,SCT,OVC,M,1600.00,2500.00,3300.00,M,-SN,KVSF 011545Z AUTO 01004KT 7SM -SN FEW016 SCT025 OVC033 A2993 RMK P0001 MADISHF
VSF,2017-04-01 15:50,-72.5173,43.3436,M,M,M,0.00,0.00,0.01,29.93,M,7.00,M,SCT,BKN,OVC,M,1900.00,3100.00,4100.00,M,-SN,KVSF 011550Z AUTO 00000KT 7SM -SN SCT019 BKN031 OVC041 A2993 RMK P0001 MADISHF
VSF,2017-04-01 15:54,-72.5173,43.3436,35.10,30.00,81.46,M,4.00,0.01,29.93,1014.30,7.00,M,FEW,BKN,OVC,M,1700.00,2400.00,3400.00,M,-SN,KVSF 011554Z AUTO VRB04KT 7SM -SN FEW017 BKN024 OVC034 02/M01 A2993 RMK AO2 SLP143 P0001 T00171011
VSF,2017-04-01 15:55,-72.5173,43.3436,M,M,M,20.00,4.00,M,29.93,M,8.00,M,BKN,OVC,M,M,2200.00,3100.00,M,M,-SN,KVSF 011555Z AUTO 02004KT 8SM -SN BKN022 OVC031 A2993 RMK VRB04KT  MADISHF
VSF,2017-04-01 16:00,-72.5173,43.3436,M,M,M,30.00,3.00,M,29.93,M,8.00,M,FEW,BKN,OVC,M,1699.00,2900.00,3600.00,M,-SN,KVSF 011600Z AUTO 03003KT 8SM -SN FEW016 BKN029 OVC036 A2993 RMK VRB03KT  MADISHF
VSF,2017-04-01 16:05,-72.5173,43.3436,M,M,M,350.00,4.00,M,29.93,M,9.00,M,SCT,BKN,OVC,M,2200.00,3100.00,4100.00,M,-SN,KVSF 011605Z AUTO 35004KT 9SM -SN SCT022 BKN031 OVC041 A2993 RMK MADISHF
VSF,2017-04-01 16:10,-72.5173,43.3436,M,M,M,0.00,0.00,M,29.93,M,9.00,M,FEW,BKN,OVC,M,1800.00,2900.00,4100.00,M,-SN,KVSF 011610Z AUTO 00000KT 9SM -SN FEW018 BKN029 OVC041 A2993 RMK MADISHF
VSF,2017-04-01 16:15,-72.5173,43.3436,M,M,M,0.00,0.00,M,29.93,M,7.00,M,SCT,BKN,OVC,M,2100.00,2900.00,4200.00,M,-SN,KVSF 011615Z AUTO 00000KT 7SM -SN SCT021 BKN029 OVC042 A2993 RMK MADISHF
VSF,2017-04-01 16:20,-72.5173,43.3436,M,M,M,360.00,3.00,M,29.93,M,5.00,M,FEW,SCT,OVC,M,1800.00,2300.00,3200.00,M,-SN,KVSF 011620Z AUTO 36003KT 5SM -SN FEW018 SCT023 OVC032 A2993 RMK MADISHF
VSF,2017-04-01 16:25,-72.5173,43.3436,36.00,30.00,78.60,0.00,0.00,0.00,29.93,M,5.00,M,SCT,OVC,M,M,2300.00,3000.00,M,M,-SN,KVSF 011625Z AUTO 00000KT 5SM -SN SCT023 OVC030 02/M01 A2993 RMK AO2 P0000 T00221011
VSF,2017-04-01 16:30,-72.5173,43.3436,M,M,M,70.00,3.00,M,29.93,M,5.00,M,SCT,OVC,M,M,2100.00,3000.00,M,M,-SN,KVSF 011630Z AUTO 07003KT 5SM -SN SCT021 OVC030 A2993 RMK VRB03KT  MADISHF
VSF,2017-04-01 16:35,-72.5173,43.3436,M,M,M,340.00,3.00,M,29.93,M,5.00,M,SCT,BKN,OVC,M,2100.00,3000.00,3800.00,M,-SN,KVSF 011635Z AUTO 34003KT 5SM -SN SCT021 BKN030 OVC038 A2993 RMK MADISHF
VSF,2017-04-01 16:40,-72.5173,43.3436,M,M,M,330.00,3.00,M,29.93,M,5.00,M,SCT,BKN,OVC,M,1800.00,3000.00,3500.00,M,-SN,KVSF 011640Z AUTO 33003KT 5SM -SN SCT018 BKN030 OVC035 A2993 RMK MADISHF
VSF,2017-04-01 16:45,-72.5173,43.3436,M,M,M,40.00,3.00,M,29.93,M,5.00,M,SCT,BKN,OVC,M,1800.00,2300.00,2900.00,M,-SN,KVSF 011645Z AUTO 04003KT 5SM -SN SCT018 BKN023 OVC029 A2993 RMK MADISHF
VSF,2017-04-01 16:50,-72.5173,43.3436,M,M,M,60.00,3.00,M,29.93,M,5.00,M,SCT,SCT,OVC,M,1800.00,2500.00,3100.00,M,-SN,KVSF 011650Z AUTO 06003KT 5SM -SN SCT018 SCT025 OVC031 A2993 RMK MADISHF
VSF,2017-04-01 16:54,-72.5173,43.3436,36.00,30.00,78.60,0.00,0.00,0.00,29.93,1014.20,4.00,M,FEW,SCT,OVC,M,1600.00,2200.00,3100.00,M,-SN,KVSF 011654Z AUTO 00000KT 4SM -SN FEW016 SCT022 OVC031 02/M01 A2993 RMK AO2 SLP142 P0000 T00221011
VSF,2017-04-01 16:55,-72.5173,43.3436,M,M,M,0.00,0.00,M,29.93,M,4.00,M,SCT,BKN,OVC,M,1900.00,2800.00,3300.00,M,-SN,KVSF 011655Z AUTO 00000KT 4SM -SN SCT019 BKN028 OVC033 A2993 RMK MADISHF
VSF,2017-04-01 17:00,-72.5173,43.3436,M,M,M,10.00,3.00,M,29.93,M,4.00,M,FEW,SCT,OVC,M,1699.00,2200.00,3000.00,M,-SN,KVSF 011700Z AUTO 01003KT 4SM -SN FEW016 SCT022 OVC030 A2993 RMK VRB03KT  MADISHF
VSF,2017-04-01 17:05,-72.5173,43.3436,M,M,M,10.00,4.00,M,29.93,M,3.50,M,SCT,BKN,OVC,M,1900.00,2700.00,3399.00,M,-SN,KVSF 011705Z AUTO 01004KT 3SM -SN SCT019 BKN027 OVC033 A2993 RMK MADISHF
VSF,2017-04-01 17:10,-72.5173,43.3436,M,M,M,340.00,5.00,M,29.93,M,3.50,M,SCT,SCT,OVC,M,1900.00,2500.00,3300.00,M,-SN,KVSF 011710Z AUTO 34005KT 3SM -SN SCT019 SCT025 OVC033 A2993 RMK MADISHF
VSF,2017-04-01 17:15,-72.5173,43.3436,M,M,M,10.00,5.00,M,29.93,M,4.00,M,SCT,BKN,OVC,M,1999.00,2500.00,3300.00,M,-SN,KVSF 011715Z AUTO 01005KT 4SM -SN SCT019 BKN025 OVC033 A2993 RMK MADISHF
VSF,2017-04-01 17:18,-72.5173,43.3436,36.00,30.00,78.60,M,3.00,0.01,29.93,M,4.00,M,SCT,BKN,OVC,M,2000.00,2500.00,3400.00,M,-SN,KVSF 011718Z AUTO VRB03KT 4SM -SN SCT020 BKN025 OVC034 02/M01 A2993 RMK AO2 P0001 T00221011
VSF,2017-04-01 17:20,-72.5173,43.3436,M,M,M,40.00,5.00,0.01,29.93,M,4.00,M,SCT,BKN,OVC,M,1999.00,2500.00,3999.00,M,-SN,KVSF 011720Z AUTO 04005KT 4SM -SN SCT019 BKN025 OVC039 A2993 RMK P0001 VRB05KT  MADISHF
VSF,2017-04-01 17:25,-72.5173,43.3436,M,M,M,10.00,4.00,0.01,29.93,M,5.00,M,SCT,BKN,OVC,M,1999.00,3399.00,4100.00,M,-SN,KVSF 011725Z AUTO 01004KT 5SM -SN SCT019 BKN033 OVC041 A2993 RMK P0001 VRB04KT  MADISHF
VSF,2017-04-01 17:27,-72.5173,43.3436,36.00,30.00,78.60,M,4.00,0.01,29.93,M,5.00,M,FEW,SCT,OVC,M,2000.00,2500.00,3400.00,M,-SN,KVSF 011727Z AUTO VRB04KT 5SM -SN FEW020 SCT025 OVC034 02/M01 A2993 RMK AO2 P0001 T00221011
VSF,2017-04-01 17:30,-72.5173,43.3436,M,M,M,10.00,4.00,0.01,29.93,M,5.00,M,SCT,OVC,M,M,1999.00,3399.00,M,M,-SN,KVSF 011730Z AUTO 01004KT 5SM -SN SCT019 OVC033 A2993 RMK P0001 MADISHF
VSF,2017-04-01 17:35,-72.5173,43.3436,M,M,M,40.00,4.00,0.01,29.93,M,6.00,M,FEW,BKN,OVC,M,1999.00,3100.00,3900.00,M,-SN,KVSF 011735Z AUTO 04004KT 6SM -SN FEW019 BKN031 OVC039 A2993 RMK P0001 MADISHF
VSF,2017-04-01 17:40,-72.5173,43.3436,M,M,M,360.00,3.00,0.01,29.92,M,7.00,M,FEW,BKN,OVC,M,1999.00,3100.00,3900.00,M,-SN,KVSF 011740Z AUTO 36003KT 7SM -SN FEW019 BKN031 OVC039 A2992 RMK P0001 MADISHF
VSF,2017-04-01 17:45,-72.5173,43.3436,M,M,M,0.00,0.00,0.01,29.92,M,8.00,M,FEW,BKN,OVC,M,2300.00,3100.00,3900.00,M,-SN,KVSF 011745Z AUTO 00000KT 8SM -SN FEW023 BKN031 OVC039 A2992 RMK P0001 MADISHF
VSF,2017-04-01 17:50,-72.5173,43.3436,M,M,M,350.00,3.00,0.01,29.93,M,9.00,M,FEW,SCT,OVC,M,1999.00,2500.00,3300.00,M,UP,KVSF 011750Z AUTO 35003KT 9SM UP FEW019 SCT025 OVC033 A2993 RMK P0001 VRB03KT  MADISHF
VSF,2017-04-01 17:54,-72.5173,43.3436,37.00,30.90,78.37,360.00,4.00,0.01,29.93,1014.10,9.00,M,SCT,OVC,M,M,2100.00,3300.00,M,M,UP,KVSF 011754Z AUTO 36004KT 9SM UP SCT021 OVC033 03/M01 A2993 RMK AO2 UPB46SNE46 SLP141 P0001 60011 T00281006 10028 20000 56004
VSF,2017-04-01 17:55,-72.5173,43.3436,M,M,M,360.00,4.00,M,M,M,9.00,M,SCT,OVC,M,M,2100.00,3300.00,M,M,-SN,KVSF 011755Z AUTO 36004KT 9SM -SN SCT021 OVC033 RMK MADISHF
VSF,2017-04-01 18:00,-72.5173,43.3436,M,M,M,0.00,0.00,M,29.92,M,8.00,M,SCT,OVC,M,M,2100.00,3100.00,M,M,-SN,KVSF 011800Z AUTO 00000KT 8SM -SN SCT021 OVC031 A2992 RMK MADISHF
VSF,2017-04-01 18:05,-72.5173,43.3436,M,M,M,40.00,3.00,0.00,29.92,M,6.00,M,SCT,BKN,OVC,M,2100.00,3100.00,3700.00,M,UP,KVSF 011805Z AUTO 04003KT 6SM UP SCT021 BKN031 OVC037 A2992 RMK P0000 MADISHF
VSF,2017-04-01 18:10,-72.5173,43.3436,M,M,M,0.00,0.00,0.00,29.93,M,5.00,M,SCT,BKN,OVC,M,2100.00,2800.00,3500.00,M,UP,KVSF 011810Z AUTO 00000KT 5SM UP SCT021 BKN028 OVC035 A2993 RMK P0000 MADISHF
VSF,2017-04-01 18:12,-72.5173,43.3436,36.00,30.90,81.53,330.00,4.00,0.00,29.93,M,5.00,M,FEW,BKN,OVC,M,1900.00,2800.00,3500.00,M,UP,KVSF 011812Z AUTO 33004KT 5SM UP FEW019 BKN028 OVC035 02/M01 A2993 RMK AO2 SNB1755E04 P0000 T00221006
VSF,2017-04-01 18:15,-72.5173,43.3436,M,M,M,350.00,5.00,0.00,29.93,M,5.00,M,FEW,BKN,OVC,M,1900.00,2800.00,3500.00,M,UP,KVSF 011815Z AUTO 35005KT 5SM UP FEW019 BKN028 OVC035 A2993 RMK P0000 MADISHF
VSF,2017-04-01 18:20,-72.5173,43.3436,M,M,M,10.00,3.00,M,29.92,M,7.00,M,FEW,SCT,OVC,M,1800.00,2600.00,3200.00,M,-RA,KVSF 011820Z AUTO 01003KT 7SM -RA FEW018 SCT026 OVC032 A2992 RMK VRB03KT  MADISHF
VSF,2017-04-01 18:25,-72.5173,43.3436,36.00,30.90,81.53,60.00,3.00,0.00,29.92,M,7.00,M,BKN,OVC,M,M,3200.00,4400.00,M,M,-RA,KVSF 011825Z AUTO 06003KT 7SM -RA BKN032 OVC044 02/M01 A2992 RMK AO2 UPE19RAB19SNB1755E04 P0000 T00221006
VSF,2017-04-01 18:30,-72.5173,43.3436,M,M,M,0.00,0.00,M,29.91,M,6.00,M,FEW,BKN,OVC,M,1500.00,2800.00,3399.00,M,-RA BR,KVSF 011830Z AUTO 00000KT 6SM -RA BR FEW015 BKN028 OVC033 A2991 RMK MADISHF
VSF,2017-04-01 18:33,-72.5173,43.3436,36.00,32.00,85.23,50.00,3.00,0.00,29.91,M,6.00,M,FEW,BKN,OVC,M,1500.00,2800.00,3400.00,M,-RA BR,KVSF 011833Z AUTO 05003KT 6SM -RA BR FEW015 BKN028 OVC034 02/00 A2991 RMK AO2 UPE19RAB19SNB1755E04 P0000 T00220000
VSF,2017-04-01 18:35,-72.5173,43.3436,M,M,M,70.00,3.00,M,29.91,M,6.00,M,FEW,BKN,OVC,M,800.00,2800.00,3399.00,M,-RA BR,KVSF 011835Z AUTO 07003KT 6SM -RA BR FEW008 BKN028 OVC033 A2991 RMK MADISHF
VSF,2017-04-01 18:36,-72.5173,43.3436,36.00,32.00,85.23,60.00,3.00,0.00,29.91,M,6.00,M,FEW,BKN,OVC,M,800.00,3100.00,3800.00,M,-RA BR,KVSF 011836Z AUTO 06003KT 6SM -RA BR FEW008 BKN031 OVC038 02/00 A2991 RMK AO2 UPE19RAB19SNB1755E04 P0000 T00220000
VSF,2017-04-01 18:40,-72.5173,43.3436,M,M,M,350.00,3.00,M,29.91,M,8.00,M,FEW,SCT,OVC,M,800.00,2400.00,3300.00,M,-RA,KVSF 011840Z AUTO 35003KT 8SM -RA FEW008 SCT024 OVC033 A2991 RMK VRB03KT  MADISHF
VSF,2017-04-01 18:45,-72.5173,43.3436,M,M,M,20.00,3.00,M,29.91,M,8.00,M,FEW,OVC,M,M,999.00,3300.00,M,M,-RA,KVSF 011845Z AUTO 02003KT 8SM -RA FEW009 OVC033 A2991 RMK VRB03KT  MADISHF
VSF,2017-04-01 18:50,-72.5173,43.3436,M,M,M,60.00,4.00,M,29.90,M,9.00,M,FEW,BKN,OVC,M,999.00,3000.00,3500.00,M,-RA,KVSF 011850Z AUTO 06004KT 9SM -RA FEW009 BKN030 OVC035 A2990 RMK VRB04KT  MADISHF
VSF,2017-04-01 18:54,-72.5173,43.3436,36.00,30.90,81.53,M,3.00,0.00,29.91,1013.50,10.00,M,FEW,BKN,OVC,M,1000.00,3000.00,3500.00,M,-RA,KVSF 011854Z AUTO VRB03KT 10SM -RA FEW010 BKN030 OVC035 02/M01 A2991 RMK AO2 UPE19RAB19SNB1755E04 SLP135 P0000 T00221006
VSF,2017-04-01 18:55,-72.5173,43.3436,M,M,M,30.00,3.00,M,M,M,10.00,M,FEW,BKN,OVC,M,999.00,3000.00,3500.00,M,-RA,KVSF 011855Z AUTO 03003KT 10SM -RA FEW009 BKN030 OVC035 RMK VRB03KT  MADISHF
VSF,2017-04-01 19:00,-72.5173,43.3436,M,M,M,30.00,5.00,0.01,29.91,M,10.00,M,FEW,BKN,OVC,M,999.00,2800.00,3700.00,M,UP,KVSF 011900Z AUTO 03005KT 10SM UP FEW009 BKN028 OVC037 A2991 RMK P0001 MADISHF
VSF,2017-04-01 19:05,-72.5173,43.3436,M,M,M,40.00,4.00,0.01,29.91,M,8.00,M,FEW,BKN,OVC,M,999.00,1600.00,3700.00,M,UP,KVSF 011905Z AUTO 04004KT 8SM UP FEW009 BKN016 OVC037 A2991 RMK P0001 MADISHF
VSF,2017-04-01 19:10,-72.5173,43.3436,M,M,M,40.00,3.00,0.01,29.91,M,8.00,M,SCT,BKN,OVC,M,1200.00,1800.00,2900.00,M,UP,KVSF 011910Z AUTO 04003KT 8SM UP SCT012 BKN018 OVC029 A2991 RMK P0001 MADISHF
VSF,2017-04-01 19:11,-72.5173,43.3436,36.00,30.90,81.53,0.00,0.00,0.01,29.91,M,8.00,M,SCT,BKN,OVC,M,1200.00,1800.00,2900.00,M,UP,KVSF 011911Z AUTO 00000KT 8SM UP SCT012 BKN018 OVC029 02/M01 A2991 RMK AO2 RAE1859UPB1859 P0001 T00221006
VSF,2017-04-01 19:15,-72.5173,43.3436,M,M,M,340.00,4.00,0.01,29.91,M,9.00,M,FEW,BKN,OVC,M,1200.00,2500.00,3800.00,M,-RA,KVSF 011915Z AUTO 34004KT 9SM -RA FEW012 BKN025 OVC038 A2991 RMK P0001 MADISHF
VSF,2017-04-01 19:20,-72.5173,43.3436,M,M,M,340.00,4.00,0.01,29.92,M,10.00,M,FEW,BKN,OVC,M,1200.00,2500.00,3000.00,M,-RA,KVSF 011920Z AUTO 34004KT 10SM -RA FEW012 BKN025 OVC030 A2992 RMK P0001 MADISHF
VSF,2017-04-01 19:25,-72.5173,43.3436,M,M,M,350.00,4.00,0.01,29.92,M,10.00,M,FEW,BKN,OVC,M,1100.00,2700.00,3500.00,M,M,KVSF 011925Z AUTO 35004KT 10SM FEW011 BKN027 OVC035 A2992 RMK P0001 MADISHF
VSF,2017-04-01 19:30,-72.5173,43.3436,M,M,M,0.00,0.00,0.01,29.92,M,10.00,M,FEW,BKN,OVC,M,1100.00,2700.00,3500.00,M,M,KVSF 011930Z AUTO 00000KT 10SM FEW011 BKN027 OVC035 A2992 RMK P0001 MADISHF
VSF,2017-04-01 19:35,-72.5173,43.3436,M,M,M,340.00,3.00,0.01,29.92,M,10.00,M,FEW,BKN,OVC,M,1900.00,2700.00,4200.00,M,M,KVSF 011935Z AUTO 34003KT 10SM FEW019 BKN027 OVC042 A2992 RMK P0001 VRB03KT  MADISHF
VSF,2017-04-01 19:40,-72.5173,43.3436,M,M,M,340.00,3.00,0.01,M,M,10.00,M,FEW,BKN,OVC,M,2300.00,2700.00,4400.00,M,M,KVSF 011940Z AUTO 34003KT 10SM FEW023 BKN027 OVC044 RMK P0001 MADISHF
VSF,2017-04-01 19:45,-72.5173,43.3436,M,M,M,10.00,4.00,0.01,M,M,10.00,M,FEW,BKN,OVC,M,2200.00,2700.00,4100.00,M,M,KVSF 011945Z AUTO 01004KT 10SM FEW022 BKN027 OVC041 RMK P0001 VRB04KT  MADISHF
VSF,2017-04-01 19:50,-72.5173,43.3436,M,M,M,20.00,3.00,0.01,29.93,M,10.00,M,FEW,BKN,OVC,M,2200.00,3300.00,4200.00,M,M,KVSF 011950Z AUTO 02003KT 10SM FEW022 BKN033 OVC042 A2993 RMK P0001 MADISHF
VSF,2017-04-01 19:54,-72.5173,43.3436,37.00,30.90,78.37,350.00,3.00,0.01,29.93,1014.30,10.00,M,FEW,BKN,OVC,M,2500.00,3300.00,4800.00,M,M,KVSF 011954Z AUTO 35003KT 10SM FEW025 BKN033 OVC048 03/M01 A2993 RMK AO2 RAE1859B13E23UPB1859E13 SLP143 P0001 T00281006
VSF,2017-04-01 19:55,-72.5173,43.3436,M,M,M,360.00,3.00,M,29.93,M,10.00,M,FEW,BKN,OVC,M,2700.00,3300.00,4300.00,M,M,KVSF 011955Z AUTO 36003KT 10SM FEW027 BKN033 OVC043 A2993 RMK MADISHF
VSF,2017-04-01 20:00,-72.5173,43.3436,M,M,M,10.00,3.00,M,29.93,M,10.00,M,FEW,BKN,OVC,M,3000.00,4300.00,4900.00,M,M,KVSF 012000Z AUTO 01003KT 10SM FEW030 BKN043 OVC049 A2993 RMK MADISHF
VSF,2017-04-01 20:05,-72.5173,43.3436,M,M,M,360.00,4.00,M,29.93,M,10.00,M,FEW,OVC,M,M,3000.00,4300.00,M,M,M,KVSF 012005Z AUTO 36004KT 10SM FEW030 OVC043 A2993 RMK MADISHF
VSF,2017-04-01 20:10,-72.5173,43.3436,M,M,M,0.00,0.00,M,29.93,M,10.00,M,FEW,OVC,M,M,3000.00,4500.00,M,M,M,KVSF 012010Z AUTO 00000KT 10SM FEW030 OVC045 A2993 RMK MADISHF
VSF,2017-04-01 20:15,-72.5173,43.3436,M,M,M,40.00,3.00,M,29.93,M,10.00,M,FEW,FEW,OVC,M,1800.00,3200.00,4700.00,M,M,KVSF 012015Z AUTO 04003KT 10SM FEW018 FEW032 OVC047 A2993 RMK MADISHF
VSF,2017-04-01 20:20,-72.5173,43.3436,M,M,M,50.00,3.00,M,29.93,M,10.00,M,FEW,BKN,OVC,M,1999.00,4300.00,5000.00,M,M,KVSF 012020Z AUTO 05003KT 10SM FEW019 BKN043 OVC050 A2993 RMK MADISHF
VSF,2017-04-01 20:25,-72.5173,43.3436,M,M,M,10.00,4.00,M,29.94,M,10.00,M,FEW,BKN,OVC,M,1999.00,4100.00,5000.00,M,-RA,KVSF 012025Z AUTO 01004KT 10SM -RA FEW019 BKN041 OVC050 A2994 RMK MADISHF
VSF,2017-04-01 20:30,-72.5173,43.3436,M,M,M,0.00,0.00,M,29.94,M,10.00,M,FEW,BKN,OVC,M,1999.00,4100.00,5000.00,M,-RA,KVSF 012030Z AUTO 00000KT 10SM -RA FEW019 BKN041 OVC050 A2994 RMK MADISHF
VSF,2017-04-01 20:35,-72.5173,43.3436,M,M,M,340.00,3.00,M,29.95,M,10.00,M,FEW,BKN,OVC,M,1999.00,4100.00,5000.00,M,-RA,KVSF 012035Z AUTO 34003KT 10SM -RA FEW019 BKN041 OVC050 A2995 RMK MADISHF
VSF,2017-04-01 20:40,-72.5173,43.3436,M,M,M,0.00,0.00,M,29.95,M,10.00,M,FEW,BKN,OVC,M,1999.00,4100.00,5000.00,M,-RA,KVSF 012040Z AUTO 00000KT 10SM -RA FEW019 BKN041 OVC050 A2995 RMK MADISHF
VSF,2017-04-01 20:45,-72.5173,43.3436,M,M,M,60.00,4.00,M,29.95,M,10.00,M,BKN,OVC,M,M,3800.00,5000.00,M,M,-RA,KVSF 012045Z AUTO 06004KT 10SM -RA BKN038 OVC050 A2995 RMK MADISHF
VSF,2017-04-01 20:50,-72.5173,43.3436,M,M,M,40.00,3.00,M,29.95,M,10.00,M,BKN,OVC,M,M,3800.00,4900.00,M,M,-RA,KVSF 012050Z AUTO 04003KT 10SM -RA BKN038 OVC049 A2995 RMK VRB03KT  MADISHF
VSF,2017-04-01 20:54,-72.5173,43.3436,37.00,32.00,81.93,70.00,3.00,0.00,29.95,1014.90,10.00,M,BKN,BKN,OVC,M,3800.00,4600.00,5500.00,M,-RA,KVSF 012054Z AUTO 07003KT 10SM -RA BKN038 BKN046 OVC055 03/00 A2995 RMK AO2 RAB22 SLP149 P0000 60001 T00280000 53008
VSF,2017-04-01 20:55,-72.5173,43.3436,M,M,M,60.00,3.00,M,M,M,10.00,M,FEW,BKN,OVC,M,2400.00,3999.00,5500.00,M,-RA,KVSF 012055Z AUTO 06003KT 10SM -RA FEW024 BKN039 OVC055 RMK MADISHF
VSF,2017-04-01 21:00,-72.5173,43.3436,M,M,M,70.00,3.00,M,29.95,M,10.00,M,FEW,BKN,OVC,M,2400.00,3800.00,5500.00,M,-RA,KVSF 012100Z AUTO 07003KT 10SM -RA FEW024 BKN038 OVC055 A2995 RMK MADISHF
VSF,2017-04-01 21:05,-72.5173,43.3436,M,M,M,0.00,0.00,M,29.95,M,10.00,M,FEW,BKN,OVC,M,2800.00,3800.00,5500.00,M,-RA,KVSF 012105Z AUTO 00000KT 10SM -RA FEW028 BKN038 OVC055 A2995 RMK MADISHF
VSF,2017-04-01 21:10,-72.5173,43.3436,M,M,M,0.00,0.00,M,29.95,M,10.00,M,FEW,BKN,OVC,M,2200.00,3999.00,6000.00,M,-RA,KVSF 012110Z AUTO 00000KT 10SM -RA FEW022 BKN039 OVC060 A2995 RMK MADISHF
VSF,2017-04-01 21:15,-72.5173,43.3436,M,M,M,70.00,3.00,M,29.95,M,10.00,M,FEW,SCT,OVC,M,2500.00,4200.00,6000.00,M,M,KVSF 012115Z AUTO 07003KT 10SM FEW025 SCT042 OVC060 A2995 RMK MADISHF
VSF,2017-04-01 21:20,-72.5173,43.3436,M,M,M,0.00,0.00,M,29.95,M,10.00,M,FEW,SCT,OVC,M,2700.00,4600.00,6000.00,M,M,KVSF 012120Z AUTO 00000KT 10SM FEW027 SCT046 OVC060 A2995 RMK MADISHF
VSF,2017-04-01 21:25,-72.5173,43.3436,M,M,M,0.00,0.00,M,29.95,M,10.00,M,FEW,FEW,OVC,M,2700.00,4300.00,6000.00,M,M,KVSF 012125Z AUTO 00000KT 10SM FEW027 FEW043 OVC060 A2995 RMK MADISHF
VSF,2017-04-01 21:30,-72.5173,43.3436,M,M,M,0.00,0.00,M,29.96,M,10.00,M,OVC,M,M,M,6500.00,M,M,M,M,KVSF 012130Z AUTO 00000KT 10SM OVC065 A2996 RMK MADISHF
VSF,2017-04-01 21:35,-72.5173,43.3436,M,M,M,0.00,0.00,M,29.96,M,10.00,M,OVC,M,M,M,6500.00,M,M,M,M,KVSF 012135Z AUTO 00000KT 10SM OVC065 A2996 RMK MADISHF
VSF,2017-04-01 21:40,-72.5173,43.3436,M,M,M,0.00,0.00,M,29.97,M,10.00,M,OVC,M,M,M,6000.00,M,M,M,M,KVSF 012140Z AUTO 00000KT 10SM OVC060 A2997 RMK MADISHF
VSF,2017-04-01 21:45,-72.5173,43.3436,M,M,M,0.00,0.00,M,29.97,M,10.00,M,FEW,SCT,OVC,M,2200.00,4500.00,6000.00,M,M,KVSF 012145Z AUTO 00000KT 10SM FEW022 SCT045 OVC060 A2997 RMK MADISHF
VSF,2017-04-01 21:50,-72.5173,43.3436,M,M,M,0.00,0.00,M,M,M,10.00,M,SCT,BKN,OVC,M,1999.00,4600.00,6000.00,M,M,KVSF 012150Z AUTO 00000KT 10SM SCT019 BKN046 OVC060 RMK MADISHF
VSF,2017-04-01 21:54,-72.5173,43.3436,37.00,33.10,85.64,0.00,0.00,0.00,29.97,1015.70,10.00,M,FEW,BKN,OVC,M,2000.00,3800.00,5500.00,M,M,KVSF 012154Z AUTO 00000KT 10SM FEW020 BKN038 OVC055 03/01 A2997 RMK AO2 RAE12 SLP157 P0000 T00280006
VSF,2017-04-01 21:55,-72.5173,43.3436,M,M,M,0.00,0.00,M,29.97,M,10.00,M,FEW,BKN,OVC,M,1999.00,3800.00,5500.00,M,M,KVSF 012155Z AUTO 00000KT 10SM FEW019 BKN038 OVC055 A2997 RMK MADISHF
VSF,2017-04-01 22:00,-72.5173,43.3436,M,M,M,0.00,0.00,M,29.97,M,10.00,M,FEW,SCT,OVC,M,1999.00,3800.00,5500.00,M,M,KVSF 012200Z AUTO 00000KT 10SM FEW019 SCT038 OVC055 A2997 RMK MADISHF
VSF,2017-04-01 22:05,-72.5173,43.3436,M,M,M,0.00,0.00,M,29.97,M,10.00,M,FEW,SCT,OVC,M,1999.00,3800.00,5000.00,M,M,KVSF 012205Z AUTO 00000KT 10SM FEW019 SCT038 OVC050 A2997 RMK MADISHF
VSF,2017-04-01 22:10,-72.5173,43.3436,M,M,M,0.00,0.00,M,29.98,M,10.00,M,FEW,BKN,OVC,M,1999.00,4700.00,5500.00,M,M,KVSF 012210Z AUTO 00000KT 10SM FEW019 BKN047 OVC055 A2998 RMK MADISHF
VSF,2017-04-01 22:15,-72.5173,43.3436,M,M,M,0.00,0.00,M,29.98,M,10.00,M,FEW,BKN,OVC,M,1999.00,4700.00,6000.00,M,M,KVSF 012215Z AUTO 00000KT 10SM FEW019 BKN047 OVC060 A2998 RMK MADISHF
VSF,2017-04-01 22:20,-72.5173,43.3436,M,M,M,0.00,0.00,M,29.98,M,10.00,M,BKN,OVC,M,M,5000.00,6000.00,M,M,M,KVSF 012220Z AUTO 00000KT 10SM BKN050 OVC060 A2998 RMK MADISHF
VSF,2017-04-01 22:25,-72.5173,43.3436,M,M,M,0.00,0.00,M,29.98,M,10.00,M,FEW,OVC,M,M,1800.00,5500.00,M,M,M,KVSF 012225Z AUTO 00000KT 10SM FEW018 OVC055 A2998 RMK MADISHF
VSF,2017-04-01 22:30,-72.5173,43.3436,M,M,M,0.00,0.00,M,29.98,M,10.00,M,FEW,OVC,M,M,1800.00,5500.00,M,M,M,KVSF 012230Z AUTO 00000KT 10SM FEW018 OVC055 A2998 RMK MADISHF
VSF,2017-04-01 22:35,-72.5173,43.3436,M,M,M,0.00,0.00,M,29.97,M,10.00,M,FEW,OVC,M,M,1800.00,5500.00,M,M,M,KVSF 012235Z AUTO 00000KT 10SM FEW018 OVC055 A2997 RMK MADISHF
VSF,2017-04-01 22:40,-72.5173,43.3436,M,M,M,0.00,0.00,M,29.97,M,10.00,M,FEW,OVC,M,M,1800.00,6000.00,M,M,M,KVSF 012240Z AUTO 00000KT 10SM FEW018 OVC060 A2997 RMK MADISHF
VSF,2017-04-01 22:45,-72.5173,43.3436,M,M,M,0.00,0.00,M,29.97,M,10.00,M,FEW,OVC,M,M,1800.00,6000.00,M,M,M,KVSF 012245Z AUTO 00000KT 10SM FEW018 OVC060 A2997 RMK MADISHF
VSF,2017-04-01 22:50,-72.5173,43.3436,M,M,M,0.00,0.00,M,29.97,M,10.00,M,FEW,OVC,M,M,1800.00,6000.00,M,M,M,KVSF 012250Z AUTO 00000KT 10SM FEW018 OVC060 A2997 RMK MADISHF
VSF,2017-04-01 22:54,-72.5173,43.3436,36.00,33.10,89.09,0.00,0.00,0.00,29.97,1015.70,10.00,M,OVC,M,M,M,6000.00,M,M,M,M,KVSF 012254Z AUTO 00000KT 10SM OVC060 02/01 A2997 RMK AO2 SLP157 T00220006
VSF,2017-04-01 22:55,-72.5173,43.3436,M,M,M,0.00,0.00,M,29.97,M,10.00,M,OVC,M,M,M,5500.00,M,M,M,M,KVSF 012255Z AUTO 00000KT 10SM OVC055 A2997 RMK MADISHF
VSF,2017-04-01 23:00,-72.5173,43.3436,M,M,M,0.00,0.00,M,29.97,M,10.00,M,OVC,M,M,M,5500.00,M,M,M,M,KVSF 012300Z AUTO 00000KT 10SM OVC055 A2997 RMK MADISHF
VSF,2017-04-01 23:05,-72.5173,43.3436,M,M,M,0.00,0.00,M,29.98,M,10.00,M,OVC,M,M,M,6000.00,M,M,M,M,KVSF 012305Z AUTO 00000KT 10SM OVC060 A2998 RMK MADISHF
VSF,2017-04-01 23:10,-72.5173,43.3436,M,M,M,0.00,0.00,M,29.98,M,10.00,M,FEW,OVC,M,M,1699.00,6000.00,M,M,M,KVSF 012310Z AUTO 00000KT 10SM FEW016 OVC060 A2998 RMK MADISHF
VSF,2017-04-01 23:15,-72.5173,43.3436,M,M,M,0.00,0.00,M,29.98,M,10.00,M,FEW,OVC,M,M,1699.00,6000.00,M,M,M,KVSF 012315Z AUTO 00000KT 10SM FEW016 OVC060 A2998 RMK MADISHF
VSF,2017-04-01 23:20,-72.5173,43.3436,M,M,M,0.00,0.00,M,29.98,M,10.00,M,FEW,OVC,M,M,1699.00,6000.00,M,M,M,KVSF 012320Z AUTO 00000KT 10SM FEW016 OVC060 A2998 RMK MADISHF
VSF,2017-04-01 23:25,-72.5173,43.3436,M,M,M,0.00,0.00,M,29.98,M,10.00,M,FEW,OVC,M,M,1699.00,6000.00,M,M,M,KVSF 012325Z AUTO 00000KT 10SM FEW016 OVC060 A2998 RMK MADISHF
VSF,2017-04-01 23:30,-72.5173,43.3436,M,M,M,0.00,0.00,M,29.98,M,10.00,M,FEW,OVC,M,M,1699.00,6000.00,M,M,M,KVSF 012330Z AUTO 00000KT 10SM FEW016 OVC060 A2998 RMK MADISHF
VSF,2017-04-01 23:35,-72.5173,43.3436,M,M,M,0.00,0.00,M,29.98,M,10.00,M,SCT,OVC,M,M,1900.00,5500.00,M,M,M,KVSF 012335Z AUTO 00000KT 10SM SCT019 OVC055 A2998 RMK MADISHF
VSF,2017-04-01 23:40,-72.5173,43.3436,M,M,M,0.00,0.00,M,29.98,M,6.00,M,SCT,OVC,M,M,1900.00,5500.00,M,M,BR,KVSF 012340Z AUTO 00000KT 6SM BR SCT019 OVC055 A2998 RMK MADISHF
VSF,2017-04-01 23:45,-72.5173,43.3436,M,M,M,0.00,0.00,M,29.98,M,3.50,M,SCT,OVC,M,M,1900.00,5500.00,M,M,BR,KVSF 012345Z AUTO 00000KT 3SM BR SCT019 OVC055 A2998 RMK MADISHF
VSF,2017-04-01 23:50,-72.5173,43.3436,M,M,M,0.00,0.00,M,29.98,M,5.00,M,SCT,SCT,OVC,M,1900.00,3399.00,5500.00,M,BR,KVSF 012350Z AUTO 00000KT 5SM BR SCT019 SCT033 OVC055 A2998 RMK MADISHF
VSF,2017-04-01 23:54,-72.5173,43.3436,35.10,33.10,92.32,0.00,0.00,0.00,29.98,1015.90,10.00,M,FEW,SCT,OVC,M,1900.00,3400.00,5500.00,M,M,KVSF 012354Z AUTO 00000KT 10SM FEW019 SCT034 OVC055 02/01 A2998 RMK AO2 SLP159 60001 T00170006 10028 20017 51010
VSF,2017-04-01 23:55,-72.5173,43.3436,M,M,M,0.00,0.00,M,M,M,10.00,M,FEW,SCT,OVC,M,1900.00,3399.00,5500.00,M,M,KVSF 012355Z AUTO 00000KT 10SM FEW019 SCT033 OVC055 RMK MADISHF
