#DEBUG: Format Typ    -> comma
#DEBUG: Time Period   -> 2017-04-01 00:00:00+00:00 2017-04-02 00:00:00+00:00
#DEBUG: Time Zone     -> Etc/UTC
#DEBUG: Data Contact   -> daryl herzmann akrherz@iastate.edu 515-294-5978
#DEBUG: Entries Found -> -1
station,valid,lon,lat,tmpf, dwpf, relh, drct, sknt, p01i, alti, mslp, vsby, gust, skyc1, skyc2, skyc3, skyc4, skyl1, skyl2, skyl3, skyl4, presentwx, metar
VUJ,2017-04-01 00:00,-80.1508,35.4167,66.00,45.30,47.16,310.00,5.00,0.00,29.77,M,10.00,M,BKN,BKN,M,M,7000.00,8500.00,M,M,M,KVUJ 010000Z AUTO 31005KT 10SM BKN070 BKN085 19/07 A2977 RMK AO2 T01890074
VUJ,2017-04-01 00:20,-80.1508,35.4167,64.90,44.10,46.81,330.00,6.00,0.00,29.78,M,10.00,M,BKN,BKN,M,M,7000.00,8500.00,M,M,M,KVUJ 010020Z AUTO 33006KT 10SM BKN070 BKN085 18/07 A2978 RMK AO2 LTG DSNT E T01830067
VUJ,2017-04-01 00:40,-80.1508,35.4167,64.40,42.60,44.98,310.00,4.00,0.00,29.79,M,10.00,16.00,SCT,SCT,M,M,7000.00,8500.00,M,M,M,KVUJ 010040Z AUTO 31004G16KT 10SM SCT070 SCT085 18/06 A2979 RMK AO2 LTG DSNT E T01800059
VUJ,2017-04-01 01:00,-80.1508,35.4167,63.50,42.40,46.06,310.00,7.00,0.00,29.80,M,10.00,M,CLR,M,M,M,M,M,M,M,M,KVUJ 010100Z AUTO 31007KT 280V350 10SM CLR 18/06 A2980 RMK AO2 T01750058
VUJ,2017-04-01 01:20,-80.1508,35.4167,62.60,42.40,47.54,310.00,4.00,0.00,29.81,M,10.00,M,SCT,M,M,M,8000.00,M,M,M,M,KVUJ 010120Z AUTO 31004KT 10SM SCT080 17/06 A2981 RMK AO2 T01700058
VUJ,2017-04-01 01:40,-80.1508,35.4167,62.60,42.10,47.00,330.00,11.00,0.00,29.82,M,10.00,17.00,SCT,M,M,M,8000.00,M,M,M,M,KVUJ 010140Z AUTO 33011G17KT 10SM SCT080 17/06 A2982 RMK AO2 T01700056
VUJ,2017-04-01 02:00,-80.1508,35.4167,62.80,41.90,46.31,300.00,5.00,0.00,29.85,M,10.00,16.00,CLR,M,M,M,M,M,M,M,M,KVUJ 010200Z AUTO 30005G16KT 10SM CLR 17/06 A2985 RMK AO2 T01710055
VUJ,2017-04-01 02:20,-80.1508,35.4167,62.40,42.10,47.33,290.00,4.00,0.00,29.86,M,10.00,M,CLR,M,M,M,M,M,M,M,M,KVUJ 010220Z AUTO 29004KT 10SM CLR 17/06 A2986 RMK AO2 T01690056
VUJ,2017-04-01 02:40,-80.1508,35.4167,61.50,41.90,48.48,310.00,4.00,0.00,29.86,M,10.00,M,CLR,M,M,M,M,M,M,M,M,KVUJ 010240Z AUTO 31004KT 10SM CLR 16/06 A2986 RMK AO2 T01640055
VUJ,2017-04-01 03:00,-80.1508,35.4167,61.00,42.30,50.11,310.00,3.00,0.00,29.87,M,10.00,M,CLR,M,M,M,M,M,M,M,M,KVUJ 010300Z AUTO 31003KT 10SM CLR 16/06 A2987 RMK AO2 T01610057
VUJ,2017-04-01 03:20,-80.1508,35.4167,59.90,42.40,52.31,300.00,3.00,0.00,29.87,M,10.00,M,CLR,M,M,M,M,M,M,M,M,KVUJ 010320Z AUTO 30003KT 10SM CLR 16/06 A2987 RMK AO2 T01550058
VUJ,2017-04-01 03:40,-80.1508,35.4167,59.70,42.40,52.69,310.00,5.00,0.00,29.87,M,10.00,M,CLR,M,M,M,M,M,M,M,M,KVUJ 010340Z AUTO 31005KT 10SM CLR 15/06 A2987 RMK AO2 T01540058
VUJ,2017-04-01 04:00,-80.1508,35.4167,59.20,42.30,53.43,270.00,4.00,0.00,29.87,M,10.00,M,CLR,M,M,M,M,M,M,M,M,KVUJ 010400Z AUTO 27004KT 10SM CLR 15/06 A2987 RMK AO2 T01510057
VUJ,2017-04-01 04:20,-80.1508,35.4167,59.20,42.30,53.43,0.00,0.00,0.00,29.88,M,10.00,M,CLR,M,M,M,M,M,M,M,M,KVUJ 010420Z AUTO 00000KT 10SM CLR 15/06 A2988 RMK AO2 LTG DSNT E T01510057
VUJ,2017-04-01 04:40,-80.1508,35.4167,59.00,42.30,53.81,280.00,4.00,0.00,29.88,M,10.00,M,CLR,M,M,M,M,M,M,M,M,KVUJ 010440Z AUTO 28004KT 10SM CLR 15/06 A2988 RMK AO2 T01500057
VUJ,2017-04-01 05:00,-80.1508,35.4167,58.30,42.30,55.18,280.00,4.00,0.00,29.88,M,10.00,M,CLR,M,M,M,M,M,M,M,M,KVUJ 010500Z AUTO 28004KT 10SM CLR 15/06 A2988 RMK AO2 T01460057
VUJ,2017-04-01 05:20,-80.1508,35.4167,58.10,42.30,55.58,290.00,4.00,0.00,29.88,M,10.00,M,CLR,M,M,M,M,M,M,M,M,KVUJ 010520Z AUTO 29004KT 10SM CLR 15/06 A2988 RMK AO2 LTG DSNT E T01450057
VUJ,2017-04-01 05:40,-80.1508,35.4167,57.90,42.40,56.20,0.00,0.00,0.00,29.88,M,10.00,M,CLR,M,M,M,M,M,M,M,M,KVUJ 010540Z AUTO 00000KT 10SM CLR 14/06 A2988 RMK AO2 T01440058
VUJ,2017-04-01 06:00,-80.1508,35.4167,55.80,42.30,60.39,240.00,3.00,0.00,29.89,M,10.00,M,CLR,M,M,M,M,M,M,M,M,KVUJ 010600Z AUTO 24003KT 10SM CLR 13/06 A2989 RMK AO2 T01320057
VUJ,2017-04-01 06:20,-80.1508,35.4167,54.70,42.80,64.07,250.00,3.00,0.00,29.89,M,10.00,M,CLR,M,M,M,M,M,M,M,M,KVUJ 010620Z AUTO 25003KT 10SM CLR 13/06 A2989 RMK AO2 LTG DSNT E T01260060
VUJ,2017-04-01 06:40,-80.1508,35.4167,55.20,42.80,62.92,0.00,0.00,0.00,29.89,M,10.00,M,CLR,M,M,M,M,M,M,M,M,KVUJ 010640Z AUTO 00000KT 10SM CLR 13/06 A2989 RMK AO2 T01290060
VUJ,2017-04-01 07:00,-80.1508,35.4167,51.80,43.30,72.64,0.00,0.00,0.00,29.89,M,10.00,M,CLR,M,M,M,M,M,M,M,M,KVUJ 010700Z AUTO 00000KT 10SM CLR 11/06 A2989 RMK AO2 T01100063
VUJ,2017-04-01 07:20,-80.1508,35.4167,51.80,43.30,72.64,0.00,0.00,0.00,29.89,M,10.00,M,CLR,M,M,M,M,M,M,M,M,KVUJ 010720Z AUTO 00000KT 10SM CLR 11/06 A2989 RMK AO2 T01100063
VUJ,2017-04-01 07:40,-80.1508,35.4167,53.80,43.00,66.72,0.00,0.00,0.00,29.89,M,10.00,M,CLR,M,M,M,M,M,M,M,M,KVUJ 010740Z AUTO 00000KT 10SM CLR 12/06 A2989 RMK AO2 T01210061
VUJ,2017-04-01 08:00,-80.1508,35.4167,54.90,43.30,64.84,320.00,3.00,0.00,29.89,M,10.00,M,CLR,M,M,M,M,M,M,M,M,KVUJ 010800Z AUTO 32003KT 10SM CLR 13/06 A2989 RMK AO2 T01270063
VUJ,2017-04-01 08:20,-80.1508,35.4167,55.40,43.20,63.43,320.00,3.00,0.00,29.90,M,10.00,M,CLR,M,M,M,M,M,M,M,M,KVUJ 010820Z AUTO 32003KT 10SM CLR 13/06 A2990 RMK AO2 T01300062
VUJ,2017-04-01 08:40,-80.1508,35.4167,55.20,43.20,63.89,310.00,3.00,0.00,29.91,M,10.00,M,CLR,M,M,M,M,M,M,M,M,KVUJ 010840Z AUTO 31003KT 10SM CLR 13/06 A2991 RMK AO2 LTG DSNT W T01290062
VUJ,2017-04-01 09:00,-80.1508,35.4167,54.30,43.20,66.02,0.00,0.00,0.00,29.91,M,10.00,M,CLR,M,M,M,M,M,M,M,M,KVUJ 010900Z AUTO 00000KT 10SM CLR 12/06 A2991 RMK AO2 T01240062
VUJ,2017-04-01 09:20,-80.1508,35.4167,50.70,43.70,76.83,0.00,0.00,0.00,29.91,M,10.00,M,CLR,M,M,M,M,M,M,M,M,KVUJ 010920Z AUTO 00000KT 10SM CLR 10/07 A2991 RMK AO2 T01040065
VUJ,2017-04-01 09:40,-80.1508,35.4167,49.10,43.70,81.54,0.00,0.00,0.00,29.92,M,10.00,M,CLR,M,M,M,M,M,M,M,M,KVUJ 010940Z AUTO 00000KT 10SM CLR 10/07 A2992 RMK AO2 LTG DSNT E T00950065
VUJ,2017-04-01 10:00,-80.1508,35.4167,52.70,42.80,68.94,0.00,0.00,0.00,29.92,M,10.00,M,CLR,M,M,M,M,M,M,M,M,KVUJ 011000Z AUTO 00000KT 10SM CLR 12/06 A2992 RMK AO2 T01150060
VUJ,2017-04-01 10:20,-80.1508,35.4167,52.00,42.80,70.74,0.00,0.00,0.00,29.93,M,10.00,M,CLR,M,M,M,M,M,M,M,M,KVUJ 011020Z AUTO 00000KT 10SM CLR 11/06 A2993 RMK AO2 T01110060
VUJ,2017-04-01 10:40,-80.1508,35.4167,51.30,42.30,71.21,0.00,0.00,0.00,29.94,M,10.00,M,CLR,M,M,M,M,M,M,M,M,KVUJ 011040Z AUTO 00000KT 10SM CLR 11/06 A2994 RMK AO2 T01070057
VUJ,2017-04-01 11:00,-80.1508,35.4167,48.70,42.60,79.35,0.00,0.00,0.00,29.95,M,10.00,M,CLR,M,M,M,M,M,M,M,M,KVUJ 011100Z AUTO 00000KT 10SM CLR 09/06 A2995 RMK AO2 T00930059
VUJ,2017-04-01 11:20,-80.1508,35.4167,46.60,42.80,86.53,0.00,0.00,0.00,29.96,M,10.00,M,CLR,M,M,M,M,M,M,M,M,KVUJ 011120Z AUTO 00000KT 10SM CLR 08/06 A2996 RMK AO2 T00810060
VUJ,2017-04-01 11:40,-80.1508,35.4167,48.90,44.10,83.42,0.00,0.00,0.00,29.97,M,10.00,M,CLR,M,M,M,M,M,M,M,M,KVUJ 011140Z AUTO 00000KT 10SM CLR 09/07 A2997 RMK AO2 T00940067
VUJ,2017-04-01 12:00,-80.1508,35.4167,49.30,45.90,88.00,0.00,0.00,0.00,29.98,M,10.00,M,CLR,M,M,M,M,M,M,M,M,KVUJ 011200Z AUTO 00000KT 10SM CLR 10/08 A2998 RMK AO2 T00960077
VUJ,2017-04-01 12:20,-80.1508,35.4167,54.30,45.70,72.62,0.00,0.00,0.00,29.99,M,10.00,M,CLR,M,M,M,M,M,M,M,M,KVUJ 011220Z AUTO 00000KT 10SM CLR 12/08 A2999 RMK AO2 LTG DSNT E T01240076
VUJ,2017-04-01 12:40,-80.1508,35.4167,56.80,45.50,65.82,340.00,5.00,0.00,30.00,M,10.00,M,CLR,M,M,M,M,M,M,M,M,KVUJ 011240Z AUTO 34005KT 10SM CLR 14/08 A3000 RMK AO2 T01380075
VUJ,2017-04-01 13:00,-80.1508,35.4167,58.10,44.80,61.16,340.00,7.00,0.00,30.00,M,10.00,M,CLR,M,M,M,M,M,M,M,M,KVUJ 011300Z AUTO 34007KT 10SM CLR 15/07 A3000 RMK AO2 T01450071
VUJ,2017-04-01 13:20,-80.1508,35.4167,59.50,45.10,58.84,340.00,6.00,0.00,30.00,M,10.00,M,CLR,M,M,M,M,M,M,M,M,KVUJ 011320Z AUTO 34006KT 10SM CLR 15/07 A3000 RMK AO2 T01530073
VUJ,2017-04-01 13:40,-80.1508,35.4167,61.00,44.80,55.15,310.00,9.00,0.00,30.00,M,10.00,17.00,CLR,M,M,M,M,M,M,M,M,KVUJ 011340Z AUTO 31009G17KT 10SM CLR 16/07 A3000 RMK AO2 T01610071
VUJ,2017-04-01 14:00,-80.1508,35.4167,61.50,44.10,52.75,330.00,12.00,0.00,30.01,M,10.00,20.00,CLR,M,M,M,M,M,M,M,M,KVUJ 011400Z AUTO 33012G20KT 10SM CLR 16/07 A3001 RMK AO2 T01640067
VUJ,2017-04-01 14:20,-80.1508,35.4167,62.60,44.80,52.11,310.00,10.00,0.00,30.01,M,10.00,16.00,CLR,M,M,M,M,M,M,M,M,KVUJ 011420Z AUTO 31010G16KT 10SM CLR 17/07 A3001 RMK AO2 T01700071
VUJ,2017-04-01 14:40,-80.1508,35.4167,63.00,44.40,50.61,320.00,8.00,0.00,30.02,M,10.00,14.00,CLR,M,M,M,M,M,M,M,M,KVUJ 011440Z AUTO 32008G14KT 10SM CLR 17/07 A3002 RMK AO2 T01720069
VUJ,2017-04-01 15:00,-80.1508,35.4167,63.90,44.60,49.41,350.00,11.00,0.00,30.02,M,10.00,16.00,CLR,M,M,M,M,M,M,M,M,KVUJ 011500Z AUTO 35011G16KT 10SM CLR 18/07 A3002 RMK AO2 T01770070
VUJ,2017-04-01 15:20,-80.1508,35.4167,64.40,45.30,49.86,330.00,10.00,0.00,30.02,M,10.00,17.00,CLR,M,M,M,M,M,M,M,M,KVUJ 011520Z AUTO 33010G17KT 10SM CLR 18/07 A3002 RMK AO2 T01800074
VUJ,2017-04-01 15:40,-80.1508,35.4167,64.90,45.70,49.75,320.00,4.00,0.00,30.03,M,10.00,M,CLR,M,M,M,M,M,M,M,M,KVUJ 011540Z AUTO 32004KT 300V010 10SM CLR 18/08 A3003 RMK AO2 T01830076
VUJ,2017-04-01 16:00,-80.1508,35.4167,66.20,46.00,48.09,340.00,10.00,0.00,30.03,M,10.00,M,CLR,M,M,M,M,M,M,M,M,KVUJ 011600Z AUTO 34010KT 320V020 10SM CLR 19/08 A3003 RMK AO2 T01900078
VUJ,2017-04-01 16:20,-80.1508,35.4167,66.60,45.70,46.89,300.00,7.00,0.00,30.02,M,10.00,M,CLR,M,M,M,M,M,M,M,M,KVUJ 011620Z AUTO 30007KT 10SM CLR 19/08 A3002 RMK AO2 T01920076
VUJ,2017-04-01 16:40,-80.1508,35.4167,67.10,45.50,45.74,330.00,6.00,0.00,30.02,M,10.00,16.00,CLR,M,M,M,M,M,M,M,M,KVUJ 011640Z AUTO 33006G16KT 10SM CLR 20/08 A3002 RMK AO2 T01950075
VUJ,2017-04-01 17:00,-80.1508,35.4167,67.80,46.00,45.50,340.00,7.00,0.00,30.02,M,10.00,M,CLR,M,M,M,M,M,M,M,M,KVUJ 011700Z AUTO 34007KT 10SM CLR 20/08 A3002 RMK AO2 T01990078
VUJ,2017-04-01 17:20,-80.1508,35.4167,69.60,46.90,44.26,290.00,7.00,0.00,30.02,M,10.00,15.00,CLR,M,M,M,M,M,M,M,M,KVUJ 011720Z AUTO 29007G15KT 10SM CLR 21/08 A3002 RMK AO2 T02090083
VUJ,2017-04-01 17:40,-80.1508,35.4167,69.40,46.60,44.06,330.00,7.00,0.00,30.02,M,10.00,14.00,CLR,M,M,M,M,M,M,M,M,KVUJ 011740Z AUTO 33007G14KT 10SM CLR 21/08 A3002 RMK AO2 T02080081
VUJ,2017-04-01 18:00,-80.1508,35.4167,70.20,46.00,41.91,290.00,4.00,0.00,30.02,M,10.00,16.00,CLR,M,M,M,M,M,M,M,M,KVUJ 011800Z AUTO 29004G16KT 10SM CLR 21/08 A3002 RMK AO2 T02120078
VUJ,2017-04-01 18:20,-80.1508,35.4167,70.50,47.10,43.24,300.00,5.00,0.00,30.01,M,10.00,M,CLR,M,M,M,M,M,M,M,M,KVUJ 011820Z AUTO 30005KT 10SM CLR 21/08 A3001 RMK AO2 T02140084
VUJ,2017-04-01 18:40,-80.1508,35.4167,71.10,45.90,40.49,290.00,4.00,0.00,30.01,M,10.00,16.00,CLR,M,M,M,M,M,M,M,M,KVUJ 011840Z AUTO 29004G16KT 10SM CLR 22/08 A3001 RMK AO2 T02170077
VUJ,2017-04-01 19:00,-80.1508,35.4167,71.60,46.90,41.34,340.00,10.00,0.00,30.00,M,10.00,M,CLR,M,M,M,M,M,M,M,M,KVUJ 011900Z AUTO 34010KT 10SM CLR 22/08 A3000 RMK AO2 T02200083
VUJ,2017-04-01 19:20,-80.1508,35.4167,72.50,45.90,38.62,350.00,9.00,0.00,29.99,M,10.00,16.00,CLR,M,M,M,M,M,M,M,M,KVUJ 011920Z AUTO 35009G16KT 10SM CLR 23/08 A2999 RMK AO2 T02250077
VUJ,2017-04-01 19:40,-80.1508,35.4167,72.50,46.40,39.35,350.00,9.00,0.00,29.99,M,10.00,M,CLR,M,M,M,M,M,M,M,M,KVUJ 011940Z AUTO 35009KT 320V020 10SM CLR 23/08 A2999 RMK AO2 T02250080
VUJ,2017-04-01 20:00,-80.1508,35.4167,72.90,45.90,38.10,320.00,6.00,0.00,29.99,M,10.00,M,CLR,M,M,M,M,M,M,M,M,KVUJ 012000Z AUTO 32006KT 300V360 10SM CLR 23/08 A2999 RMK AO2 T02270077
VUJ,2017-04-01 20:20,-80.1508,35.4167,72.90,45.50,37.53,310.00,8.00,0.00,29.98,M,10.00,M,CLR,M,M,M,M,M,M,M,M,KVUJ 012020Z AUTO 31008KT 10SM CLR 23/08 A2998 RMK AO2 T02270075
VUJ,2017-04-01 20:40,-80.1508,35.4167,73.20,45.00,36.45,340.00,4.00,0.00,29.98,M,10.00,M,CLR,M,M,M,M,M,M,M,M,KVUJ 012040Z AUTO 34004KT 10SM CLR 23/07 A2998 RMK AO2 T02290072
VUJ,2017-04-01 21:00,-80.1508,35.4167,73.20,45.30,36.87,340.00,6.00,0.00,29.99,M,10.00,M,CLR,M,M,M,M,M,M,M,M,KVUJ 012100Z AUTO 34006KT 10SM CLR 23/07 A2999 RMK AO2 T02290074
VUJ,2017-04-01 21:20,-80.1508,35.4167,73.20,45.70,37.43,330.00,6.00,0.00,30.00,M,10.00,M,CLR,M,M,M,M,M,M,M,M,KVUJ 012120Z AUTO 33006KT 10SM CLR 23/08 A3000 RMK AO2 T02290076
VUJ,2017-04-01 21:40,-80.1508,35.4167,72.90,45.30,37.24,350.00,7.00,0.00,30.00,M,10.00,M,CLR,M,M,M,M,M,M,M,M,KVUJ 012140Z AUTO 35007KT 310V010 10SM CLR 23/07 A3000 RMK AO2 T02270074
VUJ,2017-04-01 22:00,-80.1508,35.4167,72.50,45.10,37.46,20.00,5.00,0.00,30.00,M,10.00,M,CLR,M,M,M,M,M,M,M,M,KVUJ 012200Z AUTO 02005KT 10SM CLR 23/07 A3000 RMK AO2 T02250073
VUJ,2017-04-01 22:20,-80.1508,35.4167,72.30,45.50,38.29,360.00,6.00,0.00,30.01,M,10.00,M,CLR,M,M,M,M,M,M,M,M,KVUJ 012220Z AUTO 36006KT 10SM CLR 22/08 A3001 RMK AO2 T02240075
VUJ,2017-04-01 22:40,-80.1508,35.4167,71.80,45.10,38.36,360.00,9.00,0.00,30.02,M,10.00,M,CLR,M,M,M,M,M,M,M,M,KVUJ 012240Z AUTO 36009KT 10SM CLR 22/07 A3002 RMK AO2 T02210073
VUJ,2017-04-01 23:00,-80.1508,35.4167,70.70,45.10,39.82,330.00,6.00,0.00,30.03,M,10.00,M,CLR,M,M,M,M,M,M,M,M,KVUJ 012300Z AUTO 33006KT 10SM CLR 22/07 A3003 RMK AO2 T02150073
VUJ,2017-04-01 23:20,-80.1508,35.4167,69.10,43.50,39.57,350.00,8.00,0.00,30.04,M,10.00,M,CLR,M,M,M,M,M,M,M,M,KVUJ 012320Z AUTO 35008KT 10SM CLR 21/06 A3004 RMK AO2 T02060064
VUJ,2017-04-01 23:40,-80.1508,35.4167,67.60,42.30,39.78,330.00,5.00,0.00,30.05,M,10.00,M,CLR,M,M,M,M,M,M,M,M,KVUJ 012340Z AUTO 33005KT 10SM CLR 20/06 A3005 RMK AO2 T01980057
