#DEBUG: Format Typ    -> comma
#DEBUG: Time Period   -> 2017-04-01 00:00:00+00:00 2017-04-02 00:00:00+00:00
#DEBUG: Time Zone     -> Etc/UTC
#DEBUG: Data Contact   -> daryl herzmann akrherz@iastate.edu 515-294-5978
#DEBUG: Entries Found -> -1
station,valid,lon,lat,tmpf, dwpf, relh, drct, sknt, p01i, alti, mslp, vsby, gust, skyc1, skyc2, skyc3, skyc4, skyl1, skyl2, skyl3, skyl4, presentwx, metar
W81,2017-04-01 00:10,-78.0983,37.1810,57.70,57.70,100.00,320.00,4.00,0.00,29.66,M,10.00,M,OVC,M,M,M,700.00,M,M,M,M,KW81 010010Z AUTO 32004KT 10SM OVC007 14/14 A2966 RMK AO1 T01430143
W81,2017-04-01 00:30,-78.0983,37.1810,57.40,57.40,100.00,0.00,0.00,0.00,29.67,M,10.00,M,BKN,OVC,M,M,700.00,8500.00,M,M,M,KW81 010030Z AUTO 00000KT 10SM BKN007 OVC085 14/14 A2967 RMK AO1 T01410141
W81,2017-04-01 00:50,-78.0983,37.1810,57.20,57.20,100.00,0.00,0.00,0.00,29.66,M,10.00,M,SCT,SCT,BKN,M,700.00,8500.00,12000.00,M,M,KW81 010050Z AUTO 00000KT 10SM SCT007 SCT085 BKN120 14/14 A2966 RMK AO1 T01400140
W81,2017-04-01 01:10,-78.0983,37.1810,56.10,56.10,100.00,320.00,4.00,0.00,29.67,M,10.00,M,BKN,BKN,M,M,8500.00,12000.00,M,M,M,KW81 010110Z AUTO 32004KT 10SM BKN085 BKN120 13/13 A2967 RMK AO1 T01340134
W81,2017-04-01 01:30,-78.0983,37.1810,56.30,56.30,100.00,270.00,4.00,0.00,29.69,M,10.00,M,OVC,M,M,M,8500.00,M,M,M,M,KW81 010130Z AUTO 27004KT 10SM OVC085 14/14 A2969 RMK AO1 T01350135
W81,2017-04-01 01:50,-78.0983,37.1810,56.80,56.80,100.00,260.00,4.00,0.00,29.69,M,10.00,M,BKN,OVC,M,M,7500.00,9000.00,M,M,M,KW81 010150Z AUTO 26004KT 10SM BKN075 OVC090 14/14 A2969 RMK AO1 T01380138
W81,2017-04-01 02:10,-78.0983,37.1810,56.80,56.80,100.00,260.00,4.00,0.00,29.69,M,10.00,M,SCT,OVC,M,M,7500.00,9500.00,M,M,M,KW81 010210Z AUTO 26004KT 10SM SCT075 OVC095 14/14 A2969 RMK AO1 T01380138
W81,2017-04-01 02:30,-78.0983,37.1810,57.40,57.40,100.00,270.00,6.00,0.00,29.69,M,10.00,M,OVC,M,M,M,9500.00,M,M,M,M,KW81 010230Z AUTO 27006KT 10SM OVC095 14/14 A2969 RMK AO1 T01410141
W81,2017-04-01 02:50,-78.0983,37.1810,56.80,55.90,96.80,280.00,5.00,0.00,29.69,M,10.00,M,SCT,BKN,BKN,M,7500.00,9500.00,12000.00,M,M,KW81 010250Z AUTO 28005KT 10SM SCT075 BKN095 BKN120 14/13 A2969 RMK AO1 T01380133
W81,2017-04-01 03:10,-78.0983,37.1810,55.90,54.10,93.66,290.00,4.00,0.00,29.70,M,10.00,M,SCT,BKN,M,M,7500.00,12000.00,M,M,M,KW81 010310Z AUTO 29004KT 10SM SCT075 BKN120 13/12 A2970 RMK AO1 T01330123
W81,2017-04-01 03:30,-78.0983,37.1810,55.40,52.50,89.94,260.00,6.00,0.00,29.70,M,10.00,M,SCT,M,M,M,12000.00,M,M,M,M,KW81 010330Z AUTO 26006KT 10SM SCT120 13/11 A2970 RMK AO1 T01300114
W81,2017-04-01 03:50,-78.0983,37.1810,55.40,51.10,85.41,270.00,6.00,0.00,29.71,M,10.00,M,CLR,M,M,M,M,M,M,M,M,KW81 010350Z AUTO 27006KT 10SM CLR 13/11 A2971 RMK AO1 T01300106
W81,2017-04-01 04:10,-78.0983,37.1810,55.20,50.40,83.83,270.00,7.00,0.00,29.72,M,10.00,M,CLR,M,M,M,M,M,M,M,M,KW81 010410Z AUTO 27007KT 10SM CLR 13/10 A2972 RMK AO1 T01290102
W81,2017-04-01 04:30,-78.0983,37.1810,54.50,50.90,87.60,260.00,6.00,0.00,29.72,M,10.00,M,CLR,M,M,M,M,M,M,M,M,KW81 010430Z AUTO 26006KT 10SM CLR 13/11 A2972 RMK AO1 T01250105
W81,2017-04-01 04:50,-78.0983,37.1810,54.10,51.10,89.55,270.00,5.00,0.00,29.72,M,10.00,M,CLR,M,M,M,M,M,M,M,M,KW81 010450Z AUTO 27005KT 10SM CLR 12/11 A2972 RMK AO1 T01230106 402130100
W81,2017-04-01 05:10,-78.0983,37.1810,54.10,49.80,85.33,280.00,4.00,0.00,29.72,M,10.00,M,CLR,M,M,M,M,M,M,M,M,KW81 010510Z AUTO 28004KT 10SM CLR 12/10 A2972 RMK AO1 T01230099
W81,2017-04-01 05:30,-78.0983,37.1810,54.00,49.30,84.07,270.00,5.00,0.00,29.72,M,10.00,M,CLR,M,M,M,M,M,M,M,M,KW81 010530Z AUTO 27005KT 10SM CLR 12/10 A2972 RMK AO1 T01220096
W81,2017-04-01 05:50,-78.0983,37.1810,53.60,49.30,85.30,270.00,4.00,0.00,29.72,M,10.00,M,CLR,M,M,M,M,M,M,M,M,KW81 010550Z AUTO 27004KT 10SM CLR 12/10 A2972 RMK AO1 T01200096 10143 20119
W81,2017-04-01 06:10,-78.0983,37.1810,52.50,50.00,91.17,0.00,0.00,0.00,29.71,M,10.00,M,CLR,M,M,M,M,M,M,M,M,KW81 010610Z AUTO 00000KT 10SM CLR 11/10 A2971 RMK AO1 T01140100
W81,2017-04-01 06:30,-78.0983,37.1810,52.20,50.00,92.18,260.00,3.00,0.00,29.72,M,10.00,M,CLR,M,M,M,M,M,M,M,M,KW81 010630Z AUTO 26003KT 10SM CLR 11/10 A2972 RMK AO1 T01120100
W81,2017-04-01 06:50,-78.0983,37.1810,52.50,49.50,89.48,260.00,4.00,0.00,29.72,M,10.00,M,CLR,M,M,M,M,M,M,M,M,KW81 010650Z AUTO 26004KT 10SM CLR 11/10 A2972 RMK AO1 T01140097
W81,2017-04-01 07:10,-78.0983,37.1810,51.80,49.50,91.82,240.00,3.00,0.00,29.72,M,10.00,M,CLR,M,M,M,M,M,M,M,M,KW81 010710Z AUTO 24003KT 10SM CLR 11/10 A2972 RMK AO1 T01100097
W81,2017-04-01 07:30,-78.0983,37.1810,51.10,50.00,96.00,0.00,0.00,0.00,29.73,M,10.00,M,CLR,M,M,M,M,M,M,M,M,KW81 010730Z AUTO 00000KT 10SM CLR 11/10 A2973 RMK AO1 T01060100
W81,2017-04-01 07:50,-78.0983,37.1810,49.80,49.60,99.26,0.00,0.00,0.00,29.74,M,10.00,M,CLR,M,M,M,M,M,M,M,M,KW81 010750Z AUTO 00000KT 10SM CLR 10/10 A2974 RMK AO1 T00990098
W81,2017-04-01 08:10,-78.0983,37.1810,50.00,50.00,100.00,0.00,0.00,0.00,29.74,M,10.00,M,CLR,M,M,M,M,M,M,M,M,KW81 010810Z AUTO 00000KT 10SM CLR 10/10 A2974 RMK AO1 T01000100
W81,2017-04-01 08:30,-78.0983,37.1810,50.00,50.00,100.00,0.00,0.00,0.00,29.75,M,10.00,M,CLR,M,M,M,M,M,M,M,M,KW81 010830Z AUTO 00000KT 10SM CLR 10/10 A2975 RMK AO1 T01000100
W81,2017-04-01 08:50,-78.0983,37.1810,50.20,50.20,100.00,250.00,4.00,0.00,29.76,M,10.00,M,CLR,M,M,M,M,M,M,M,M,KW81 010850Z AUTO 25004KT 10SM CLR 10/10 A2976 RMK AO1 T01010101
W81,2017-04-01 09:10,-78.0983,37.1810,50.40,50.40,100.00,260.00,3.00,0.00,29.77,M,10.00,M,CLR,M,M,M,M,M,M,M,M,KW81 010910Z AUTO 26003KT 10SM CLR 10/10 A2977 RMK AO1 T01020102
W81,2017-04-01 09:30,-78.0983,37.1810,51.10,50.20,96.72,270.00,3.00,0.00,29.77,M,10.00,M,CLR,M,M,M,M,M,M,M,M,KW81 010930Z AUTO 27003KT 10SM CLR 11/10 A2977 RMK AO1 T01060101
W81,2017-04-01 09:50,-78.0983,37.1810,51.60,50.00,94.24,270.00,5.00,0.00,29.78,M,10.00,M,CLR,M,M,M,M,M,M,M,M,KW81 010950Z AUTO 27005KT 10SM CLR 11/10 A2978 RMK AO1 T01090100
W81,2017-04-01 10:10,-78.0983,37.1810,52.00,49.50,91.15,270.00,4.00,0.00,29.78,M,10.00,M,CLR,M,M,M,M,M,M,M,M,KW81 011010Z AUTO 27004KT 10SM CLR 11/10 A2978 RMK AO1 T01110097
W81,2017-04-01 10:30,-78.0983,37.1810,52.90,49.10,86.87,280.00,4.00,0.00,29.79,M,10.00,M,CLR,M,M,M,M,M,M,M,M,KW81 011030Z AUTO 28004KT 10SM CLR 12/10 A2979 RMK AO1 T01160095
W81,2017-04-01 10:50,-78.0983,37.1810,52.70,49.30,88.17,280.00,4.00,0.00,29.81,M,10.00,M,CLR,M,M,M,M,M,M,M,M,KW81 011050Z AUTO 28004KT 10SM CLR 12/10 A2981 RMK AO1 T01150096
W81,2017-04-01 11:10,-78.0983,37.1810,52.70,49.50,88.83,280.00,3.00,0.00,29.81,M,10.00,M,CLR,M,M,M,M,M,M,M,M,KW81 011110Z AUTO 28003KT 10SM CLR 12/10 A2981 RMK AO1 T01150097
W81,2017-04-01 11:30,-78.0983,37.1810,53.10,49.80,88.52,0.00,0.00,0.00,29.83,M,10.00,M,CLR,M,M,M,M,M,M,M,M,KW81 011130Z AUTO 00000KT 10SM CLR 12/10 A2983 RMK AO1 T01170099
W81,2017-04-01 11:50,-78.0983,37.1810,54.50,49.30,82.54,280.00,5.00,0.00,29.84,M,10.00,M,CLR,M,M,M,M,M,M,M,M,KW81 011150Z AUTO 28005KT 10SM CLR 13/10 A2984 RMK AO1 70090 T01250096 10125 20099
W81,2017-04-01 12:10,-78.0983,37.1810,55.80,49.10,78.15,290.00,4.00,0.00,29.84,M,10.00,M,CLR,M,M,M,M,M,M,M,M,KW81 011210Z AUTO 29004KT 10SM CLR 13/10 A2984 RMK AO1 T01320095
W81,2017-04-01 12:30,-78.0983,37.1810,57.40,48.70,72.66,280.00,5.00,0.00,29.85,M,10.00,M,CLR,M,M,M,M,M,M,M,M,KW81 011230Z AUTO 28005KT 10SM CLR 14/09 A2985 RMK AO1 T01410093
W81,2017-04-01 12:50,-78.0983,37.1810,59.00,48.90,69.12,290.00,8.00,0.00,29.87,M,10.00,M,CLR,M,M,M,M,M,M,M,M,KW81 011250Z AUTO 29008KT 10SM CLR 15/09 A2987 RMK AO1 T01500094
W81,2017-04-01 13:10,-78.0983,37.1810,61.00,49.60,66.07,310.00,8.00,0.00,29.87,M,10.00,M,CLR,M,M,M,M,M,M,M,M,KW81 011310Z AUTO 31008KT 10SM CLR 16/10 A2987 RMK AO1 T01610098
W81,2017-04-01 13:30,-78.0983,37.1810,61.90,48.70,61.89,300.00,7.00,0.00,29.88,M,10.00,M,CLR,M,M,M,M,M,M,M,M,KW81 011330Z AUTO 30007KT 10SM CLR 17/09 A2988 RMK AO1 T01660093
W81,2017-04-01 13:50,-78.0983,37.1810,63.10,48.70,59.32,320.00,8.00,0.00,29.88,M,10.00,M,CLR,M,M,M,M,M,M,M,M,KW81 011350Z AUTO 32008KT 10SM CLR 17/09 A2988 RMK AO1 T01730093
W81,2017-04-01 14:10,-78.0983,37.1810,63.70,47.80,56.16,340.00,8.00,0.00,29.89,M,10.00,16.00,CLR,M,M,M,M,M,M,M,M,KW81 011410Z AUTO 34008G16KT 10SM CLR 18/09 A2989 RMK AO1 T01760088
W81,2017-04-01 14:30,-78.0983,37.1810,64.00,47.50,54.95,300.00,6.00,0.00,29.89,M,10.00,M,CLR,M,M,M,M,M,M,M,M,KW81 011430Z AUTO 30006KT 10SM CLR 18/09 A2989 RMK AO1 T01780086
W81,2017-04-01 14:50,-78.0983,37.1810,64.40,46.80,52.78,320.00,5.00,0.00,29.89,M,10.00,14.00,CLR,M,M,M,M,M,M,M,M,KW81 011450Z AUTO 32005G14KT 10SM CLR 18/08 A2989 RMK AO1 T01800082
W81,2017-04-01 15:10,-78.0983,37.1810,66.60,48.20,51.53,M,M,0.00,29.90,M,10.00,M,SCT,M,M,M,4400.00,M,M,M,M,KW81 011510Z AUTO 10SM SCT044 19/09 A2990 RMK AO1 T01920090
W81,2017-04-01 15:30,-78.0983,37.1810,67.30,48.90,51.63,310.00,6.00,0.00,29.91,M,10.00,M,SCT,M,M,M,4400.00,M,M,M,M,KW81 011530Z AUTO 31006KT 10SM SCT044 20/09 A2991 RMK AO1 T01960094
W81,2017-04-01 15:50,-78.0983,37.1810,65.50,47.80,52.74,300.00,7.00,0.00,29.91,M,10.00,M,SCT,M,M,M,4600.00,M,M,M,M,KW81 011550Z AUTO 30007KT 270V330 10SM SCT046 19/09 A2991 RMK AO1 T01860088
W81,2017-04-01 16:10,-78.0983,37.1810,66.60,47.10,49.44,280.00,6.00,0.00,29.91,M,10.00,14.00,BKN,M,M,M,4600.00,M,M,M,M,KW81 011610Z AUTO 28006G14KT 10SM BKN046 19/08 A2991 RMK AO1 T01920084
W81,2017-04-01 16:30,-78.0983,37.1810,68.20,47.70,47.85,350.00,8.00,0.00,29.90,M,10.00,M,BKN,M,M,M,5000.00,M,M,M,M,KW81 011630Z AUTO 35008KT 10SM BKN050 20/09 A2990 RMK AO1 T02010087
W81,2017-04-01 16:50,-78.0983,37.1810,68.90,47.70,46.72,310.00,7.00,0.00,29.91,M,10.00,M,BKN,M,M,M,5000.00,M,M,M,M,KW81 011650Z AUTO 31007KT 280V350 10SM BKN050 21/09 A2991 RMK AO1 T02050087
W81,2017-04-01 17:10,-78.0983,37.1810,68.90,47.80,46.89,290.00,4.00,0.00,29.91,M,10.00,8.00,OVC,M,M,M,5000.00,M,M,M,M,KW81 011710Z AUTO 29004G08KT 10SM OVC050 21/09 A2991 RMK AO1 T02050088
W81,2017-04-01 17:30,-78.0983,37.1810,68.40,46.60,45.60,310.00,3.00,0.00,29.90,M,10.00,M,OVC,M,M,M,6000.00,M,M,M,M,KW81 011730Z AUTO 31003KT 10SM OVC060 20/08 A2990 RMK AO1 T02020081
W81,2017-04-01 17:50,-78.0983,37.1810,71.10,47.30,42.69,280.00,12.00,0.00,29.90,M,10.00,15.00,BKN,M,M,M,6000.00,M,M,M,M,KW81 011750Z AUTO 28012G15KT 10SM BKN060 22/09 A2990 RMK AO1 T02170085 10217 20127
W81,2017-04-01 18:10,-78.0983,37.1810,69.80,46.20,42.81,280.00,8.00,0.00,29.90,M,10.00,15.00,BKN,M,M,M,6500.00,M,M,M,M,KW81 011810Z AUTO 28008G15KT 10SM BKN065 21/08 A2990 RMK AO1 T02100079
W81,2017-04-01 18:30,-78.0983,37.1810,69.60,45.90,42.62,300.00,5.00,0.00,29.90,M,10.00,M,OVC,M,M,M,6000.00,M,M,M,M,KW81 011830Z AUTO 30005KT 10SM OVC060 21/08 A2990 RMK AO1 T02090077
W81,2017-04-01 18:50,-78.0983,37.1810,71.60,46.60,40.88,290.00,8.00,0.00,29.90,M,10.00,17.00,BKN,M,M,M,6000.00,M,M,M,M,KW81 011850Z AUTO 29008G17KT 10SM BKN060 22/08 A2990 RMK AO1 T02200081
W81,2017-04-01 19:10,-78.0983,37.1810,70.50,46.40,42.12,300.00,11.00,0.00,29.89,M,10.00,M,BKN,M,M,M,6000.00,M,M,M,M,KW81 011910Z AUTO 30011KT 10SM BKN060 21/08 A2989 RMK AO1 T02140080
W81,2017-04-01 19:30,-78.0983,37.1810,71.10,45.70,40.19,280.00,8.00,0.00,29.89,M,10.00,M,BKN,M,M,M,6000.00,M,M,M,M,KW81 011930Z AUTO 28008KT 10SM BKN060 22/08 A2989 RMK AO1 T02170076
W81,2017-04-01 19:50,-78.0983,37.1810,72.10,46.40,39.89,310.00,8.00,0.00,29.89,M,10.00,15.00,SCT,M,M,M,6000.00,M,M,M,M,KW81 011950Z AUTO 31008G15KT 280V340 10SM SCT060 22/08 A2989 RMK AO1 T02230080
W81,2017-04-01 20:10,-78.0983,37.1810,72.00,45.10,38.10,300.00,10.00,0.00,29.90,M,10.00,M,SCT,M,M,M,6000.00,M,M,M,M,KW81 012010Z AUTO 30010KT 270V330 10SM SCT060 22/07 A2990 RMK AO1 T02220073
W81,2017-04-01 20:30,-78.0983,37.1810,70.70,46.00,41.20,320.00,10.00,0.00,29.90,M,10.00,M,SCT,M,M,M,6000.00,M,M,M,M,KW81 012030Z AUTO 32010KT 10SM SCT060 22/08 A2990 RMK AO1 T02150078
W81,2017-04-01 20:50,-78.0983,37.1810,71.60,45.50,39.21,280.00,8.00,0.00,29.90,M,10.00,M,BKN,M,M,M,6000.00,M,M,M,M,KW81 012050Z AUTO 28008KT 10SM BKN060 22/08 A2990 RMK AO1 T02200075
W81,2017-04-01 21:10,-78.0983,37.1810,71.40,45.00,38.74,300.00,6.00,0.00,29.91,M,10.00,M,SCT,M,M,M,6000.00,M,M,M,M,KW81 012110Z AUTO 30006KT 10SM SCT060 22/07 A2991 RMK AO1 T02190072
W81,2017-04-01 21:30,-78.0983,37.1810,71.10,44.80,38.84,280.00,7.00,0.00,29.91,M,10.00,14.00,SCT,M,M,M,6000.00,M,M,M,M,KW81 012130Z AUTO 28007G14KT 10SM SCT060 22/07 A2991 RMK AO1 T02170071
W81,2017-04-01 21:50,-78.0983,37.1810,70.90,45.70,40.46,350.00,7.00,0.00,29.92,M,10.00,M,BKN,M,M,M,6000.00,M,M,M,M,KW81 012150Z AUTO 35007KT 310V010 10SM BKN060 22/08 A2992 RMK AO1 T02160076
W81,2017-04-01 22:10,-78.0983,37.1810,69.10,45.70,43.03,10.00,6.00,0.00,29.93,M,10.00,M,OVC,M,M,M,6000.00,M,M,M,M,KW81 012210Z AUTO 01006KT 10SM OVC060 21/08 A2993 RMK AO1 T02060076
W81,2017-04-01 22:30,-78.0983,37.1810,67.80,45.00,43.81,340.00,6.00,0.00,29.95,M,10.00,M,OVC,M,M,M,6000.00,M,M,M,M,KW81 012230Z AUTO 34006KT 10SM OVC060 20/07 A2995 RMK AO1 T01990072
W81,2017-04-01 22:50,-78.0983,37.1810,68.00,44.60,42.85,340.00,6.00,0.00,29.95,M,10.00,M,OVC,M,M,M,6000.00,M,M,M,M,KW81 012250Z AUTO 34006KT 10SM OVC060 20/07 A2995 RMK AO1 T02000070
W81,2017-04-01 23:10,-78.0983,37.1810,67.30,44.10,43.07,330.00,5.00,0.00,29.97,M,10.00,M,OVC,M,M,M,6000.00,M,M,M,M,KW81 012310Z AUTO 33005KT 10SM OVC060 20/07 A2997 RMK AO1 T01960067
W81,2017-04-01 23:30,-78.0983,37.1810,66.20,44.60,45.60,360.00,5.00,0.00,29.98,M,10.00,M,OVC,M,M,M,6000.00,M,M,M,M,KW81 012330Z AUTO 36005KT 10SM OVC060 19/07 A2998 RMK AO1 T01900070
W81,2017-04-01 23:50,-78.0983,37.1810,65.30,43.90,45.81,350.00,6.00,0.00,30.00,M,10.00,M,OVC,M,M,M,6000.00,M,M,M,M,KW81 012350Z AUTO 35006KT 10SM OVC060 19/07 A3000 RMK AO1 T01850066 10226 20185
