#DEBUG: Format Typ    -> comma
#DEBUG: Time Period   -> 2017-04-01 00:00:00+00:00 2017-04-02 00:00:00+00:00
#DEBUG: Time Zone     -> Etc/UTC
#DEBUG: Data Contact   -> daryl herzmann akrherz@iastate.edu 515-294-5978
#DEBUG: Entries Found -> -1
station,valid,lon,lat,tmpf, dwpf, relh, drct, sknt, p01i, alti, mslp, vsby, gust, skyc1, skyc2, skyc3, skyc4, skyl1, skyl2, skyl3, skyl4, presentwx, metar
WST,2017-04-01 00:00,-71.7989,41.3497,M,M,M,70.00,15.00,0.01,29.96,M,5.00,M,OVC,M,M,M,1100.00,M,M,M,RA BR,KWST 010000Z AUTO 07015KT 5SM RA BR OVC011 A2996 RMK P0001 MADISHF
WST,2017-04-01 00:05,-71.7989,41.3497,M,M,M,80.00,14.00,0.02,29.96,M,5.00,M,OVC,M,M,M,1100.00,M,M,M,-RA BR,KWST 010005Z AUTO 08014KT 5SM -RA BR OVC011 A2996 RMK P0002 MADISHF
WST,2017-04-01 00:10,-71.7989,41.3497,M,M,M,70.00,17.00,0.02,29.96,M,5.00,M,OVC,M,M,M,1100.00,M,M,M,RA BR,KWST 010010Z AUTO 07017KT 5SM RA BR OVC011 A2996 RMK P0002 CIG 7V13  MADISHF
WST,2017-04-01 00:11,-71.7989,41.3497,37.00,35.10,92.76,70.00,16.00,0.02,29.96,M,5.00,22.00,OVC,M,M,M,1100.00,M,M,M,-RA BR,KWST 010011Z AUTO 07016G22KT 5SM -RA BR OVC011 03/02 A2996 RMK AO2 CIG 007V013 P0002 T00280017
WST,2017-04-01 00:15,-71.7989,41.3497,M,M,M,80.00,15.00,0.03,29.96,M,5.00,M,BKN,OVC,M,M,900.00,1600.00,M,M,-RA BR,KWST 010015Z AUTO 08015KT 5SM -RA BR BKN009 OVC016 A2996 RMK P0003 CIG 7V13  MADISHF
WST,2017-04-01 00:19,-71.7989,41.3497,37.00,35.10,92.76,80.00,14.00,0.03,29.96,M,5.00,23.00,BKN,OVC,M,M,900.00,1400.00,M,M,-RA BR,KWST 010019Z AUTO 08014G23KT 5SM -RA BR BKN009 OVC014 03/02 A2996 RMK AO2 P0003 T00280017
WST,2017-04-01 00:20,-71.7989,41.3497,M,M,M,80.00,16.00,0.03,29.96,M,5.00,M,BKN,OVC,M,M,900.00,1400.00,M,M,-RA BR,KWST 010020Z AUTO 08016KT 5SM -RA BR BKN009 OVC014 A2996 RMK P0003 MADISHF
WST,2017-04-01 00:25,-71.7989,41.3497,M,M,M,90.00,17.00,0.04,29.96,M,5.00,M,BKN,OVC,M,M,900.00,1400.00,M,M,-RA BR,KWST 010025Z AUTO 09017KT 5SM -RA BR BKN009 OVC014 A2996 RMK P0004 MADISHF
WST,2017-04-01 00:30,-71.7989,41.3497,M,M,M,80.00,17.00,0.05,29.95,M,5.00,M,BKN,BKN,OVC,M,900.00,1600.00,2300.00,M,RA BR,KWST 010030Z AUTO 08017KT 5SM RA BR BKN009 BKN016 OVC023 A2995 RMK P0005 MADISHF
WST,2017-04-01 00:35,-71.7989,41.3497,M,M,M,80.00,16.00,0.05,29.95,M,5.00,M,BKN,BKN,OVC,M,900.00,1600.00,2300.00,M,-RA BR,KWST 010035Z AUTO 08016KT 5SM -RA BR BKN009 BKN016 OVC023 A2995 RMK P0005 MADISHF
WST,2017-04-01 00:40,-71.7989,41.3497,M,M,M,80.00,16.00,0.06,29.95,M,5.00,M,BKN,BKN,OVC,M,999.00,1699.00,2300.00,M,-RA BR,KWST 010040Z AUTO 08016KT 5SM -RA BR BKN009 BKN016 OVC023 A2995 RMK P0006 MADISHF
WST,2017-04-01 00:45,-71.7989,41.3497,M,M,M,80.00,16.00,0.06,29.95,M,6.00,M,BKN,OVC,M,M,999.00,2300.00,M,M,-RA BR,KWST 010045Z AUTO 08016KT 6SM -RA BR BKN009 OVC023 A2995 RMK P0006 MADISHF
WST,2017-04-01 00:46,-71.7989,41.3497,37.00,34.00,88.78,80.00,17.00,0.06,29.95,M,6.00,25.00,BKN,BKN,OVC,M,1000.00,1800.00,2300.00,M,-RA BR,KWST 010046Z AUTO 08017G25KT 6SM -RA BR BKN010 BKN018 OVC023 03/01 A2995 RMK AO2 PK WND 06028/0022 P0006 T00280011
WST,2017-04-01 00:50,-71.7989,41.3497,M,M,M,80.00,14.00,0.07,29.95,M,6.00,M,BKN,BKN,OVC,M,999.00,1400.00,2500.00,M,-RA BR,KWST 010050Z AUTO 08014KT 6SM -RA BR BKN009 BKN014 OVC025 A2995 RMK P0007 MADISHF
WST,2017-04-01 00:53,-71.7989,41.3497,37.00,35.10,92.76,70.00,11.00,0.07,29.95,1014.00,6.00,24.00,BKN,BKN,OVC,M,1000.00,1400.00,2300.00,M,-RA BR,KWST 010053Z AUTO 07011G24KT 6SM -RA BR BKN010 BKN014 OVC023 03/02 A2995 RMK AO2 PK WND 06028/0022 SLP140 P0007 T00280017
WST,2017-04-01 00:55,-71.7989,41.3497,M,M,M,70.00,14.00,M,29.95,M,6.00,M,BKN,BKN,OVC,M,999.00,1400.00,2500.00,M,-RA BR,KWST 010055Z AUTO 07014KT 6SM -RA BR BKN009 BKN014 OVC025 A2995 RMK MADISHF
WST,2017-04-01 01:00,-71.7989,41.3497,M,M,M,80.00,13.00,0.01,29.95,M,5.00,M,BKN,OVC,M,M,999.00,1600.00,M,M,-RA BR,KWST 010100Z AUTO 08013KT 5SM -RA BR BKN009 OVC016 A2995 RMK P0001 MADISHF
WST,2017-04-01 01:05,-71.7989,41.3497,M,M,M,80.00,16.00,0.01,29.95,M,6.00,M,BKN,OVC,M,M,999.00,2500.00,M,M,-RA BR,KWST 010105Z AUTO 08016KT 6SM -RA BR BKN009 OVC025 A2995 RMK P0001 MADISHF
WST,2017-04-01 01:10,-71.7989,41.3497,M,M,M,80.00,16.00,0.02,29.95,M,6.00,M,BKN,OVC,M,M,999.00,1500.00,M,M,-RA BR,KWST 010110Z AUTO 08016KT 6SM -RA BR BKN009 OVC015 A2995 RMK P0002 MADISHF
WST,2017-04-01 01:15,-71.7989,41.3497,M,M,M,80.00,15.00,0.02,29.94,M,6.00,M,BKN,BKN,OVC,M,999.00,1699.00,2400.00,M,-RA BR,KWST 010115Z AUTO 08015KT 6SM -RA BR BKN009 BKN016 OVC024 A2994 RMK P0002 MADISHF
WST,2017-04-01 01:20,-71.7989,41.3497,M,M,M,70.00,19.00,0.03,29.94,M,6.00,M,BKN,BKN,OVC,M,999.00,1500.00,2400.00,M,-RA BR,KWST 010120Z AUTO 07019KT 6SM -RA BR BKN009 BKN015 OVC024 A2994 RMK P0003 MADISHF
WST,2017-04-01 01:25,-71.7989,41.3497,M,M,M,70.00,15.00,0.03,29.94,M,6.00,M,BKN,BKN,OVC,M,999.00,1800.00,2400.00,M,-RA BR,KWST 010125Z AUTO 07015KT 6SM -RA BR BKN009 BKN018 OVC024 A2994 RMK P0003 MADISHF
WST,2017-04-01 01:30,-71.7989,41.3497,M,M,M,70.00,15.00,0.03,29.93,M,6.00,M,BKN,BKN,OVC,M,999.00,1800.00,2400.00,M,-RA BR,KWST 010130Z AUTO 07015KT 6SM -RA BR BKN009 BKN018 OVC024 A2993 RMK P0003 MADISHF
WST,2017-04-01 01:35,-71.7989,41.3497,M,M,M,70.00,16.00,0.04,29.93,M,6.00,M,BKN,BKN,OVC,M,999.00,1800.00,2400.00,M,-RA BR,KWST 010135Z AUTO 07016KT 6SM -RA BR BKN009 BKN018 OVC024 A2993 RMK P0004 WND 03V10  MADISHF
WST,2017-04-01 01:40,-71.7989,41.3497,M,M,M,70.00,17.00,0.04,29.93,M,5.00,M,BKN,BKN,OVC,M,1100.00,1699.00,2400.00,M,-RA BR,KWST 010140Z AUTO 07017KT 5SM -RA BR BKN011 BKN016 OVC024 A2993 RMK P0004 MADISHF
WST,2017-04-01 01:45,-71.7989,41.3497,M,M,M,70.00,15.00,0.05,29.92,M,5.00,M,BKN,OVC,M,M,1100.00,1699.00,M,M,RA BR,KWST 010145Z AUTO 07015KT 5SM RA BR BKN011 OVC016 A2992 RMK P0005 MADISHF
WST,2017-04-01 01:50,-71.7989,41.3497,M,M,M,80.00,13.00,0.06,29.92,M,5.00,M,BKN,OVC,M,M,1100.00,1699.00,M,M,RA BR,KWST 010150Z AUTO 08013KT 5SM RA BR BKN011 OVC016 A2992 RMK P0006 MADISHF
WST,2017-04-01 01:53,-71.7989,41.3497,37.00,35.10,92.76,70.00,15.00,0.06,29.91,1012.90,5.00,22.00,BKN,OVC,M,M,1100.00,1700.00,M,M,RA BR,KWST 010153Z AUTO 07015G22KT 5SM RA BR BKN011 OVC017 03/02 A2991 RMK AO2 PK WND 09031/0118 SLP129 P0006 T00280017
WST,2017-04-01 01:55,-71.7989,41.3497,M,M,M,80.00,14.00,M,29.91,M,5.00,19.00,BKN,OVC,M,M,1100.00,1699.00,M,M,-RA BR,KWST 010155Z AUTO 08014G19KT 5SM -RA BR BKN011 OVC016 A2991 RMK MADISHF
WST,2017-04-01 02:00,-71.7989,41.3497,M,M,M,80.00,15.00,0.01,29.91,M,5.00,M,BKN,OVC,M,M,900.00,1400.00,M,M,-RA BR,KWST 010200Z AUTO 08015KT 5SM -RA BR BKN009 OVC014 A2991 RMK P0001 MADISHF
WST,2017-04-01 02:02,-71.7989,41.3497,37.00,35.10,92.76,70.00,14.00,0.01,29.91,M,5.00,27.00,BKN,OVC,M,M,900.00,1400.00,M,M,-RA BR,KWST 010202Z AUTO 07014G27KT 5SM -RA BR BKN009 OVC014 03/02 A2991 RMK AO2 PK WND 09027/0156 P0001 T00280017
WST,2017-04-01 02:05,-71.7989,41.3497,M,M,M,70.00,14.00,0.02,29.91,M,5.00,M,BKN,OVC,M,M,900.00,1400.00,M,M,RA BR,KWST 010205Z AUTO 07014KT 5SM RA BR BKN009 OVC014 A2991 RMK P0002 MADISHF
WST,2017-04-01 02:10,-71.7989,41.3497,M,M,M,70.00,16.00,0.02,29.90,M,5.00,M,BKN,OVC,M,M,900.00,1600.00,M,M,-RA BR,KWST 010210Z AUTO 07016KT 5SM -RA BR BKN009 OVC016 A2990 RMK P0002 MADISHF
WST,2017-04-01 02:15,-71.7989,41.3497,M,M,M,80.00,15.00,0.03,29.90,M,5.00,M,BKN,OVC,M,M,900.00,1600.00,M,M,RA BR,KWST 010215Z AUTO 08015KT 5SM RA BR BKN009 OVC016 A2990 RMK P0003 MADISHF
WST,2017-04-01 02:20,-71.7989,41.3497,M,M,M,70.00,15.00,0.04,29.90,M,5.00,M,BKN,OVC,M,M,900.00,1400.00,M,M,-RA BR,KWST 010220Z AUTO 07015KT 5SM -RA BR BKN009 OVC014 A2990 RMK P0004 MADISHF
WST,2017-04-01 02:25,-71.7989,41.3497,M,M,M,70.00,17.00,0.04,29.90,M,6.00,M,BKN,OVC,M,M,900.00,1400.00,M,M,-RA BR,KWST 010225Z AUTO 07017KT 6SM -RA BR BKN009 OVC014 A2990 RMK P0004 MADISHF
WST,2017-04-01 02:30,-71.7989,41.3497,M,M,M,70.00,13.00,0.04,29.89,M,5.00,18.00,BKN,OVC,M,M,900.00,1400.00,M,M,-RA BR,KWST 010230Z AUTO 07013G18KT 5SM -RA BR BKN009 OVC014 A2989 RMK P0004 MADISHF
WST,2017-04-01 02:35,-71.7989,41.3497,M,M,M,70.00,12.00,0.05,29.89,M,4.00,M,OVC,M,M,M,900.00,M,M,M,-RA BR,KWST 010235Z AUTO 07012KT 4SM -RA BR OVC009 A2989 RMK P0005 MADISHF
WST,2017-04-01 02:40,-71.7989,41.3497,M,M,M,70.00,12.00,0.05,29.89,M,4.00,M,OVC,M,M,M,999.00,M,M,M,-RA BR,KWST 010240Z AUTO 07012KT 4SM -RA BR OVC009 A2989 RMK P0005 MADISHF
WST,2017-04-01 02:45,-71.7989,41.3497,M,M,M,70.00,16.00,0.05,29.89,M,4.00,M,BKN,OVC,M,M,800.00,1200.00,M,M,-RA BR,KWST 010245Z AUTO 07016KT 4SM -RA BR BKN008 OVC012 A2989 RMK P0005 MADISHF
WST,2017-04-01 02:50,-71.7989,41.3497,M,M,M,70.00,15.00,0.06,29.89,M,4.00,M,BKN,OVC,M,M,800.00,1200.00,M,M,-RA BR,KWST 010250Z AUTO 07015KT 4SM -RA BR BKN008 OVC012 A2989 RMK P0006 MADISHF
WST,2017-04-01 02:53,-71.7989,41.3497,37.00,35.10,92.76,70.00,13.00,0.06,29.89,1012.20,4.00,19.00,BKN,OVC,M,M,800.00,1200.00,M,M,RA BR,KWST 010253Z AUTO 07013G19KT 4SM RA BR BKN008 OVC012 03/02 A2989 RMK AO2 PK WND 09027/0156 SLP122 P0006 60019 T00280017 58023
WST,2017-04-01 02:55,-71.7989,41.3497,M,M,M,70.00,16.00,0.01,29.89,M,4.00,21.00,BKN,BKN,OVC,M,800.00,1200.00,2400.00,M,RA BR,KWST 010255Z AUTO 07016G21KT 4SM RA BR BKN008 BKN012 OVC024 A2989 RMK P0001 MADISHF
WST,2017-04-01 03:00,-71.7989,41.3497,M,M,M,70.00,16.00,0.01,29.88,M,4.00,M,BKN,BKN,OVC,M,800.00,1200.00,2200.00,M,RA BR,KWST 010300Z AUTO 07016KT 4SM RA BR BKN008 BKN012 OVC022 A2988 RMK P0001 MADISHF
WST,2017-04-01 03:05,-71.7989,41.3497,M,M,M,70.00,17.00,0.02,29.88,M,4.00,M,BKN,OVC,M,M,800.00,1200.00,M,M,-RA BR,KWST 010305Z AUTO 07017KT 4SM -RA BR BKN008 OVC012 A2988 RMK P0002 MADISHF
WST,2017-04-01 03:10,-71.7989,41.3497,M,M,M,70.00,17.00,0.02,29.87,M,4.00,M,BKN,OVC,M,M,800.00,1300.00,M,M,-RA BR,KWST 010310Z AUTO 07017KT 4SM -RA BR BKN008 OVC013 A2987 RMK P0002 MADISHF
WST,2017-04-01 03:15,-71.7989,41.3497,M,M,M,70.00,16.00,0.03,29.86,M,3.50,M,BKN,BKN,OVC,M,800.00,1300.00,2500.00,M,RA BR,KWST 010315Z AUTO 07016KT 3SM RA BR BKN008 BKN013 OVC025 A2986 RMK P0003 MADISHF
WST,2017-04-01 03:20,-71.7989,41.3497,M,M,M,60.00,17.00,0.04,29.86,M,3.50,M,BKN,BKN,OVC,M,800.00,1500.00,2500.00,M,RA BR,KWST 010320Z AUTO 06017KT 3SM RA BR BKN008 BKN015 OVC025 A2986 RMK P0004 MADISHF
WST,2017-04-01 03:25,-71.7989,41.3497,M,M,M,70.00,15.00,0.04,29.85,M,4.00,M,BKN,BKN,OVC,M,900.00,1500.00,2600.00,M,RA BR,KWST 010325Z AUTO 07015KT 4SM RA BR BKN009 BKN015 OVC026 A2985 RMK P0004 MADISHF
WST,2017-04-01 03:30,-71.7989,41.3497,M,M,M,70.00,17.00,0.05,29.85,M,3.00,M,BKN,BKN,OVC,M,900.00,1300.00,2600.00,M,RA BR,KWST 010330Z AUTO 07017KT 3SM RA BR BKN009 BKN013 OVC026 A2985 RMK P0005 MADISHF
WST,2017-04-01 03:35,-71.7989,41.3497,M,M,M,70.00,18.00,0.06,29.85,M,3.00,M,BKN,BKN,OVC,M,900.00,1300.00,2800.00,M,RA BR,KWST 010335Z AUTO 07018KT 3SM RA BR BKN009 BKN013 OVC028 A2985 RMK P0006 MADISHF
WST,2017-04-01 03:40,-71.7989,41.3497,M,M,M,60.00,14.00,0.07,29.84,M,4.00,M,BKN,OVC,M,M,1100.00,2600.00,M,M,RA BR,KWST 010340Z AUTO 06014KT 4SM RA BR BKN011 OVC026 A2984 RMK P0007 MADISHF
WST,2017-04-01 03:45,-71.7989,41.3497,M,M,M,70.00,15.00,0.08,29.84,M,4.00,M,BKN,OVC,M,M,900.00,1300.00,M,M,RA BR,KWST 010345Z AUTO 07015KT 4SM RA BR BKN009 OVC013 A2984 RMK P0008 MADISHF
WST,2017-04-01 03:50,-71.7989,41.3497,M,M,M,70.00,16.00,0.09,29.84,M,4.00,M,BKN,OVC,M,M,900.00,1300.00,M,M,RA BR,KWST 010350Z AUTO 07016KT 4SM RA BR BKN009 OVC013 A2984 RMK P0009 MADISHF
WST,2017-04-01 03:53,-71.7989,41.3497,37.00,35.10,92.76,60.00,15.00,0.11,29.83,1010.30,3.00,25.00,BKN,OVC,M,M,900.00,1300.00,M,M,RA BR,KWST 010353Z AUTO 06015G25KT 3SM RA BR BKN009 OVC013 03/02 A2983 RMK AO2 PK WND 06029/0327 SLP103 P0011 T00280017
WST,2017-04-01 03:55,-71.7989,41.3497,M,M,M,60.00,16.00,M,29.83,M,3.00,M,BKN,OVC,M,M,900.00,1300.00,M,M,RA BR,KWST 010355Z AUTO 06016KT 3SM RA BR BKN009 OVC013 A2983 RMK MADISHF
WST,2017-04-01 04:00,-71.7989,41.3497,M,M,M,70.00,14.00,0.01,29.84,M,2.50,M,OVC,M,M,M,900.00,M,M,M,RA BR,KWST 010400Z AUTO 07014KT 2 1/2SM RA BR OVC009 A2984 RMK P0001 MADISHF
WST,2017-04-01 04:02,-71.7989,41.3497,37.00,36.00,96.13,70.00,13.00,0.01,29.84,M,2.50,21.00,OVC,M,M,M,900.00,M,M,M,RA BR,KWST 010402Z AUTO 07013G21KT 2 1/2SM RA BR OVC009 03/02 A2984 RMK AO2 P0001 T00280022
WST,2017-04-01 04:05,-71.7989,41.3497,M,M,M,60.00,15.00,0.02,29.84,M,2.50,20.00,BKN,OVC,M,M,900.00,1300.00,M,M,-RA BR,KWST 010405Z AUTO 06015G20KT 2 1/2SM -RA BR BKN009 OVC013 A2984 RMK P0002 MADISHF
WST,2017-04-01 04:07,-71.7989,41.3497,37.00,36.00,96.13,70.00,17.00,0.02,29.84,M,3.00,28.00,BKN,OVC,M,M,800.00,1200.00,M,M,-RA BR,KWST 010407Z AUTO 07017G28KT 3SM -RA BR BKN008 OVC012 03/02 A2984 RMK AO2 PK WND 09028/0407 P0002 T00280022
WST,2017-04-01 04:10,-71.7989,41.3497,M,M,M,70.00,15.00,0.02,29.84,M,3.50,20.00,BKN,OVC,M,M,800.00,1200.00,M,M,-RA BR,KWST 010410Z AUTO 07015G20KT 3SM -RA BR BKN008 OVC012 A2984 RMK P0002 MADISHF
WST,2017-04-01 04:15,-71.7989,41.3497,M,M,M,70.00,16.00,0.02,29.83,M,3.00,M,BKN,OVC,M,M,800.00,2900.00,M,M,-RA BR,KWST 010415Z AUTO 07016KT 3SM -RA BR BKN008 OVC029 A2983 RMK P0002 MADISHF
WST,2017-04-01 04:20,-71.7989,41.3497,M,M,M,80.00,17.00,0.03,29.83,M,2.50,M,BKN,OVC,M,M,800.00,1600.00,M,M,RA BR,KWST 010420Z AUTO 08017KT 2 1/2SM RA BR BKN008 OVC016 A2983 RMK P0003 MADISHF
WST,2017-04-01 04:23,-71.7989,41.3497,37.90,36.00,92.78,70.00,17.00,0.03,29.83,M,2.50,24.00,OVC,M,M,M,900.00,M,M,M,RA BR,KWST 010423Z AUTO 07017G24KT 2 1/2SM RA BR OVC009 03/02 A2983 RMK AO2 PK WND 09028/0407 P0003 T00330022
WST,2017-04-01 04:25,-71.7989,41.3497,M,M,M,60.00,16.00,0.04,29.83,M,2.50,M,OVC,M,M,M,900.00,M,M,M,RA BR,KWST 010425Z AUTO 06016KT 2 1/2SM RA BR OVC009 A2983 RMK P0004 MADISHF
WST,2017-04-01 04:30,-71.7989,41.3497,M,M,M,70.00,15.00,0.05,29.83,M,2.50,M,BKN,OVC,M,M,900.00,1699.00,M,M,RA BR,KWST 010430Z AUTO 07015KT 2 1/2SM RA BR BKN009 OVC016 A2983 RMK P0005 MADISHF
WST,2017-04-01 04:35,-71.7989,41.3497,M,M,M,70.00,17.00,0.06,29.82,M,2.50,M,OVC,M,M,M,900.00,M,M,M,RA BR,KWST 010435Z AUTO 07017KT 2 1/2SM RA BR OVC009 A2982 RMK P0006 MADISHF
WST,2017-04-01 04:40,-71.7989,41.3497,M,M,M,60.00,15.00,0.07,29.82,M,3.00,20.00,BKN,OVC,M,M,900.00,2900.00,M,M,RA BR,KWST 010440Z AUTO 06015G20KT 3SM RA BR BKN009 OVC029 A2982 RMK P0007 MADISHF
WST,2017-04-01 04:45,-71.7989,41.3497,M,M,M,60.00,14.00,0.07,29.82,M,3.00,M,BKN,OVC,M,M,900.00,1300.00,M,M,-RA BR,KWST 010445Z AUTO 06014KT 3SM -RA BR BKN009 OVC013 A2982 RMK P0007 MADISHF
WST,2017-04-01 04:46,-71.7989,41.3497,37.90,36.00,92.78,60.00,14.00,0.08,29.81,M,3.00,25.00,BKN,OVC,M,M,900.00,1300.00,M,M,-RA BR,KWST 010446Z AUTO 06014G25KT 3SM -RA BR BKN009 OVC013 03/02 A2981 RMK AO2 PK WND 09028/0407 P0008 T00330022
WST,2017-04-01 04:50,-71.7989,41.3497,M,M,M,70.00,15.00,0.08,29.81,M,3.50,20.00,OVC,M,M,M,900.00,M,M,M,-RA BR,KWST 010450Z AUTO 07015G20KT 3SM -RA BR OVC009 A2981 RMK P0008 MADISHF
WST,2017-04-01 04:53,-71.7989,41.3497,37.90,36.00,92.78,60.00,12.00,0.08,29.81,1009.50,3.00,23.00,OVC,M,M,M,1100.00,M,M,M,-RA BR,KWST 010453Z AUTO 06012G23KT 3SM -RA BR OVC011 03/02 A2981 RMK AO2 PK WND 09028/0407 SLP095 P0008 T00330022 400500028
WST,2017-04-01 04:55,-71.7989,41.3497,M,M,M,60.00,17.00,M,29.81,M,3.50,M,OVC,M,M,M,1100.00,M,M,M,-RA BR,KWST 010455Z AUTO 06017KT 3SM -RA BR OVC011 A2981 RMK MADISHF
WST,2017-04-01 05:00,-71.7989,41.3497,M,M,M,70.00,16.00,M,29.81,M,3.50,M,BKN,OVC,M,M,900.00,1300.00,M,M,-RA BR,KWST 010500Z AUTO 07016KT 3SM -RA BR BKN009 OVC013 A2981 RMK MADISHF
WST,2017-04-01 05:03,-71.7989,41.3497,37.90,36.00,92.78,70.00,16.00,0.00,29.81,M,4.00,22.00,BKN,OVC,M,M,900.00,1300.00,M,M,-RA BR,KWST 010503Z AUTO 07016G22KT 4SM -RA BR BKN009 OVC013 03/02 A2981 RMK AO2 P0000 T00330022
WST,2017-04-01 05:05,-71.7989,41.3497,M,M,M,60.00,19.00,0.01,29.81,M,4.00,M,OVC,M,M,M,900.00,M,M,M,-RA BR,KWST 010505Z AUTO 06019KT 4SM -RA BR OVC009 A2981 RMK P0001 MADISHF
WST,2017-04-01 05:10,-71.7989,41.3497,M,M,M,60.00,15.00,0.01,29.80,M,3.50,M,SCT,OVC,M,M,900.00,1200.00,M,M,-RA BR,KWST 010510Z AUTO 06015KT 3SM -RA BR SCT009 OVC012 A2980 RMK P0001 MADISHF
WST,2017-04-01 05:15,-71.7989,41.3497,M,M,M,60.00,16.00,0.01,29.80,M,3.00,M,OVC,M,M,M,999.00,M,M,M,-RA BR,KWST 010515Z AUTO 06016KT 3SM -RA BR OVC009 A2980 RMK P0001 MADISHF
WST,2017-04-01 05:19,-71.7989,41.3497,37.90,36.00,92.78,60.00,17.00,0.01,29.79,M,3.00,24.00,OVC,M,M,M,1000.00,M,M,M,-RA BR,KWST 010519Z AUTO 06017G24KT 3SM -RA BR OVC010 03/02 A2979 RMK AO2 P0001 T00330022
WST,2017-04-01 05:20,-71.7989,41.3497,M,M,M,60.00,16.00,0.01,29.79,M,3.50,M,OVC,M,M,M,999.00,M,M,M,-RA BR,KWST 010520Z AUTO 06016KT 3SM -RA BR OVC009 A2979 RMK P0001 MADISHF
WST,2017-04-01 05:25,-71.7989,41.3497,M,M,M,60.00,18.00,0.02,29.79,M,4.00,M,BKN,OVC,M,M,999.00,1500.00,M,M,-RA BR,KWST 010525Z AUTO 06018KT 4SM -RA BR BKN009 OVC015 A2979 RMK P0002 MADISHF
WST,2017-04-01 05:30,-71.7989,41.3497,M,M,M,70.00,18.00,0.02,29.78,M,5.00,M,OVC,M,M,M,999.00,M,M,M,-RA BR,KWST 010530Z AUTO 07018KT 5SM -RA BR OVC009 A2978 RMK P0002 MADISHF
WST,2017-04-01 05:35,-71.7989,41.3497,M,M,M,70.00,17.00,0.02,29.77,M,5.00,M,OVC,M,M,M,1200.00,M,M,M,-RA BR,KWST 010535Z AUTO 07017KT 5SM -RA BR OVC012 A2977 RMK P0002 MADISHF
WST,2017-04-01 05:40,-71.7989,41.3497,M,M,M,60.00,18.00,0.02,29.77,M,5.00,24.00,BKN,OVC,M,M,1200.00,1600.00,M,M,-RA BR,KWST 010540Z AUTO 06018G24KT 5SM -RA BR BKN012 OVC016 A2977 RMK P0002 MADISHF
WST,2017-04-01 05:45,-71.7989,41.3497,M,M,M,60.00,17.00,0.02,29.76,M,4.00,M,OVC,M,M,M,1200.00,M,M,M,-RA BR,KWST 010545Z AUTO 06017KT 4SM -RA BR OVC012 A2976 RMK P0002 MADISHF
WST,2017-04-01 05:50,-71.7989,41.3497,M,M,M,60.00,19.00,0.02,29.76,M,4.00,M,BKN,OVC,M,M,900.00,1600.00,M,M,-RA BR,KWST 010550Z AUTO 06019KT 4SM -RA BR BKN009 OVC016 A2976 RMK P0002 MADISHF
WST,2017-04-01 05:53,-71.7989,41.3497,37.90,36.00,92.78,60.00,16.00,0.02,29.76,1007.90,4.00,25.00,BKN,OVC,M,M,900.00,1600.00,M,M,-RA BR,KWST 010553Z AUTO 06016G25KT 4SM -RA BR BKN009 OVC016 03/02 A2976 RMK AO2 PK WND 07030/0541 SLP079 P0002 60040 T00330022 10033 20028 56043
WST,2017-04-01 05:55,-71.7989,41.3497,M,M,M,50.00,17.00,M,29.76,M,4.00,M,BKN,OVC,M,M,900.00,1600.00,M,M,-RA BR,KWST 010555Z AUTO 05017KT 4SM -RA BR BKN009 OVC016 A2976 RMK MADISHF
WST,2017-04-01 06:00,-71.7989,41.3497,M,M,M,50.00,16.00,M,29.75,M,4.00,M,BKN,BKN,OVC,M,900.00,1600.00,2500.00,M,-RA BR,KWST 010600Z AUTO 05016KT 4SM -RA BR BKN009 BKN016 OVC025 A2975 RMK MADISHF
WST,2017-04-01 06:05,-71.7989,41.3497,M,M,M,60.00,18.00,M,29.75,M,3.00,M,BKN,BKN,OVC,M,900.00,1699.00,2500.00,M,-RA BR,KWST 010605Z AUTO 06018KT 3SM -RA BR BKN009 BKN016 OVC025 A2975 RMK MADISHF
WST,2017-04-01 06:10,-71.7989,41.3497,M,M,M,50.00,16.00,0.01,29.75,M,3.00,M,BKN,BKN,OVC,M,900.00,1300.00,2500.00,M,-RA BR,KWST 010610Z AUTO 05016KT 3SM -RA BR BKN009 BKN013 OVC025 A2975 RMK P0001 MADISHF
WST,2017-04-01 06:15,-71.7989,41.3497,M,M,M,60.00,16.00,0.01,29.75,M,4.00,M,BKN,BKN,OVC,M,900.00,1300.00,1900.00,M,-RA BR,KWST 010615Z AUTO 06016KT 4SM -RA BR BKN009 BKN013 OVC019 A2975 RMK P0001 MADISHF
WST,2017-04-01 06:20,-71.7989,41.3497,M,M,M,50.00,11.00,0.01,29.74,M,6.00,18.00,BKN,OVC,M,M,900.00,1699.00,M,M,-RA BR,KWST 010620Z AUTO 05011G18KT 6SM -RA BR BKN009 OVC016 A2974 RMK P0001 MADISHF
WST,2017-04-01 06:25,-71.7989,41.3497,M,M,M,60.00,17.00,0.01,29.74,M,6.00,M,BKN,OVC,M,M,900.00,1300.00,M,M,-RA BR,KWST 010625Z AUTO 06017KT 6SM -RA BR BKN009 OVC013 A2974 RMK P0001 MADISHF
WST,2017-04-01 06:30,-71.7989,41.3497,M,M,M,50.00,14.00,0.02,29.74,M,6.00,M,BKN,OVC,M,M,900.00,1600.00,M,M,-RA BR,KWST 010630Z AUTO 05014KT 6SM -RA BR BKN009 OVC016 A2974 RMK P0002 MADISHF
WST,2017-04-01 06:35,-71.7989,41.3497,M,M,M,50.00,14.00,0.02,29.74,M,6.00,M,BKN,OVC,M,M,1100.00,1800.00,M,M,-RA BR,KWST 010635Z AUTO 05014KT 6SM -RA BR BKN011 OVC018 A2974 RMK P0002 MADISHF
WST,2017-04-01 06:38,-71.7989,41.3497,37.90,36.00,92.78,60.00,13.00,0.03,29.74,M,6.00,28.00,OVC,M,M,M,1100.00,M,M,M,-RA BR,KWST 010638Z AUTO 06013G28KT 6SM -RA BR OVC011 03/02 A2974 RMK AO2 PK WND 05028/0636 P0003 T00330022
WST,2017-04-01 06:40,-71.7989,41.3497,M,M,M,60.00,15.00,0.03,29.74,M,5.00,M,BKN,OVC,M,M,1100.00,1699.00,M,M,RA BR,KWST 010640Z AUTO 06015KT 5SM RA BR BKN011 OVC016 A2974 RMK P0003 MADISHF
WST,2017-04-01 06:45,-71.7989,41.3497,M,M,M,60.00,15.00,0.05,29.73,M,4.00,M,BKN,OVC,M,M,1100.00,1500.00,M,M,RA BR,KWST 010645Z AUTO 06015KT 4SM RA BR BKN011 OVC015 A2973 RMK P0005 MADISHF
WST,2017-04-01 06:50,-71.7989,41.3497,M,M,M,60.00,17.00,0.08,29.73,M,4.00,M,BKN,OVC,M,M,999.00,1400.00,M,M,RA BR,KWST 010650Z AUTO 06017KT 4SM RA BR BKN009 OVC014 A2973 RMK P0008 MADISHF
WST,2017-04-01 06:53,-71.7989,41.3497,37.90,36.00,92.78,50.00,16.00,0.10,29.72,1006.50,3.00,25.00,OVC,M,M,M,1000.00,M,M,M,+RA BR,KWST 010653Z AUTO 05016G25KT 3SM +RA BR OVC010 03/02 A2972 RMK AO2 PK WND 05028/0636 SLP065 P0010 T00330022
WST,2017-04-01 06:55,-71.7989,41.3497,M,M,M,50.00,17.00,0.01,29.72,M,3.00,M,OVC,M,M,M,999.00,M,M,M,+RA BR,KWST 010655Z AUTO 05017KT 3SM +RA BR OVC009 A2972 RMK P0001 MADISHF
WST,2017-04-01 07:00,-71.7989,41.3497,M,M,M,70.00,15.00,0.04,29.73,M,2.50,M,OVC,M,M,M,999.00,M,M,M,+RA BR,KWST 010700Z AUTO 07015KT 2 1/2SM +RA BR OVC009 A2973 RMK P0004 MADISHF
WST,2017-04-01 07:02,-71.7989,41.3497,37.90,36.00,92.78,50.00,17.00,0.06,29.72,M,2.50,27.00,OVC,M,M,M,1100.00,M,M,M,+RA BR,KWST 010702Z AUTO 05017G27KT 2 1/2SM +RA BR OVC011 03/02 A2972 RMK AO2 PK WND 04027/0656 P0006 T00330022
WST,2017-04-01 07:05,-71.7989,41.3497,M,M,M,50.00,16.00,0.08,29.71,M,2.50,M,OVC,M,M,M,1100.00,M,M,M,+RA BR,KWST 010705Z AUTO 05016KT 2 1/2SM +RA BR OVC011 A2971 RMK P0008 MADISHF
WST,2017-04-01 07:10,-71.7989,41.3497,M,M,M,50.00,15.00,0.12,29.70,M,2.00,20.00,OVC,M,M,M,1100.00,M,M,M,+RA BR,KWST 010710Z AUTO 05015G20KT 2SM +RA BR OVC011 A2970 RMK P0012 MADISHF
WST,2017-04-01 07:15,-71.7989,41.3497,M,M,M,50.00,15.00,0.14,29.69,M,2.50,M,OVC,M,M,M,1100.00,M,M,M,+RA BR,KWST 010715Z AUTO 05015KT 2 1/2SM +RA BR OVC011 A2969 RMK P0014 MADISHF
WST,2017-04-01 07:20,-71.7989,41.3497,M,M,M,50.00,16.00,0.16,29.69,M,2.50,M,OVC,M,M,M,1100.00,M,M,M,RA BR,KWST 010720Z AUTO 05016KT 2 1/2SM RA BR OVC011 A2969 RMK P0016 MADISHF
WST,2017-04-01 07:25,-71.7989,41.3497,M,M,M,50.00,15.00,0.18,29.69,M,3.00,M,OVC,M,M,M,1100.00,M,M,M,RA BR,KWST 010725Z AUTO 05015KT 3SM RA BR OVC011 A2969 RMK P0018 MADISHF
WST,2017-04-01 07:29,-71.7989,41.3497,37.90,36.00,92.78,50.00,15.00,0.19,29.68,M,3.00,28.00,OVC,M,M,M,1100.00,M,M,M,RA BR,KWST 010729Z AUTO 05015G28KT 3SM RA BR OVC011 03/02 A2968 RMK AO2 PK WND 05028/0728 P0019 T00330022
WST,2017-04-01 07:30,-71.7989,41.3497,M,M,M,50.00,13.00,0.20,29.68,M,3.00,19.00,OVC,M,M,M,1100.00,M,M,M,RA BR,KWST 010730Z AUTO 05013G19KT 3SM RA BR OVC011 A2968 RMK P0020 MADISHF
WST,2017-04-01 07:35,-71.7989,41.3497,M,M,M,50.00,11.00,0.20,29.68,M,3.50,M,OVC,M,M,M,999.00,M,M,M,RA BR,KWST 010735Z AUTO 05011KT 3SM RA BR OVC009 A2968 RMK P0020 MADISHF
WST,2017-04-01 07:40,-71.7989,41.3497,M,M,M,40.00,15.00,0.22,29.68,M,4.00,M,OVC,M,M,M,999.00,M,M,M,RA BR,KWST 010740Z AUTO 04015KT 4SM RA BR OVC009 A2968 RMK P0022 MADISHF
WST,2017-04-01 07:45,-71.7989,41.3497,M,M,M,50.00,16.00,0.24,29.68,M,3.00,M,OVC,M,M,M,999.00,M,M,M,RA BR,KWST 010745Z AUTO 05016KT 3SM RA BR OVC009 A2968 RMK P0024 MADISHF
WST,2017-04-01 07:50,-71.7989,41.3497,M,M,M,50.00,14.00,0.26,29.67,M,3.00,M,OVC,M,M,M,999.00,M,M,M,RA BR,KWST 010750Z AUTO 05014KT 3SM RA BR OVC009 A2967 RMK P0026 MADISHF
WST,2017-04-01 07:53,-71.7989,41.3497,39.00,37.00,92.45,50.00,17.00,0.27,29.67,1004.60,2.50,25.00,OVC,M,M,M,1000.00,M,M,M,RA BR,KWST 010753Z AUTO 05017G25KT 2 1/2SM RA BR OVC010 04/03 A2967 RMK AO2 PK WND 05028/0728 SLP046 P0027 T00390028
WST,2017-04-01 07:55,-71.7989,41.3497,M,M,M,50.00,15.00,M,29.66,M,3.00,M,BKN,OVC,M,M,999.00,1300.00,M,M,RA BR,KWST 010755Z AUTO 05015KT 3SM RA BR BKN009 OVC013 A2966 RMK MADISHF
WST,2017-04-01 08:00,-71.7989,41.3497,M,M,M,40.00,15.00,0.01,29.66,M,3.00,M,BKN,OVC,M,M,999.00,1300.00,M,M,RA BR,KWST 010800Z AUTO 04015KT 3SM RA BR BKN009 OVC013 A2966 RMK P0001 MADISHF
WST,2017-04-01 08:01,-71.7989,41.3497,39.00,37.00,92.45,40.00,14.00,0.02,29.66,M,3.00,25.00,OVC,M,M,M,1000.00,M,M,M,RA BR,KWST 010801Z AUTO 04014G25KT 3SM RA BR OVC010 04/03 A2966 RMK AO2 P0002 T00390028
WST,2017-04-01 08:05,-71.7989,41.3497,M,M,M,50.00,14.00,0.03,29.66,M,3.50,M,OVC,M,M,M,1100.00,M,M,M,RA BR,KWST 010805Z AUTO 05014KT 3SM RA BR OVC011 A2966 RMK P0003 MADISHF
WST,2017-04-01 08:10,-71.7989,41.3497,M,M,M,50.00,15.00,0.05,29.66,M,3.00,24.00,OVC,M,M,M,1100.00,M,M,M,RA BR,KWST 010810Z AUTO 05015G24KT 3SM RA BR OVC011 A2966 RMK P0005 WND 01V07  MADISHF
WST,2017-04-01 08:15,-71.7989,41.3497,M,M,M,40.00,11.00,0.07,29.66,M,3.00,M,BKN,OVC,M,M,900.00,1300.00,M,M,RA BR,KWST 010815Z AUTO 04011KT 3SM RA BR BKN009 OVC013 A2966 RMK P0007 MADISHF
WST,2017-04-01 08:20,-71.7989,41.3497,M,M,M,30.00,12.00,0.08,29.66,M,4.00,19.00,BKN,OVC,M,M,900.00,1400.00,M,M,RA BR,KWST 010820Z AUTO 03012G19KT 4SM RA BR BKN009 OVC014 A2966 RMK P0008 MADISHF
WST,2017-04-01 08:25,-71.7989,41.3497,M,M,M,40.00,11.00,0.09,29.66,M,4.00,18.00,OVC,M,M,M,900.00,M,M,M,RA BR,KWST 010825Z AUTO 04011G18KT 4SM RA BR OVC009 A2966 RMK P0009 WND 36V07  MADISHF
WST,2017-04-01 08:26,-71.7989,41.3497,39.00,37.00,92.45,40.00,12.00,0.09,29.66,M,4.00,19.00,OVC,M,M,M,900.00,M,M,M,-RA BR,KWST 010826Z AUTO 04012G19KT 010V070 4SM -RA BR OVC009 04/03 A2966 RMK AO2 PK WND 06026/0807 P0009 T00390028
WST,2017-04-01 08:30,-71.7989,41.3497,M,M,M,40.00,8.00,0.09,29.67,M,4.00,M,OVC,M,M,M,999.00,M,M,M,-RA BR,KWST 010830Z AUTO 04008KT 4SM -RA BR OVC009 A2967 RMK P0009 WND 36V08  MADISHF
WST,2017-04-01 08:35,-71.7989,41.3497,M,M,M,40.00,11.00,0.10,29.67,M,3.50,16.00,OVC,M,M,M,999.00,M,M,M,-RA BR,KWST 010835Z AUTO 04011G16KT 3SM -RA BR OVC009 A2967 RMK P0010 MADISHF
WST,2017-04-01 08:36,-71.7989,41.3497,39.00,37.00,92.45,40.00,12.00,0.10,29.67,M,3.00,20.00,OVC,M,M,M,1000.00,M,M,M,-RA BR,KWST 010836Z AUTO 04012G20KT 3SM -RA BR OVC010 04/03 A2967 RMK AO2 PK WND 06026/0807 P0010 T00390028
WST,2017-04-01 08:40,-71.7989,41.3497,M,M,M,10.00,9.00,0.11,29.67,M,3.50,M,OVC,M,M,M,999.00,M,M,M,-RA BR,KWST 010840Z AUTO 01009KT 3SM -RA BR OVC009 A2967 RMK P0011 MADISHF
WST,2017-04-01 08:45,-71.7989,41.3497,M,M,M,40.00,9.00,0.12,29.67,M,3.50,M,OVC,M,M,M,999.00,M,M,M,-RA BR,KWST 010845Z AUTO 04009KT 3SM -RA BR OVC009 A2967 RMK P0012 MADISHF
WST,2017-04-01 08:50,-71.7989,41.3497,M,M,M,20.00,10.00,0.12,29.67,M,3.00,M,OVC,M,M,M,999.00,M,M,M,RA BR,KWST 010850Z AUTO 02010KT 3SM RA BR OVC009 A2967 RMK P0012 MADISHF
WST,2017-04-01 08:53,-71.7989,41.3497,39.00,37.00,92.45,40.00,11.00,0.13,29.67,1004.60,3.00,17.00,BKN,OVC,M,M,1000.00,1300.00,M,M,-RA BR,KWST 010853Z AUTO 04011G17KT 3SM -RA BR BKN010 OVC013 04/03 A2967 RMK AO2 PK WND 06026/0807 SLP046 P0013 60050 T00390028 56033
WST,2017-04-01 08:55,-71.7989,41.3497,M,M,M,30.00,10.00,M,29.67,M,3.00,M,OVC,M,M,M,999.00,M,M,M,-RA BR,KWST 010855Z AUTO 03010KT 3SM -RA BR OVC009 A2967 RMK MADISHF
WST,2017-04-01 09:00,-71.7989,41.3497,M,M,M,30.00,8.00,M,29.67,M,3.00,M,BKN,OVC,M,M,999.00,1300.00,M,M,-RA BR,KWST 010900Z AUTO 03008KT 3SM -RA BR BKN009 OVC013 A2967 RMK MADISHF
WST,2017-04-01 09:05,-71.7989,41.3497,M,M,M,40.00,10.00,0.01,29.67,M,3.00,16.00,BKN,OVC,M,M,900.00,1300.00,M,M,-RA BR,KWST 010905Z AUTO 04010G16KT 3SM -RA BR BKN009 OVC013 A2967 RMK P0001 MADISHF
WST,2017-04-01 09:10,-71.7989,41.3497,37.90,37.00,96.52,40.00,8.00,0.02,29.67,M,2.50,17.00,BKN,OVC,M,M,900.00,1300.00,M,M,-RA BR,KWST 010910Z AUTO 04008G17KT 2 1/2SM -RA BR BKN009 OVC013 03/03 A2967 RMK AO2 P0002 T00330028
WST,2017-04-01 09:15,-71.7989,41.3497,M,M,M,40.00,11.00,0.03,29.67,M,2.50,M,OVC,M,M,M,900.00,M,M,M,RA BR,KWST 010915Z AUTO 04011KT 2 1/2SM RA BR OVC009 A2967 RMK P0003 WND 36V06  MADISHF
WST,2017-04-01 09:20,-71.7989,41.3497,M,M,M,30.00,7.00,0.05,29.66,M,2.00,M,OVC,M,M,M,1100.00,M,M,M,RA BR,KWST 010920Z AUTO 03007KT 2SM RA BR OVC011 A2966 RMK P0005 MADISHF
WST,2017-04-01 09:24,-71.7989,41.3497,37.90,37.00,96.52,40.00,10.00,0.06,29.66,M,2.00,19.00,OVC,M,M,M,1100.00,M,M,M,RA BR,KWST 010924Z AUTO 04010G19KT 2SM RA BR OVC011 03/03 A2966 RMK AO2 P0006 T00330028
WST,2017-04-01 09:25,-71.7989,41.3497,M,M,M,30.00,11.00,0.07,29.66,M,2.00,16.00,OVC,M,M,M,1100.00,M,M,M,RA BR,KWST 010925Z AUTO 03011G16KT 2SM RA BR OVC011 A2966 RMK P0007 MADISHF
WST,2017-04-01 09:30,-71.7989,41.3497,M,M,M,30.00,10.00,0.08,29.66,M,1.75,M,BKN,OVC,M,M,900.00,1400.00,M,M,RA BR,KWST 010930Z AUTO 03010KT 2SM RA BR BKN009 OVC014 A2966 RMK P0008 MADISHF
WST,2017-04-01 09:34,-71.7989,41.3497,37.90,37.00,96.52,30.00,10.00,0.09,29.66,M,2.00,18.00,BKN,OVC,M,M,900.00,1400.00,M,M,RA BR,KWST 010934Z AUTO 03010G18KT 2SM RA BR BKN009 OVC014 03/03 A2966 RMK AO2 P0009 T00330028
WST,2017-04-01 09:35,-71.7989,41.3497,M,M,M,40.00,11.00,0.09,29.66,M,2.00,M,BKN,OVC,M,M,900.00,1400.00,M,M,-RA BR,KWST 010935Z AUTO 04011KT 2SM -RA BR BKN009 OVC014 A2966 RMK P0009 MADISHF
WST,2017-04-01 09:40,-71.7989,41.3497,M,M,M,30.00,10.00,0.09,29.66,M,2.50,M,SCT,OVC,M,M,900.00,1200.00,M,M,-RA BR,KWST 010940Z AUTO 03010KT 2 1/2SM -RA BR SCT009 OVC012 A2966 RMK P0009 MADISHF
WST,2017-04-01 09:41,-71.7989,41.3497,37.90,37.00,96.52,40.00,10.00,0.09,29.66,M,3.00,18.00,SCT,OVC,M,M,900.00,1200.00,M,M,-RA BR,KWST 010941Z AUTO 04010G18KT 3SM -RA BR SCT009 OVC012 03/03 A2966 RMK AO2 P0009 T00330028
WST,2017-04-01 09:45,-71.7989,41.3497,M,M,M,20.00,10.00,0.10,29.66,M,3.00,16.00,SCT,OVC,M,M,900.00,1200.00,M,M,-RA BR,KWST 010945Z AUTO 02010G16KT 3SM -RA BR SCT009 OVC012 A2966 RMK P0010 MADISHF
WST,2017-04-01 09:50,-71.7989,41.3497,M,M,M,30.00,10.00,0.10,29.66,M,3.00,M,SCT,OVC,M,M,800.00,1200.00,M,M,-RA BR,KWST 010950Z AUTO 03010KT 3SM -RA BR SCT008 OVC012 A2966 RMK P0010 MADISHF
WST,2017-04-01 09:53,-71.7989,41.3497,37.90,37.00,96.52,30.00,11.00,0.11,29.65,1004.20,3.00,18.00,SCT,OVC,M,M,800.00,1400.00,M,M,-RA BR,KWST 010953Z AUTO 03011G18KT 3SM -RA BR SCT008 OVC014 03/03 A2965 RMK AO2 SLP042 P0011 T00330028
WST,2017-04-01 09:55,-71.7989,41.3497,M,M,M,20.00,11.00,M,29.65,M,3.00,16.00,SCT,OVC,M,M,800.00,1400.00,M,M,-RA BR,KWST 010955Z AUTO 02011G16KT 3SM -RA BR SCT008 OVC014 A2965 RMK MADISHF
WST,2017-04-01 10:00,-71.7989,41.3497,M,M,M,40.00,10.00,M,29.65,M,4.00,M,SCT,OVC,M,M,800.00,1400.00,M,M,-RA BR,KWST 011000Z AUTO 04010KT 4SM -RA BR SCT008 OVC014 A2965 RMK MADISHF
WST,2017-04-01 10:05,-71.7989,41.3497,M,M,M,30.00,9.00,M,29.65,M,4.00,17.00,SCT,OVC,M,M,800.00,1300.00,M,M,-RA BR,KWST 011005Z AUTO 03009G17KT 4SM -RA BR SCT008 OVC013 A2965 RMK MADISHF
WST,2017-04-01 10:10,-71.7989,41.3497,M,M,M,30.00,10.00,M,29.65,M,4.00,M,SCT,OVC,M,M,800.00,1300.00,M,M,-RA BR,KWST 011010Z AUTO 03010KT 4SM -RA BR SCT008 OVC013 A2965 RMK MADISHF
WST,2017-04-01 10:15,-71.7989,41.3497,M,M,M,20.00,11.00,0.01,29.65,M,4.00,M,SCT,OVC,M,M,800.00,1300.00,M,M,-RA BR,KWST 011015Z AUTO 02011KT 4SM -RA BR SCT008 OVC013 A2965 RMK P0001 MADISHF
WST,2017-04-01 10:20,-71.7989,41.3497,M,M,M,20.00,11.00,0.01,29.65,M,4.00,M,BKN,OVC,M,M,800.00,1300.00,M,M,-RA BR,KWST 011020Z AUTO 02011KT 4SM -RA BR BKN008 OVC013 A2965 RMK P0001 MADISHF
WST,2017-04-01 10:24,-71.7989,41.3497,37.90,37.00,96.52,20.00,8.00,0.01,29.65,M,5.00,20.00,BKN,OVC,M,M,800.00,1300.00,M,M,-RA BR,KWST 011024Z AUTO 02008G20KT 330V050 5SM -RA BR BKN008 OVC013 03/03 A2965 RMK AO2 P0001 T00330028
WST,2017-04-01 10:25,-71.7989,41.3497,M,M,M,20.00,8.00,0.01,29.65,M,5.00,M,BKN,OVC,M,M,800.00,1300.00,M,M,-RA BR,KWST 011025Z AUTO 02008KT 5SM -RA BR BKN008 OVC013 A2965 RMK P0001 MADISHF
WST,2017-04-01 10:30,-71.7989,41.3497,M,M,M,10.00,9.00,0.01,29.65,M,5.00,15.00,BKN,OVC,M,M,800.00,1200.00,M,M,-RA BR,KWST 011030Z AUTO 01009G15KT 5SM -RA BR BKN008 OVC012 A2965 RMK P0001 MADISHF
WST,2017-04-01 10:35,-71.7989,41.3497,M,M,M,20.00,9.00,0.01,29.65,M,5.00,M,BKN,OVC,M,M,800.00,1200.00,M,M,-RA BR,KWST 011035Z AUTO 02009KT 5SM -RA BR BKN008 OVC012 A2965 RMK P0001 MADISHF
WST,2017-04-01 10:40,-71.7989,41.3497,M,M,M,20.00,12.00,0.01,29.65,M,5.00,M,OVC,M,M,M,999.00,M,M,M,-RA BR,KWST 011040Z AUTO 02012KT 5SM -RA BR OVC009 A2965 RMK P0001 MADISHF
WST,2017-04-01 10:45,-71.7989,41.3497,37.90,37.00,96.52,20.00,12.00,0.02,29.65,M,4.00,18.00,OVC,M,M,M,1000.00,M,M,M,-RA BR,KWST 011045Z AUTO 02012G18KT 4SM -RA BR OVC010 03/03 A2965 RMK AO2 P0002 T00330028
WST,2017-04-01 10:49,-71.7989,41.3497,37.40,37.40,100.00,30.00,8.00,0.02,29.65,M,3.00,18.00,BKN,OVC,M,M,800.00,1300.00,M,M,-RA BR,KWST 011049Z AUTO 03008G18KT 3SM -RA BR BKN008 OVC013 03/03 A2965 RMK AO2 P0002
WST,2017-04-01 10:50,-71.7989,41.3497,M,M,M,30.00,11.00,0.02,29.65,M,3.00,M,OVC,M,M,M,1100.00,M,M,M,-RA BR,KWST 011050Z AUTO 03011KT 3SM -RA BR OVC011 A2965 RMK P0002 MADISHF
WST,2017-04-01 10:53,-71.7989,41.3497,37.90,37.00,96.52,30.00,11.00,0.02,29.65,1004.00,2.50,20.00,SCT,OVC,M,M,800.00,1300.00,M,M,-RA BR,KWST 011053Z AUTO 03011G20KT 2 1/2SM -RA BR SCT008 OVC013 03/03 A2965 RMK AO2 SLP040 P0002 T00330028
WST,2017-04-01 10:55,-71.7989,41.3497,M,M,M,10.00,11.00,M,29.65,M,2.50,18.00,OVC,M,M,M,1100.00,M,M,M,-RA BR,KWST 011055Z AUTO 01011G18KT 2 1/2SM -RA BR OVC011 A2965 RMK MADISHF
WST,2017-04-01 11:00,-71.7989,41.3497,M,M,M,10.00,10.00,M,29.65,M,2.50,15.00,OVC,M,M,M,1100.00,M,M,M,-RA BR,KWST 011100Z AUTO 01010G15KT 2 1/2SM -RA BR OVC011 A2965 RMK MADISHF
WST,2017-04-01 11:05,-71.7989,41.3497,M,M,M,20.00,10.00,M,29.65,M,2.50,M,OVC,M,M,M,1100.00,M,M,M,-RA BR,KWST 011105Z AUTO 02010KT 2 1/2SM -RA BR OVC011 A2965 RMK MADISHF
WST,2017-04-01 11:10,-71.7989,41.3497,M,M,M,20.00,12.00,0.01,29.65,M,2.50,20.00,BKN,OVC,M,M,900.00,1400.00,M,M,-RA BR,KWST 011110Z AUTO 02012G20KT 2 1/2SM -RA BR BKN009 OVC014 A2965 RMK P0001 MADISHF
WST,2017-04-01 11:15,-71.7989,41.3497,M,M,M,20.00,11.00,0.01,29.65,M,2.50,17.00,BKN,OVC,M,M,900.00,1400.00,M,M,-RA BR,KWST 011115Z AUTO 02011G17KT 2 1/2SM -RA BR BKN009 OVC014 A2965 RMK P0001 MADISHF
WST,2017-04-01 11:20,-71.7989,41.3497,M,M,M,20.00,13.00,0.01,29.65,M,2.50,18.00,BKN,OVC,M,M,999.00,1400.00,M,M,-RA BR,KWST 011120Z AUTO 02013G18KT 2 1/2SM -RA BR BKN009 OVC014 A2965 RMK P0001 MADISHF
WST,2017-04-01 11:25,-71.7989,41.3497,M,M,M,10.00,12.00,0.01,29.65,M,3.00,19.00,BKN,OVC,M,M,999.00,1400.00,M,M,-RA BR,KWST 011125Z AUTO 01012G19KT 3SM -RA BR BKN009 OVC014 A2965 RMK P0001 MADISHF
WST,2017-04-01 11:30,-71.7989,41.3497,39.00,37.00,92.45,10.00,11.00,0.01,29.65,M,3.00,19.00,BKN,OVC,M,M,1000.00,1400.00,M,M,-RA BR,KWST 011130Z AUTO 01011G19KT 3SM -RA BR BKN010 OVC014 04/03 A2965 RMK AO2 P0001 T00390028
WST,2017-04-01 11:35,-71.7989,41.3497,M,M,M,20.00,12.00,0.01,29.65,M,3.00,18.00,BKN,OVC,M,M,999.00,1600.00,M,M,-RA BR,KWST 011135Z AUTO 02012G18KT 3SM -RA BR BKN009 OVC016 A2965 RMK P0001 MADISHF
WST,2017-04-01 11:40,-71.7989,41.3497,M,M,M,20.00,14.00,0.01,29.65,M,2.50,19.00,OVC,M,M,M,1200.00,M,M,M,-RA BR,KWST 011140Z AUTO 02014G19KT 2 1/2SM -RA BR OVC012 A2965 RMK P0001 MADISHF
WST,2017-04-01 11:44,-71.7989,41.3497,39.00,37.00,92.45,10.00,13.00,0.01,29.65,M,2.50,19.00,BKN,OVC,M,M,1000.00,1500.00,M,M,-RA BR,KWST 011144Z AUTO 01013G19KT 2 1/2SM -RA BR BKN010 OVC015 04/03 A2965 RMK AO2 P0001 T00390028
WST,2017-04-01 11:45,-71.7989,41.3497,M,M,M,10.00,13.00,0.01,29.65,M,2.50,18.00,BKN,OVC,M,M,999.00,1500.00,M,M,-RA BR,KWST 011145Z AUTO 01013G18KT 2 1/2SM -RA BR BKN009 OVC015 A2965 RMK P0001 MADISHF
WST,2017-04-01 11:50,-71.7989,41.3497,M,M,M,360.00,12.00,0.01,29.65,M,2.00,19.00,BKN,OVC,M,M,999.00,1500.00,M,M,-RA BR,KWST 011150Z AUTO 36012G19KT 2SM -RA BR BKN009 OVC015 A2965 RMK P0001 MADISHF
WST,2017-04-01 11:53,-71.7989,41.3497,39.00,37.00,92.45,10.00,12.00,0.02,29.65,1004.10,2.00,20.00,BKN,OVC,M,M,1000.00,1500.00,M,M,-RA BR,KWST 011153Z AUTO 01012G20KT 2SM -RA BR BKN010 OVC015 04/03 A2965 RMK AO2 SLP041 P0002 60065 70145 T00390028 10039 20033 55005
WST,2017-04-01 11:55,-71.7989,41.3497,M,M,M,360.00,14.00,M,29.65,M,2.00,20.00,BKN,OVC,M,M,999.00,1500.00,M,M,-RA BR,KWST 011155Z AUTO 36014G20KT 2SM -RA BR BKN009 OVC015 A2965 RMK MADISHF
WST,2017-04-01 12:00,-71.7989,41.3497,M,M,M,10.00,13.00,M,29.65,M,1.75,M,OVC,M,M,M,1200.00,M,M,M,-RA BR,KWST 011200Z AUTO 01013KT 2SM -RA BR OVC012 A2965 RMK MADISHF
WST,2017-04-01 12:05,-71.7989,41.3497,M,M,M,10.00,11.00,M,29.65,M,1.75,M,OVC,M,M,M,999.00,M,M,M,-RA BR,KWST 011205Z AUTO 01011KT 2SM -RA BR OVC009 A2965 RMK MADISHF
WST,2017-04-01 12:06,-71.7989,41.3497,39.00,37.00,92.45,10.00,12.00,0.00,29.65,M,1.75,20.00,BKN,OVC,M,M,1000.00,1400.00,M,M,-RA BR,KWST 011206Z AUTO 01012G20KT 1 3/4SM -RA BR BKN010 OVC014 04/03 A2965 RMK AO2 P0000 T00390028
WST,2017-04-01 12:10,-71.7989,41.3497,M,M,M,10.00,12.00,M,29.65,M,2.00,17.00,BKN,OVC,M,M,999.00,1500.00,M,M,-RA BR,KWST 011210Z AUTO 01012G17KT 2SM -RA BR BKN009 OVC015 A2965 RMK MADISHF
WST,2017-04-01 12:15,-71.7989,41.3497,39.00,37.90,95.78,20.00,12.00,0.00,29.65,M,2.00,22.00,OVC,M,M,M,1200.00,M,M,M,-RA BR,KWST 011215Z AUTO 02012G22KT 2SM -RA BR OVC012 04/03 A2965 RMK AO2 P0000 T00390033
WST,2017-04-01 12:20,-71.7989,41.3497,M,M,M,20.00,13.00,M,29.65,M,2.00,M,SCT,OVC,M,M,900.00,1400.00,M,M,-RA BR,KWST 011220Z AUTO 02013KT 2SM -RA BR SCT009 OVC014 A2965 RMK MADISHF
WST,2017-04-01 12:25,-71.7989,41.3497,M,M,M,20.00,15.00,M,29.65,M,2.50,20.00,BKN,OVC,M,M,999.00,1500.00,M,M,-RA BR,KWST 011225Z AUTO 02015G20KT 2 1/2SM -RA BR BKN009 OVC015 A2965 RMK MADISHF
WST,2017-04-01 12:30,-71.7989,41.3497,M,M,M,10.00,11.00,M,29.65,M,2.50,M,SCT,OVC,M,M,999.00,1500.00,M,M,-RA BR,KWST 011230Z AUTO 01011KT 2 1/2SM -RA BR SCT009 OVC015 A2965 RMK MADISHF
WST,2017-04-01 12:33,-71.7989,41.3497,39.90,37.90,92.48,10.00,10.00,0.01,29.65,M,3.00,20.00,SCT,OVC,M,M,1000.00,1500.00,M,M,-RA BR,KWST 011233Z AUTO 01010G20KT 3SM -RA BR SCT010 OVC015 04/03 A2965 RMK AO2 P0001 T00440033
WST,2017-04-01 12:35,-71.7989,41.3497,M,M,M,10.00,11.00,0.01,29.65,M,3.00,M,SCT,OVC,M,M,999.00,1500.00,M,M,-RA BR,KWST 011235Z AUTO 01011KT 3SM -RA BR SCT009 OVC015 A2965 RMK P0001 MADISHF
WST,2017-04-01 12:40,-71.7989,41.3497,M,M,M,10.00,13.00,0.01,29.65,M,3.00,M,BKN,OVC,M,M,999.00,1500.00,M,M,-RA BR,KWST 011240Z AUTO 01013KT 3SM -RA BR BKN009 OVC015 A2965 RMK P0001 MADISHF
WST,2017-04-01 12:42,-71.7989,41.3497,39.90,37.90,92.48,10.00,15.00,0.01,29.65,M,3.00,24.00,BKN,OVC,M,M,1000.00,1500.00,M,M,-RA BR,KWST 011242Z AUTO 01015G24KT 3SM -RA BR BKN010 OVC015 04/03 A2965 RMK AO2 P0001 T00440033
WST,2017-04-01 12:45,-71.7989,41.3497,M,M,M,360.00,13.00,0.01,29.65,M,3.00,M,BKN,OVC,M,M,1100.00,1600.00,M,M,-RA BR,KWST 011245Z AUTO 36013KT 3SM -RA BR BKN011 OVC016 A2965 RMK P0001 MADISHF
WST,2017-04-01 12:50,-71.7989,41.3497,M,M,M,10.00,15.00,0.01,29.65,M,3.00,M,SCT,OVC,M,M,999.00,1500.00,M,M,-RA BR,KWST 011250Z AUTO 01015KT 3SM -RA BR SCT009 OVC015 A2965 RMK P0001 MADISHF
WST,2017-04-01 12:53,-71.7989,41.3497,39.90,37.90,92.48,10.00,12.00,0.01,29.65,1004.10,3.00,22.00,BKN,OVC,M,M,1200.00,1700.00,M,M,-RA BR,KWST 011253Z AUTO 01012G22KT 3SM -RA BR BKN012 OVC017 04/03 A2965 RMK AO2 SLP041 P0001 T00440033
WST,2017-04-01 12:55,-71.7989,41.3497,M,M,M,10.00,13.00,0.01,29.65,M,3.50,M,BKN,OVC,M,M,1200.00,1699.00,M,M,-RA BR,KWST 011255Z AUTO 01013KT 3SM -RA BR BKN012 OVC016 A2965 RMK P0001 MADISHF
WST,2017-04-01 13:00,-71.7989,41.3497,M,M,M,10.00,13.00,0.01,29.65,M,4.00,M,BKN,OVC,M,M,1200.00,1699.00,M,M,-RA BR,KWST 011300Z AUTO 01013KT 4SM -RA BR BKN012 OVC016 A2965 RMK P0001 MADISHF
WST,2017-04-01 13:05,-71.7989,41.3497,M,M,M,10.00,12.00,0.01,29.66,M,4.00,M,BKN,OVC,M,M,1200.00,1699.00,M,M,-RA BR,KWST 011305Z AUTO 01012KT 4SM -RA BR BKN012 OVC016 A2966 RMK P0001 MADISHF
WST,2017-04-01 13:10,-71.7989,41.3497,M,M,M,10.00,12.00,0.01,29.66,M,4.00,M,BKN,OVC,M,M,1200.00,1800.00,M,M,-RA BR,KWST 011310Z AUTO 01012KT 4SM -RA BR BKN012 OVC018 A2966 RMK P0001 MADISHF
WST,2017-04-01 13:15,-71.7989,41.3497,M,M,M,10.00,14.00,0.01,29.65,M,4.00,20.00,BKN,OVC,M,M,1200.00,1800.00,M,M,-RA BR,KWST 011315Z AUTO 01014G20KT 4SM -RA BR BKN012 OVC018 A2965 RMK P0001 MADISHF
WST,2017-04-01 13:20,-71.7989,41.3497,M,M,M,10.00,14.00,0.01,29.66,M,5.00,20.00,BKN,OVC,M,M,1200.00,1800.00,M,M,-RA BR,KWST 011320Z AUTO 01014G20KT 5SM -RA BR BKN012 OVC018 A2966 RMK P0001 MADISHF
WST,2017-04-01 13:25,-71.7989,41.3497,M,M,M,10.00,14.00,0.02,29.66,M,5.00,20.00,BKN,OVC,M,M,1200.00,1800.00,M,M,-RA BR,KWST 011325Z AUTO 01014G20KT 5SM -RA BR BKN012 OVC018 A2966 RMK P0002 MADISHF
WST,2017-04-01 13:30,-71.7989,41.3497,M,M,M,10.00,14.00,0.02,29.66,M,5.00,M,BKN,OVC,M,M,1200.00,1800.00,M,M,-RA BR,KWST 011330Z AUTO 01014KT 5SM -RA BR BKN012 OVC018 A2966 RMK P0002 MADISHF
WST,2017-04-01 13:35,-71.7989,41.3497,M,M,M,20.00,16.00,0.02,29.66,M,4.00,M,BKN,OVC,M,M,1200.00,1800.00,M,M,-RA BR,KWST 011335Z AUTO 02016KT 4SM -RA BR BKN012 OVC018 A2966 RMK P0002 MADISHF
WST,2017-04-01 13:40,-71.7989,41.3497,M,M,M,20.00,13.00,0.02,29.66,M,4.00,M,BKN,OVC,M,M,1200.00,1800.00,M,M,-RA BR,KWST 011340Z AUTO 02013KT 4SM -RA BR BKN012 OVC018 A2966 RMK P0002 MADISHF
WST,2017-04-01 13:45,-71.7989,41.3497,M,M,M,10.00,12.00,0.02,29.67,M,4.00,17.00,BKN,OVC,M,M,1200.00,1800.00,M,M,-RA BR,KWST 011345Z AUTO 01012G17KT 4SM -RA BR BKN012 OVC018 A2967 RMK P0002 MADISHF
WST,2017-04-01 13:50,-71.7989,41.3497,M,M,M,360.00,14.00,0.02,29.66,M,4.00,M,BKN,BKN,OVC,M,1200.00,1800.00,2300.00,M,-RA BR,KWST 011350Z AUTO 36014KT 4SM -RA BR BKN012 BKN018 OVC023 A2966 RMK P0002 MADISHF
WST,2017-04-01 13:53,-71.7989,41.3497,41.00,39.00,92.52,20.00,16.00,0.02,29.66,1004.50,5.00,25.00,BKN,BKN,OVC,M,1200.00,1700.00,2300.00,M,-RA BR,KWST 011353Z AUTO 02016G25KT 5SM -RA BR BKN012 BKN017 OVC023 05/04 A2966 RMK AO2 SLP045 P0002 T00500039
WST,2017-04-01 13:55,-71.7989,41.3497,M,M,M,10.00,12.00,M,29.66,M,5.00,17.00,BKN,OVC,M,M,1500.00,2300.00,M,M,-RA BR,KWST 011355Z AUTO 01012G17KT 5SM -RA BR BKN015 OVC023 A2966 RMK MADISHF
WST,2017-04-01 14:00,-71.7989,41.3497,41.00,39.00,92.52,10.00,14.00,0.00,29.66,M,5.00,25.00,BKN,OVC,M,M,1500.00,2100.00,M,M,-RA BR,KWST 011400Z AUTO 01014G25KT 5SM -RA BR BKN015 OVC021 05/04 A2966 RMK AO2 P0000 T00500039
WST,2017-04-01 14:05,-71.7989,41.3497,M,M,M,10.00,12.00,M,29.66,M,6.00,19.00,BKN,OVC,M,M,1500.00,2100.00,M,M,-RA BR,KWST 011405Z AUTO 01012G19KT 6SM -RA BR BKN015 OVC021 A2966 RMK MADISHF
WST,2017-04-01 14:10,-71.7989,41.3497,M,M,M,10.00,14.00,0.01,29.67,M,6.00,M,BKN,OVC,M,M,1400.00,2100.00,M,M,-RA BR,KWST 011410Z AUTO 01014KT 6SM -RA BR BKN014 OVC021 A2967 RMK P0001 MADISHF
WST,2017-04-01 14:12,-71.7989,41.3497,41.00,39.00,92.52,10.00,14.00,0.01,29.67,M,6.00,22.00,BKN,OVC,M,M,1400.00,2100.00,M,M,-RA BR,KWST 011412Z AUTO 01014G22KT 6SM -RA BR BKN014 OVC021 05/04 A2967 RMK AO2 P0001 T00500039
WST,2017-04-01 14:15,-71.7989,41.3497,M,M,M,10.00,14.00,0.01,29.67,M,6.00,19.00,BKN,OVC,M,M,1400.00,2100.00,M,M,-RA BR,KWST 011415Z AUTO 01014G19KT 6SM -RA BR BKN014 OVC021 A2967 RMK P0001 MADISHF
WST,2017-04-01 14:20,-71.7989,41.3497,M,M,M,360.00,12.00,0.01,29.67,M,6.00,17.00,BKN,OVC,M,M,1400.00,1900.00,M,M,-RA BR,KWST 011420Z AUTO 36012G17KT 6SM -RA BR BKN014 OVC019 A2967 RMK P0001 MADISHF
WST,2017-04-01 14:25,-71.7989,41.3497,M,M,M,10.00,16.00,0.01,29.67,M,6.00,23.00,BKN,OVC,M,M,1400.00,1900.00,M,M,-RA BR,KWST 011425Z AUTO 01016G23KT 6SM -RA BR BKN014 OVC019 A2967 RMK P0001 MADISHF
WST,2017-04-01 14:30,-71.7989,41.3497,M,M,M,20.00,13.00,0.01,29.67,M,7.00,M,BKN,OVC,M,M,1400.00,1900.00,M,M,-RA,KWST 011430Z AUTO 02013KT 7SM -RA BKN014 OVC019 A2967 RMK P0001 MADISHF
WST,2017-04-01 14:35,-71.7989,41.3497,M,M,M,360.00,15.00,0.01,29.67,M,7.00,M,BKN,OVC,M,M,1400.00,1900.00,M,M,-RA,KWST 011435Z AUTO 36015KT 7SM -RA BKN014 OVC019 A2967 RMK P0001 MADISHF
WST,2017-04-01 14:40,-71.7989,41.3497,M,M,M,360.00,12.00,0.01,29.67,M,7.00,17.00,OVC,M,M,M,1600.00,M,M,M,-RA,KWST 011440Z AUTO 36012G17KT 7SM -RA OVC016 A2967 RMK P0001 MADISHF
WST,2017-04-01 14:45,-71.7989,41.3497,M,M,M,10.00,12.00,0.01,29.67,M,7.00,M,OVC,M,M,M,1400.00,M,M,M,-RA,KWST 011445Z AUTO 01012KT 7SM -RA OVC014 A2967 RMK P0001 MADISHF
WST,2017-04-01 14:50,-71.7989,41.3497,M,M,M,360.00,16.00,0.01,29.67,M,7.00,M,BKN,OVC,M,M,1400.00,2400.00,M,M,-RA,KWST 011450Z AUTO 36016KT 7SM -RA BKN014 OVC024 A2967 RMK P0001 MADISHF
WST,2017-04-01 14:53,-71.7989,41.3497,42.10,39.00,88.67,360.00,16.00,0.01,29.67,1004.80,7.00,26.00,BKN,OVC,M,M,1400.00,2400.00,M,M,-RA,KWST 011453Z AUTO 36016G26KT 7SM -RA BKN014 OVC024 06/04 A2967 RMK AO2 PK WND 01026/1449 SLP048 P0001 60004 T00560039 53007
WST,2017-04-01 14:55,-71.7989,41.3497,M,M,M,20.00,15.00,M,29.67,M,8.00,20.00,OVC,M,M,M,1600.00,M,M,M,-RA,KWST 011455Z AUTO 02015G20KT 8SM -RA OVC016 A2967 RMK MADISHF
WST,2017-04-01 15:00,-71.7989,41.3497,M,M,M,10.00,16.00,M,29.67,M,8.00,M,SCT,OVC,M,M,1300.00,1800.00,M,M,-RA,KWST 011500Z AUTO 01016KT 8SM -RA SCT013 OVC018 A2967 RMK MADISHF
WST,2017-04-01 15:05,-71.7989,41.3497,M,M,M,10.00,16.00,M,29.67,M,9.00,22.00,BKN,OVC,M,M,1300.00,1800.00,M,M,-RA,KWST 011505Z AUTO 01016G22KT 9SM -RA BKN013 OVC018 A2967 RMK MADISHF
WST,2017-04-01 15:10,-71.7989,41.3497,M,M,M,10.00,16.00,M,29.68,M,9.00,M,BKN,OVC,M,M,1300.00,1800.00,M,M,-RA,KWST 011510Z AUTO 01016KT 9SM -RA BKN013 OVC018 A2968 RMK MADISHF
WST,2017-04-01 15:15,-71.7989,41.3497,M,M,M,10.00,14.00,M,29.68,M,9.00,20.00,OVC,M,M,M,1500.00,M,M,M,-RA,KWST 011515Z AUTO 01014G20KT 9SM -RA OVC015 A2968 RMK WND 34V04  MADISHF
WST,2017-04-01 15:20,-71.7989,41.3497,M,M,M,10.00,13.00,M,29.67,M,8.00,19.00,BKN,OVC,M,M,1300.00,1800.00,M,M,-RA,KWST 011520Z AUTO 01013G19KT 8SM -RA BKN013 OVC018 A2967 RMK MADISHF
WST,2017-04-01 15:25,-71.7989,41.3497,M,M,M,20.00,16.00,M,29.68,M,7.00,33.00,BKN,OVC,M,M,1300.00,1800.00,M,M,-RA,KWST 011525Z AUTO 02016G33KT 7SM -RA BKN013 OVC018 A2968 RMK MADISHF
WST,2017-04-01 15:30,-71.7989,41.3497,M,M,M,10.00,16.00,M,29.68,M,7.00,M,BKN,OVC,M,M,1300.00,1999.00,M,M,-RA,KWST 011530Z AUTO 01016KT 7SM -RA BKN013 OVC019 A2968 RMK MADISHF
WST,2017-04-01 15:35,-71.7989,41.3497,M,M,M,360.00,14.00,M,29.68,M,6.00,M,BKN,OVC,M,M,1600.00,1999.00,M,M,-RA BR,KWST 011535Z AUTO 36014KT 6SM -RA BR BKN016 OVC019 A2968 RMK WND 35V06  MADISHF
WST,2017-04-01 15:37,-71.7989,41.3497,42.10,37.90,84.93,360.00,15.00,0.00,29.68,M,6.00,34.00,OVC,M,M,M,1600.00,M,M,M,-RA BR,KWST 011537Z AUTO 36015G34KT 6SM -RA BR OVC016 06/03 A2968 RMK AO2 PK WND 36034/1532 P0000 T00560033
WST,2017-04-01 15:40,-71.7989,41.3497,M,M,M,20.00,16.00,M,29.69,M,6.00,M,OVC,M,M,M,1600.00,M,M,M,-RA BR,KWST 011540Z AUTO 02016KT 6SM -RA BR OVC016 A2969 RMK MADISHF
WST,2017-04-01 15:45,-71.7989,41.3497,M,M,M,10.00,17.00,M,29.69,M,6.00,M,OVC,M,M,M,1600.00,M,M,M,-RA BR,KWST 011545Z AUTO 01017KT 6SM -RA BR OVC016 A2969 RMK MADISHF
WST,2017-04-01 15:50,-71.7989,41.3497,M,M,M,10.00,15.00,M,29.69,M,7.00,M,OVC,M,M,M,1600.00,M,M,M,-RA,KWST 011550Z AUTO 01015KT 7SM -RA OVC016 A2969 RMK MADISHF
WST,2017-04-01 15:53,-71.7989,41.3497,42.10,37.90,84.93,360.00,15.00,0.00,29.69,1005.40,7.00,25.00,OVC,M,M,M,1600.00,M,M,M,M,KWST 011553Z AUTO 36015G25KT 7SM OVC016 06/03 A2969 RMK AO2 PK WND 36034/1532 RAE51 SLP054 P0000 T00560033
WST,2017-04-01 15:55,-71.7989,41.3497,M,M,M,10.00,14.00,M,29.69,M,8.00,M,BKN,OVC,M,M,1600.00,1999.00,M,M,M,KWST 011555Z AUTO 01014KT 8SM BKN016 OVC019 A2969 RMK MADISHF
WST,2017-04-01 16:00,-71.7989,41.3497,M,M,M,10.00,16.00,M,29.69,M,7.00,M,OVC,M,M,M,1600.00,M,M,M,M,KWST 011600Z AUTO 01016KT 7SM OVC016 A2969 RMK MADISHF
WST,2017-04-01 16:05,-71.7989,41.3497,M,M,M,10.00,16.00,M,29.70,M,6.00,25.00,OVC,M,M,M,1600.00,M,M,M,BR,KWST 011605Z AUTO 01016G25KT 6SM BR OVC016 A2970 RMK MADISHF
WST,2017-04-01 16:10,-71.7989,41.3497,M,M,M,360.00,18.00,M,29.70,M,5.00,25.00,OVC,M,M,M,1600.00,M,M,M,-RA BR,KWST 011610Z AUTO 36018G25KT 5SM -RA BR OVC016 A2970 RMK MADISHF
WST,2017-04-01 16:15,-71.7989,41.3497,M,M,M,360.00,13.00,M,29.70,M,4.00,M,OVC,M,M,M,1600.00,M,M,M,-RA BR,KWST 011615Z AUTO 36013KT 4SM -RA BR OVC016 A2970 RMK MADISHF
WST,2017-04-01 16:20,-71.7989,41.3497,M,M,M,360.00,16.00,M,29.70,M,5.00,22.00,OVC,M,M,M,1600.00,M,M,M,-RA BR,KWST 011620Z AUTO 36016G22KT 5SM -RA BR OVC016 A2970 RMK MADISHF
WST,2017-04-01 16:25,-71.7989,41.3497,M,M,M,360.00,17.00,M,29.70,M,4.00,M,OVC,M,M,M,1600.00,M,M,M,-RA BR,KWST 011625Z AUTO 36017KT 4SM -RA BR OVC016 A2970 RMK MADISHF
WST,2017-04-01 16:30,-71.7989,41.3497,M,M,M,10.00,15.00,M,29.70,M,4.00,22.00,OVC,M,M,M,1600.00,M,M,M,-RA BR,KWST 011630Z AUTO 01015G22KT 4SM -RA BR OVC016 A2970 RMK MADISHF
WST,2017-04-01 16:35,-71.7989,41.3497,M,M,M,360.00,14.00,M,29.71,M,5.00,M,OVC,M,M,M,1600.00,M,M,M,-RA BR,KWST 011635Z AUTO 36014KT 5SM -RA BR OVC016 A2971 RMK WND 34V05  MADISHF
WST,2017-04-01 16:40,-71.7989,41.3497,M,M,M,10.00,16.00,M,29.70,M,6.00,M,BKN,OVC,M,M,1600.00,2100.00,M,M,-RA BR,KWST 011640Z AUTO 01016KT 6SM -RA BR BKN016 OVC021 A2970 RMK MADISHF
WST,2017-04-01 16:45,-71.7989,41.3497,M,M,M,360.00,15.00,M,29.70,M,7.00,M,OVC,M,M,M,1600.00,M,M,M,-RA,KWST 011645Z AUTO 36015KT 7SM -RA OVC016 A2970 RMK MADISHF
WST,2017-04-01 16:50,-71.7989,41.3497,M,M,M,10.00,16.00,M,29.71,M,8.00,M,OVC,M,M,M,1600.00,M,M,M,M,KWST 011650Z AUTO 01016KT 8SM OVC016 A2971 RMK MADISHF
WST,2017-04-01 16:53,-71.7989,41.3497,41.00,37.00,85.54,10.00,15.00,0.00,29.71,1006.00,7.00,23.00,BKN,OVC,M,M,1600.00,2200.00,M,M,M,KWST 011653Z AUTO 01015G23KT 350V060 7SM BKN016 OVC022 05/03 A2971 RMK AO2 PK WND 35031/1623 RAB07E48 SLP060 P0000 T00500028
WST,2017-04-01 16:55,-71.7989,41.3497,M,M,M,10.00,16.00,M,29.71,M,7.00,M,BKN,OVC,M,M,1600.00,2200.00,M,M,M,KWST 011655Z AUTO 01016KT 7SM BKN016 OVC022 A2971 RMK MADISHF
WST,2017-04-01 17:00,-71.7989,41.3497,M,M,M,20.00,15.00,M,29.71,M,8.00,20.00,BKN,OVC,M,M,1600.00,2200.00,M,M,M,KWST 011700Z AUTO 02015G20KT 8SM BKN016 OVC022 A2971 RMK MADISHF
WST,2017-04-01 17:05,-71.7989,41.3497,M,M,M,10.00,19.00,M,29.71,M,9.00,25.00,BKN,OVC,M,M,1600.00,2100.00,M,M,M,KWST 011705Z AUTO 01019G25KT 9SM BKN016 OVC021 A2971 RMK MADISHF
WST,2017-04-01 17:10,-71.7989,41.3497,M,M,M,10.00,17.00,M,29.71,M,10.00,23.00,BKN,OVC,M,M,1600.00,2100.00,M,M,M,KWST 011710Z AUTO 01017G23KT 10SM BKN016 OVC021 A2971 RMK MADISHF
WST,2017-04-01 17:15,-71.7989,41.3497,M,M,M,360.00,14.00,M,29.71,M,10.00,20.00,BKN,OVC,M,M,1600.00,2400.00,M,M,M,KWST 011715Z AUTO 36014G20KT 10SM BKN016 OVC024 A2971 RMK MADISHF
WST,2017-04-01 17:20,-71.7989,41.3497,M,M,M,10.00,15.00,M,29.71,M,10.00,M,BKN,OVC,M,M,1600.00,2300.00,M,M,M,KWST 011720Z AUTO 01015KT 10SM BKN016 OVC023 A2971 RMK MADISHF
WST,2017-04-01 17:25,-71.7989,41.3497,M,M,M,10.00,17.00,M,29.71,M,10.00,24.00,BKN,OVC,M,M,1600.00,2300.00,M,M,M,KWST 011725Z AUTO 01017G24KT 10SM BKN016 OVC023 A2971 RMK MADISHF
WST,2017-04-01 17:30,-71.7989,41.3497,M,M,M,360.00,15.00,M,29.71,M,10.00,M,BKN,OVC,M,M,1800.00,2600.00,M,M,M,KWST 011730Z AUTO 36015KT 10SM BKN018 OVC026 A2971 RMK MADISHF
WST,2017-04-01 17:35,-71.7989,41.3497,M,M,M,10.00,22.00,M,29.71,M,10.00,33.00,BKN,OVC,M,M,1600.00,2600.00,M,M,M,KWST 011735Z AUTO 01022G33KT 10SM BKN016 OVC026 A2971 RMK MADISHF
WST,2017-04-01 17:40,-71.7989,41.3497,M,M,M,10.00,17.00,M,29.71,M,10.00,M,BKN,BKN,OVC,M,1800.00,2400.00,4100.00,M,M,KWST 011740Z AUTO 01017KT 10SM BKN018 BKN024 OVC041 A2971 RMK MADISHF
WST,2017-04-01 17:45,-71.7989,41.3497,M,M,M,360.00,21.00,M,29.71,M,10.00,M,BKN,BKN,OVC,M,1800.00,2500.00,4600.00,M,M,KWST 011745Z AUTO 36021KT 10SM BKN018 BKN025 OVC046 A2971 RMK MADISHF
WST,2017-04-01 17:50,-71.7989,41.3497,M,M,M,360.00,16.00,M,29.71,M,10.00,M,BKN,BKN,OVC,M,1800.00,2500.00,5000.00,M,M,KWST 011750Z AUTO 36016KT 10SM BKN018 BKN025 OVC050 A2971 RMK MADISHF
WST,2017-04-01 17:53,-71.7989,41.3497,39.90,35.10,82.80,360.00,17.00,0.00,29.71,1006.20,10.00,27.00,BKN,BKN,OVC,M,1800.00,2500.00,4700.00,M,M,KWST 011753Z AUTO 36017G27KT 10SM BKN018 BKN025 OVC047 04/02 A2971 RMK AO2 PK WND 01034/1735 SLP062 60004 T00440017 10056 20039 51014
WST,2017-04-01 17:55,-71.7989,41.3497,M,M,M,360.00,19.00,M,29.71,M,10.00,M,BKN,BKN,OVC,M,1800.00,2500.00,5000.00,M,M,KWST 011755Z AUTO 36019KT 10SM BKN018 BKN025 OVC050 A2971 RMK MADISHF
WST,2017-04-01 18:00,-71.7989,41.3497,M,M,M,360.00,17.00,M,29.71,M,10.00,31.00,BKN,BKN,OVC,M,1800.00,2300.00,5500.00,M,M,KWST 011800Z AUTO 36017G31KT 10SM BKN018 BKN023 OVC055 A2971 RMK MADISHF
WST,2017-04-01 18:05,-71.7989,41.3497,M,M,M,10.00,20.00,M,29.72,M,10.00,M,BKN,BKN,OVC,M,1800.00,2500.00,6000.00,M,M,KWST 011805Z AUTO 01020KT 10SM BKN018 BKN025 OVC060 A2972 RMK MADISHF
WST,2017-04-01 18:10,-71.7989,41.3497,M,M,M,360.00,20.00,M,29.72,M,10.00,27.00,BKN,BKN,OVC,M,1800.00,2500.00,4100.00,M,M,KWST 011810Z AUTO 36020G27KT 10SM BKN018 BKN025 OVC041 A2972 RMK MADISHF
WST,2017-04-01 18:15,-71.7989,41.3497,M,M,M,10.00,15.00,M,29.71,M,10.00,25.00,BKN,OVC,M,M,1800.00,2300.00,M,M,M,KWST 011815Z AUTO 01015G25KT 10SM BKN018 OVC023 A2971 RMK MADISHF
WST,2017-04-01 18:20,-71.7989,41.3497,M,M,M,360.00,14.00,M,29.71,M,10.00,20.00,BKN,OVC,M,M,1800.00,2500.00,M,M,M,KWST 011820Z AUTO 36014G20KT 10SM BKN018 OVC025 A2971 RMK MADISHF
WST,2017-04-01 18:25,-71.7989,41.3497,M,M,M,360.00,18.00,M,29.72,M,10.00,31.00,BKN,OVC,M,M,1999.00,2500.00,M,M,M,KWST 011825Z AUTO 36018G31KT 10SM BKN019 OVC025 A2972 RMK MADISHF
WST,2017-04-01 18:30,-71.7989,41.3497,M,M,M,10.00,16.00,M,29.73,M,10.00,M,BKN,OVC,M,M,1999.00,2500.00,M,M,M,KWST 011830Z AUTO 01016KT 10SM BKN019 OVC025 A2973 RMK MADISHF
WST,2017-04-01 18:35,-71.7989,41.3497,M,M,M,350.00,17.00,M,29.73,M,10.00,22.00,BKN,OVC,M,M,1900.00,2500.00,M,M,M,KWST 011835Z AUTO 35017G22KT 10SM BKN019 OVC025 A2973 RMK MADISHF
WST,2017-04-01 18:40,-71.7989,41.3497,M,M,M,360.00,15.00,M,29.73,M,10.00,M,BKN,OVC,M,M,1900.00,2500.00,M,M,M,KWST 011840Z AUTO 36015KT 10SM BKN019 OVC025 A2973 RMK MADISHF
WST,2017-04-01 18:45,-71.7989,41.3497,M,M,M,360.00,19.00,M,29.74,M,10.00,M,OVC,M,M,M,2100.00,M,M,M,M,KWST 011845Z AUTO 36019KT 10SM OVC021 A2974 RMK MADISHF
WST,2017-04-01 18:50,-71.7989,41.3497,M,M,M,350.00,19.00,M,29.74,M,10.00,M,OVC,M,M,M,2100.00,M,M,M,M,KWST 011850Z AUTO 35019KT 10SM OVC021 A2974 RMK MADISHF
WST,2017-04-01 18:53,-71.7989,41.3497,39.90,33.10,76.44,360.00,21.00,0.00,29.75,1007.30,10.00,30.00,OVC,M,M,M,2100.00,M,M,M,M,KWST 011853Z AUTO 36021G30KT 10SM OVC021 04/01 A2975 RMK AO2 PK WND 36034/1754 SLP073 T00440006
WST,2017-04-01 18:55,-71.7989,41.3497,M,M,M,360.00,19.00,M,29.74,M,10.00,M,OVC,M,M,M,2100.00,M,M,M,M,KWST 011855Z AUTO 36019KT 10SM OVC021 A2974 RMK MADISHF
WST,2017-04-01 19:00,-71.7989,41.3497,M,M,M,360.00,19.00,M,29.75,M,10.00,28.00,OVC,M,M,M,2100.00,M,M,M,M,KWST 011900Z AUTO 36019G28KT 10SM OVC021 A2975 RMK MADISHF
WST,2017-04-01 19:05,-71.7989,41.3497,M,M,M,350.00,15.00,M,29.75,M,10.00,M,OVC,M,M,M,2100.00,M,M,M,M,KWST 011905Z AUTO 35015KT 10SM OVC021 A2975 RMK MADISHF
WST,2017-04-01 19:10,-71.7989,41.3497,M,M,M,350.00,18.00,M,29.75,M,10.00,M,OVC,M,M,M,2100.00,M,M,M,M,KWST 011910Z AUTO 35018KT 10SM OVC021 A2975 RMK MADISHF
WST,2017-04-01 19:15,-71.7989,41.3497,M,M,M,10.00,19.00,M,29.75,M,10.00,25.00,OVC,M,M,M,2100.00,M,M,M,M,KWST 011915Z AUTO 01019G25KT 10SM OVC021 A2975 RMK MADISHF
WST,2017-04-01 19:20,-71.7989,41.3497,M,M,M,360.00,16.00,M,29.75,M,10.00,23.00,OVC,M,M,M,2100.00,M,M,M,M,KWST 011920Z AUTO 36016G23KT 10SM OVC021 A2975 RMK MADISHF
WST,2017-04-01 19:25,-71.7989,41.3497,M,M,M,360.00,14.00,M,29.75,M,10.00,19.00,OVC,M,M,M,2100.00,M,M,M,M,KWST 011925Z AUTO 36014G19KT 10SM OVC021 A2975 RMK MADISHF
WST,2017-04-01 19:30,-71.7989,41.3497,M,M,M,360.00,18.00,M,29.76,M,10.00,M,OVC,M,M,M,2200.00,M,M,M,M,KWST 011930Z AUTO 36018KT 10SM OVC022 A2976 RMK MADISHF
WST,2017-04-01 19:35,-71.7989,41.3497,M,M,M,360.00,18.00,M,29.76,M,10.00,23.00,OVC,M,M,M,2200.00,M,M,M,M,KWST 011935Z AUTO 36018G23KT 10SM OVC022 A2976 RMK MADISHF
WST,2017-04-01 19:40,-71.7989,41.3497,M,M,M,350.00,18.00,M,29.77,M,10.00,23.00,OVC,M,M,M,2200.00,M,M,M,M,KWST 011940Z AUTO 35018G23KT 10SM OVC022 A2977 RMK MADISHF
WST,2017-04-01 19:45,-71.7989,41.3497,M,M,M,360.00,16.00,M,29.77,M,10.00,M,OVC,M,M,M,2200.00,M,M,M,M,KWST 011945Z AUTO 36016KT 10SM OVC022 A2977 RMK MADISHF
WST,2017-04-01 19:50,-71.7989,41.3497,M,M,M,350.00,19.00,M,29.77,M,10.00,M,OVC,M,M,M,2200.00,M,M,M,M,KWST 011950Z AUTO 35019KT 10SM OVC022 A2977 RMK MADISHF
WST,2017-04-01 19:53,-71.7989,41.3497,39.90,33.10,76.44,350.00,17.00,0.00,29.77,1008.30,10.00,31.00,BKN,OVC,M,M,2200.00,2800.00,M,M,M,KWST 011953Z AUTO 35017G31KT 10SM BKN022 OVC028 04/01 A2977 RMK AO2 PK WND 01033/1908 SLP083 T00440006
WST,2017-04-01 19:55,-71.7989,41.3497,M,M,M,350.00,16.00,M,29.78,M,10.00,M,BKN,OVC,M,M,2200.00,2800.00,M,M,M,KWST 011955Z AUTO 35016KT 10SM BKN022 OVC028 A2978 RMK MADISHF
WST,2017-04-01 20:00,-71.7989,41.3497,M,M,M,350.00,14.00,M,29.78,M,10.00,M,BKN,OVC,M,M,2200.00,2800.00,M,M,M,KWST 012000Z AUTO 35014KT 10SM BKN022 OVC028 A2978 RMK MADISHF
WST,2017-04-01 20:05,-71.7989,41.3497,M,M,M,350.00,15.00,M,29.79,M,10.00,M,BKN,OVC,M,M,2200.00,2800.00,M,M,M,KWST 012005Z AUTO 35015KT 10SM BKN022 OVC028 A2979 RMK MADISHF
WST,2017-04-01 20:10,-71.7989,41.3497,M,M,M,350.00,19.00,M,29.79,M,10.00,M,BKN,OVC,M,M,2200.00,2800.00,M,M,M,KWST 012010Z AUTO 35019KT 10SM BKN022 OVC028 A2979 RMK MADISHF
WST,2017-04-01 20:15,-71.7989,41.3497,M,M,M,360.00,18.00,M,29.79,M,10.00,M,SCT,OVC,M,M,2200.00,2800.00,M,M,M,KWST 012015Z AUTO 36018KT 10SM SCT022 OVC028 A2979 RMK MADISHF
WST,2017-04-01 20:20,-71.7989,41.3497,M,M,M,360.00,18.00,M,29.79,M,10.00,23.00,SCT,OVC,M,M,2100.00,2800.00,M,M,M,KWST 012020Z AUTO 36018G23KT 10SM SCT021 OVC028 A2979 RMK MADISHF
WST,2017-04-01 20:25,-71.7989,41.3497,M,M,M,360.00,20.00,M,29.79,M,10.00,M,SCT,OVC,M,M,2100.00,2800.00,M,M,M,KWST 012025Z AUTO 36020KT 10SM SCT021 OVC028 A2979 RMK MADISHF
WST,2017-04-01 20:30,-71.7989,41.3497,M,M,M,360.00,17.00,M,29.79,M,10.00,27.00,SCT,BKN,OVC,M,2100.00,2800.00,5500.00,M,M,KWST 012030Z AUTO 36017G27KT 10SM SCT021 BKN028 OVC055 A2979 RMK MADISHF
WST,2017-04-01 20:35,-71.7989,41.3497,M,M,M,360.00,15.00,M,29.79,M,10.00,24.00,SCT,BKN,OVC,M,1900.00,2900.00,5500.00,M,M,KWST 012035Z AUTO 36015G24KT 10SM SCT019 BKN029 OVC055 A2979 RMK MADISHF
WST,2017-04-01 20:40,-71.7989,41.3497,M,M,M,350.00,16.00,M,29.80,M,10.00,M,SCT,BKN,BKN,M,1900.00,2700.00,5500.00,M,M,KWST 012040Z AUTO 35016KT 10SM SCT019 BKN027 BKN055 A2980 RMK MADISHF
WST,2017-04-01 20:45,-71.7989,41.3497,M,M,M,360.00,16.00,M,29.80,M,10.00,23.00,FEW,BKN,BKN,M,1900.00,2700.00,6000.00,M,M,KWST 012045Z AUTO 36016G23KT 10SM FEW019 BKN027 BKN060 A2980 RMK MADISHF
WST,2017-04-01 20:50,-71.7989,41.3497,M,M,M,350.00,15.00,M,29.81,M,10.00,20.00,BKN,BKN,OVC,M,2300.00,2900.00,6000.00,M,M,KWST 012050Z AUTO 35015G20KT 10SM BKN023 BKN029 OVC060 A2981 RMK MADISHF
WST,2017-04-01 20:53,-71.7989,41.3497,41.00,33.10,73.25,350.00,17.00,0.00,29.81,1009.50,10.00,27.00,BKN,BKN,OVC,M,2300.00,2900.00,6000.00,M,M,KWST 012053Z AUTO 35017G27KT 10SM BKN023 BKN029 OVC060 05/01 A2981 RMK AO2 PK WND 34031/2021 PRESRR SLP095 T00500006 53033
WST,2017-04-01 20:55,-71.7989,41.3497,M,M,M,350.00,20.00,M,29.81,M,10.00,M,BKN,BKN,OVC,M,2100.00,2700.00,5500.00,M,M,KWST 012055Z AUTO 35020KT 10SM BKN021 BKN027 OVC055 A2981 RMK MADISHF
WST,2017-04-01 21:00,-71.7989,41.3497,M,M,M,350.00,21.00,M,29.82,M,10.00,30.00,BKN,OVC,M,M,2100.00,2800.00,M,M,M,KWST 012100Z AUTO 35021G30KT 10SM BKN021 OVC028 A2982 RMK MADISHF
WST,2017-04-01 21:05,-71.7989,41.3497,M,M,M,350.00,18.00,M,29.83,M,10.00,M,BKN,OVC,M,M,2300.00,2900.00,M,M,M,KWST 012105Z AUTO 35018KT 10SM BKN023 OVC029 A2983 RMK MADISHF
WST,2017-04-01 21:10,-71.7989,41.3497,M,M,M,340.00,19.00,M,29.84,M,10.00,27.00,OVC,M,M,M,2300.00,M,M,M,M,KWST 012110Z AUTO 34019G27KT 10SM OVC023 A2984 RMK MADISHF
WST,2017-04-01 21:15,-71.7989,41.3497,M,M,M,340.00,17.00,M,29.84,M,10.00,22.00,OVC,M,M,M,2300.00,M,M,M,M,KWST 012115Z AUTO 34017G22KT 10SM OVC023 A2984 RMK MADISHF
WST,2017-04-01 21:20,-71.7989,41.3497,M,M,M,350.00,16.00,M,29.84,M,10.00,22.00,OVC,M,M,M,2300.00,M,M,M,M,KWST 012120Z AUTO 35016G22KT 10SM OVC023 A2984 RMK MADISHF
WST,2017-04-01 21:25,-71.7989,41.3497,M,M,M,340.00,18.00,M,29.85,M,10.00,M,OVC,M,M,M,2300.00,M,M,M,M,KWST 012125Z AUTO 34018KT 10SM OVC023 A2985 RMK MADISHF
WST,2017-04-01 21:30,-71.7989,41.3497,M,M,M,350.00,19.00,M,29.85,M,10.00,M,OVC,M,M,M,2300.00,M,M,M,M,KWST 012130Z AUTO 35019KT 10SM OVC023 A2985 RMK MADISHF
WST,2017-04-01 21:35,-71.7989,41.3497,M,M,M,350.00,19.00,M,29.85,M,10.00,M,OVC,M,M,M,2300.00,M,M,M,M,KWST 012135Z AUTO 35019KT 10SM OVC023 A2985 RMK MADISHF
WST,2017-04-01 21:40,-71.7989,41.3497,M,M,M,350.00,16.00,M,29.85,M,10.00,M,OVC,M,M,M,2300.00,M,M,M,M,KWST 012140Z AUTO 35016KT 10SM OVC023 A2985 RMK MADISHF
WST,2017-04-01 21:45,-71.7989,41.3497,M,M,M,350.00,15.00,M,29.86,M,10.00,M,OVC,M,M,M,2300.00,M,M,M,M,KWST 012145Z AUTO 35015KT 10SM OVC023 A2986 RMK MADISHF
WST,2017-04-01 21:50,-71.7989,41.3497,M,M,M,350.00,15.00,M,29.86,M,10.00,M,OVC,M,M,M,2300.00,M,M,M,M,KWST 012150Z AUTO 35015KT 10SM OVC023 A2986 RMK MADISHF
WST,2017-04-01 21:53,-71.7989,41.3497,39.90,30.90,69.96,350.00,17.00,0.00,29.86,1011.20,10.00,26.00,OVC,M,M,M,2300.00,M,M,M,M,KWST 012153Z AUTO 35017G26KT 10SM OVC023 04/M01 A2986 RMK AO2 PK WND 35031/2101 SLP112 T00441006
WST,2017-04-01 21:55,-71.7989,41.3497,M,M,M,350.00,15.00,M,29.86,M,10.00,M,OVC,M,M,M,2300.00,M,M,M,M,KWST 012155Z AUTO 35015KT 10SM OVC023 A2986 RMK MADISHF
WST,2017-04-01 22:00,-71.7989,41.3497,M,M,M,350.00,18.00,M,29.86,M,10.00,M,BKN,OVC,M,M,2300.00,2900.00,M,M,M,KWST 012200Z AUTO 35018KT 10SM BKN023 OVC029 A2986 RMK MADISHF
WST,2017-04-01 22:05,-71.7989,41.3497,M,M,M,360.00,19.00,M,29.87,M,10.00,M,BKN,OVC,M,M,2300.00,2900.00,M,M,M,KWST 012205Z AUTO 36019KT 10SM BKN023 OVC029 A2987 RMK MADISHF
WST,2017-04-01 22:10,-71.7989,41.3497,M,M,M,350.00,15.00,M,29.87,M,10.00,22.00,BKN,BKN,OVC,M,2300.00,2900.00,3800.00,M,M,KWST 012210Z AUTO 35015G22KT 10SM BKN023 BKN029 OVC038 A2987 RMK MADISHF
WST,2017-04-01 22:15,-71.7989,41.3497,M,M,M,350.00,18.00,M,29.87,M,10.00,27.00,SCT,BKN,OVC,M,2300.00,3100.00,3800.00,M,M,KWST 012215Z AUTO 35018G27KT 10SM SCT023 BKN031 OVC038 A2987 RMK MADISHF
WST,2017-04-01 22:20,-71.7989,41.3497,M,M,M,340.00,19.00,M,29.87,M,10.00,M,SCT,BKN,OVC,M,2300.00,3100.00,3999.00,M,M,KWST 012220Z AUTO 34019KT 10SM SCT023 BKN031 OVC039 A2987 RMK MADISHF
WST,2017-04-01 22:21,-71.7989,41.3497,39.00,30.90,72.45,350.00,21.00,0.00,29.87,M,10.00,30.00,SCT,BKN,OVC,M,2300.00,3100.00,4000.00,M,M,KWST 012221Z AUTO 35021G30KT 10SM SCT023 BKN031 OVC040 04/M01 A2987 RMK AO2 PK WND 36031/2205 T00391006
WST,2017-04-01 22:25,-71.7989,41.3497,M,M,M,350.00,21.00,M,29.87,M,10.00,M,SCT,BKN,OVC,M,2300.00,3100.00,3999.00,M,M,KWST 012225Z AUTO 35021KT 10SM SCT023 BKN031 OVC039 A2987 RMK MADISHF
WST,2017-04-01 22:30,-71.7989,41.3497,M,M,M,350.00,19.00,M,29.88,M,10.00,M,SCT,BKN,OVC,M,2300.00,3200.00,8500.00,M,M,KWST 012230Z AUTO 35019KT 10SM SCT023 BKN032 OVC085 A2988 RMK MADISHF
WST,2017-04-01 22:35,-71.7989,41.3497,M,M,M,350.00,15.00,M,29.89,M,10.00,M,SCT,BKN,OVC,M,2300.00,3999.00,8500.00,M,M,KWST 012235Z AUTO 35015KT 10SM SCT023 BKN039 OVC085 A2989 RMK MADISHF
WST,2017-04-01 22:40,-71.7989,41.3497,M,M,M,350.00,17.00,M,29.89,M,10.00,M,SCT,BKN,OVC,M,2300.00,3999.00,8500.00,M,M,KWST 012240Z AUTO 35017KT 10SM SCT023 BKN039 OVC085 A2989 RMK MADISHF
WST,2017-04-01 22:45,-71.7989,41.3497,M,M,M,350.00,16.00,M,29.89,M,10.00,M,SCT,BKN,OVC,M,2300.00,3999.00,9000.00,M,M,KWST 012245Z AUTO 35016KT 10SM SCT023 BKN039 OVC090 A2989 RMK MADISHF
WST,2017-04-01 22:50,-71.7989,41.3497,M,M,M,350.00,16.00,M,29.89,M,10.00,M,SCT,BKN,M,M,2300.00,7999.00,M,M,M,KWST 012250Z AUTO 35016KT 10SM SCT023 BKN079 A2989 RMK MADISHF
WST,2017-04-01 22:53,-71.7989,41.3497,39.00,30.90,72.45,340.00,17.00,0.00,29.89,1012.30,10.00,25.00,SCT,BKN,M,M,2300.00,8500.00,M,M,M,KWST 012253Z AUTO 34017G25KT 10SM SCT023 BKN085 04/M01 A2989 RMK AO2 PK WND 36031/2205 SLP123 T00391006
WST,2017-04-01 22:55,-71.7989,41.3497,M,M,M,350.00,14.00,M,29.89,M,10.00,M,FEW,BKN,M,M,2300.00,8500.00,M,M,M,KWST 012255Z AUTO 35014KT 10SM FEW023 BKN085 A2989 RMK MADISHF
WST,2017-04-01 23:00,-71.7989,41.3497,M,M,M,350.00,15.00,M,29.89,M,10.00,M,FEW,SCT,M,M,2300.00,7999.00,M,M,M,KWST 012300Z AUTO 35015KT 10SM FEW023 SCT079 A2989 RMK MADISHF
WST,2017-04-01 23:05,-71.7989,41.3497,M,M,M,350.00,12.00,M,29.90,M,10.00,M,FEW,FEW,SCT,M,2300.00,7500.00,9000.00,M,M,KWST 012305Z AUTO 35012KT 10SM FEW023 FEW075 SCT090 A2990 RMK MADISHF
WST,2017-04-01 23:10,-71.7989,41.3497,M,M,M,340.00,14.00,M,29.90,M,10.00,20.00,FEW,FEW,M,M,2300.00,7500.00,M,M,M,KWST 012310Z AUTO 34014G20KT 10SM FEW023 FEW075 A2990 RMK MADISHF
WST,2017-04-01 23:15,-71.7989,41.3497,M,M,M,350.00,14.00,M,29.90,M,10.00,20.00,FEW,M,M,M,2300.00,M,M,M,M,KWST 012315Z AUTO 35014G20KT 10SM FEW023 A2990 RMK MADISHF
WST,2017-04-01 23:20,-71.7989,41.3497,M,M,M,350.00,15.00,M,29.91,M,10.00,20.00,FEW,FEW,M,M,2300.00,5500.00,M,M,M,KWST 012320Z AUTO 35015G20KT 10SM FEW023 FEW055 A2991 RMK MADISHF
WST,2017-04-01 23:25,-71.7989,41.3497,M,M,M,340.00,16.00,M,29.91,M,10.00,M,FEW,SCT,M,M,2300.00,5500.00,M,M,M,KWST 012325Z AUTO 34016KT 10SM FEW023 SCT055 A2991 RMK MADISHF
WST,2017-04-01 23:30,-71.7989,41.3497,M,M,M,350.00,12.00,M,29.91,M,10.00,M,SCT,M,M,M,5500.00,M,M,M,M,KWST 012330Z AUTO 35012KT 10SM SCT055 A2991 RMK MADISHF
WST,2017-04-01 23:35,-71.7989,41.3497,M,M,M,340.00,11.00,M,29.91,M,10.00,M,BKN,M,M,M,6000.00,M,M,M,M,KWST 012335Z AUTO 34011KT 10SM BKN060 A2991 RMK MADISHF
WST,2017-04-01 23:40,-71.7989,41.3497,M,M,M,350.00,13.00,M,29.91,M,10.00,M,BKN,M,M,M,6000.00,M,M,M,M,KWST 012340Z AUTO 35013KT 10SM BKN060 A2991 RMK MADISHF
WST,2017-04-01 23:45,-71.7989,41.3497,M,M,M,340.00,12.00,M,29.92,M,10.00,M,OVC,M,M,M,6000.00,M,M,M,M,KWST 012345Z AUTO 34012KT 10SM OVC060 A2992 RMK MADISHF
WST,2017-04-01 23:50,-71.7989,41.3497,M,M,M,350.00,12.00,M,29.93,M,10.00,M,OVC,M,M,M,6000.00,M,M,M,M,KWST 012350Z AUTO 35012KT 10SM OVC060 A2993 RMK MADISHF
WST,2017-04-01 23:53,-71.7989,41.3497,37.90,30.00,72.93,360.00,15.00,0.00,29.93,1013.50,10.00,23.00,FEW,OVC,M,M,2300.00,6000.00,M,M,M,KWST 012353Z AUTO 36015G23KT 10SM FEW023 OVC060 03/M01 A2993 RMK AO2 PRESRR SLP135 T00331011 10050 20033 51040
WST,2017-04-01 23:55,-71.7989,41.3497,M,M,M,350.00,12.00,M,29.93,M,10.00,M,FEW,OVC,M,M,2300.00,6000.00,M,M,M,KWST 012355Z AUTO 35012KT 10SM FEW023 OVC060 A2993 RMK MADISHF
