#DEBUG: Format Typ    -> comma
#DEBUG: Time Period   -> 2017-04-01 00:00:00+00:00 2017-04-02 00:00:00+00:00
#DEBUG: Time Zone     -> Etc/UTC
#DEBUG: Data Contact   -> daryl herzmann akrherz@iastate.edu 515-294-5978
#DEBUG: Entries Found -> -1
station,valid,lon,lat,tmpf, dwpf, relh, drct, sknt, p01i, alti, mslp, vsby, gust, skyc1, skyc2, skyc3, skyc4, skyl1, skyl2, skyl3, skyl4, presentwx, metar
XLL,2017-04-01 00:15,-75.4883,40.5703,41.00,39.20,93.24,20.00,8.00,0.01,29.72,M,7.00,M,OVC,M,M,M,700.00,M,M,M,DZ,KXLL 010015Z AUTO 02008KT 7SM DZ OVC007 05/04 A2972 RMK AO2 P0001
XLL,2017-04-01 00:35,-75.4883,40.5703,41.00,39.20,93.24,30.00,10.00,0.03,29.72,M,7.00,M,OVC,M,M,M,700.00,M,M,M,DZ,KXLL 010035Z AUTO 03010KT 7SM DZ OVC007 05/04 A2972 RMK AO2 P0003
XLL,2017-04-01 00:55,-75.4883,40.5703,39.20,37.40,93.19,30.00,8.00,0.03,29.72,M,7.00,M,OVC,M,M,M,700.00,M,M,M,-DZ,KXLL 010055Z AUTO 03008KT 7SM -DZ OVC007 04/03 A2972 RMK AO2 P0003
XLL,2017-04-01 01:15,-75.4883,40.5703,39.20,37.40,93.19,40.00,8.00,0.01,29.72,M,5.00,M,OVC,M,M,M,500.00,M,M,M,DZ,KXLL 010115Z AUTO 04008KT 5SM DZ OVC005 04/03 A2972 RMK AO2 P0001
XLL,2017-04-01 01:35,-75.4883,40.5703,39.20,37.40,93.19,50.00,10.00,0.01,29.72,M,5.00,M,OVC,M,M,M,500.00,M,M,M,-DZ,KXLL 010135Z AUTO 05010KT 5SM -DZ OVC005 04/03 A2972 RMK AO2 P0001
XLL,2017-04-01 01:55,-75.4883,40.5703,39.20,37.40,93.19,40.00,9.00,0.01,29.71,M,5.00,M,OVC,M,M,M,500.00,M,M,M,BR,KXLL 010155Z AUTO 04009KT 5SM BR OVC005 04/03 A2971 RMK AO2 P0001
XLL,2017-04-01 02:15,-75.4883,40.5703,39.20,37.40,93.19,40.00,10.00,0.00,29.69,M,7.00,M,OVC,M,M,M,500.00,M,M,M,M,KXLL 010215Z AUTO 04010KT 7SM OVC005 04/03 A2969 RMK AO2
XLL,2017-04-01 02:35,-75.4883,40.5703,37.40,37.40,100.00,30.00,10.00,0.00,29.70,M,7.00,M,OVC,M,M,M,500.00,M,M,M,M,KXLL 010235Z AUTO 03010KT 7SM OVC005 03/03 A2970 RMK AO2
XLL,2017-04-01 02:55,-75.4883,40.5703,37.40,37.40,100.00,40.00,10.00,0.00,29.69,M,10.00,M,OVC,M,M,M,500.00,M,M,M,M,KXLL 010255Z AUTO 04010KT 10SM OVC005 03/03 A2969 RMK AO2
XLL,2017-04-01 03:15,-75.4883,40.5703,37.40,37.40,100.00,30.00,6.00,0.00,29.70,M,7.00,M,OVC,M,M,M,500.00,M,M,M,M,KXLL 010315Z AUTO 03006KT 7SM OVC005 03/03 A2970 RMK AO2
XLL,2017-04-01 03:35,-75.4883,40.5703,37.40,37.40,100.00,30.00,8.00,0.00,29.69,M,5.00,M,OVC,M,M,M,500.00,M,M,M,BR,KXLL 010335Z AUTO 03008KT 5SM BR OVC005 03/03 A2969 RMK AO2
XLL,2017-04-01 03:55,-75.4883,40.5703,37.40,37.40,100.00,10.00,5.00,0.00,29.70,M,4.00,M,OVC,M,M,M,500.00,M,M,M,BR,KXLL 010355Z AUTO 01005KT 4SM BR OVC005 03/03 A2970 RMK AO2
XLL,2017-04-01 04:15,-75.4883,40.5703,37.40,37.40,100.00,20.00,8.00,0.01,29.69,M,3.00,M,OVC,M,M,M,500.00,M,M,M,-DZ,KXLL 010415Z AUTO 02008KT 3SM -DZ OVC005 03/03 A2969 RMK AO2 P0001
XLL,2017-04-01 04:35,-75.4883,40.5703,37.40,37.40,100.00,20.00,6.00,0.01,29.69,M,4.00,M,OVC,M,M,M,500.00,M,M,M,-DZ,KXLL 010435Z AUTO 02006KT 4SM -DZ OVC005 03/03 A2969 RMK AO2 P0001
XLL,2017-04-01 04:55,-75.4883,40.5703,37.40,37.40,100.00,20.00,10.00,0.01,29.69,M,3.00,M,OVC,M,M,M,500.00,M,M,M,BR,KXLL 010455Z AUTO 02010KT 3SM BR OVC005 03/03 A2969 RMK AO2 P0001
XLL,2017-04-01 05:15,-75.4883,40.5703,37.40,37.40,100.00,20.00,7.00,0.00,29.70,M,4.00,M,OVC,M,M,M,500.00,M,M,M,BR,KXLL 010515Z AUTO 02007KT 4SM BR OVC005 03/03 A2970 RMK AO2
XLL,2017-04-01 05:35,-75.4883,40.5703,37.40,37.40,100.00,30.00,9.00,0.00,29.69,M,3.00,M,OVC,M,M,M,500.00,M,M,M,BR,KXLL 010535Z AUTO 03009KT 3SM BR OVC005 03/03 A2969 RMK AO2
XLL,2017-04-01 05:55,-75.4883,40.5703,37.40,37.40,100.00,20.00,8.00,0.00,29.69,M,4.00,14.00,OVC,M,M,M,500.00,M,M,M,-DZ,KXLL 010555Z AUTO 02008G14KT 4SM -DZ OVC005 03/03 A2969 RMK AO2
XLL,2017-04-01 06:15,-75.4883,40.5703,37.40,35.60,93.14,30.00,8.00,0.01,29.69,M,4.00,M,OVC,M,M,M,500.00,M,M,M,-DZ,KXLL 010615Z AUTO 03008KT 4SM -DZ OVC005 03/02 A2969 RMK AO2 P0001
XLL,2017-04-01 06:35,-75.4883,40.5703,37.40,35.60,93.14,20.00,8.00,0.01,29.70,M,4.00,M,OVC,M,M,M,500.00,M,M,M,BR,KXLL 010635Z AUTO 02008KT 4SM BR OVC005 03/02 A2970 RMK AO2 P0001
XLL,2017-04-01 06:55,-75.4883,40.5703,37.40,35.60,93.14,20.00,7.00,0.01,29.70,M,3.00,M,OVC,M,M,M,500.00,M,M,M,BR,KXLL 010655Z AUTO 02007KT 3SM BR OVC005 03/02 A2970 RMK AO2 P0001
XLL,2017-04-01 07:15,-75.4883,40.5703,37.40,35.60,93.14,10.00,7.00,0.00,29.71,M,4.00,M,OVC,M,M,M,500.00,M,M,M,BR,KXLL 010715Z AUTO 01007KT 4SM BR OVC005 03/02 A2971 RMK AO2
XLL,2017-04-01 07:35,-75.4883,40.5703,37.40,35.60,93.14,10.00,9.00,0.00,29.71,M,10.00,M,OVC,M,M,M,700.00,M,M,M,M,KXLL 010735Z AUTO 01009KT 10SM OVC007 03/02 A2971 RMK AO2
XLL,2017-04-01 07:55,-75.4883,40.5703,35.60,35.60,100.00,20.00,8.00,0.00,29.72,M,10.00,M,BKN,OVC,M,M,900.00,1400.00,M,M,M,KXLL 010755Z AUTO 02008KT 10SM BKN009 OVC014 02/02 A2972 RMK AO2
XLL,2017-04-01 08:15,-75.4883,40.5703,35.60,35.60,100.00,20.00,8.00,0.00,29.73,M,7.00,M,BKN,OVC,M,M,1000.00,1300.00,M,M,M,KXLL 010815Z AUTO 02008KT 7SM BKN010 OVC013 02/02 A2973 RMK AO2
XLL,2017-04-01 08:35,-75.4883,40.5703,35.60,35.60,100.00,360.00,7.00,0.00,29.74,M,7.00,M,BKN,OVC,M,M,800.00,1300.00,M,M,M,KXLL 010835Z AUTO 36007KT 7SM BKN008 OVC013 02/02 A2974 RMK AO2
XLL,2017-04-01 08:55,-75.4883,40.5703,35.60,35.60,100.00,350.00,6.00,0.00,29.75,M,5.00,M,BKN,OVC,M,M,800.00,1300.00,M,M,BR,KXLL 010855Z AUTO 35006KT 5SM BR BKN008 OVC013 02/02 A2975 RMK AO2
XLL,2017-04-01 09:15,-75.4883,40.5703,35.60,35.60,100.00,340.00,7.00,0.00,29.76,M,4.00,M,BKN,OVC,M,M,600.00,1100.00,M,M,BR,KXLL 010915Z AUTO 34007KT 4SM BR BKN006 OVC011 02/02 A2976 RMK AO2
XLL,2017-04-01 09:35,-75.4883,40.5703,35.60,35.60,100.00,350.00,5.00,0.00,29.76,M,7.00,M,BKN,OVC,M,M,600.00,1800.00,M,M,M,KXLL 010935Z AUTO 35005KT 7SM BKN006 OVC018 02/02 A2976 RMK AO2
XLL,2017-04-01 09:55,-75.4883,40.5703,35.60,35.60,100.00,340.00,4.00,0.00,29.77,M,10.00,M,BKN,BKN,OVC,M,800.00,1400.00,2000.00,M,M,KXLL 010955Z AUTO 34004KT 10SM BKN008 BKN014 OVC020 02/02 A2977 RMK AO2
XLL,2017-04-01 10:15,-75.4883,40.5703,35.60,35.60,100.00,340.00,4.00,0.00,29.78,M,10.00,M,SCT,OVC,M,M,800.00,2200.00,M,M,M,KXLL 011015Z AUTO 34004KT 10SM SCT008 OVC022 02/02 A2978 RMK AO2
XLL,2017-04-01 10:35,-75.4883,40.5703,35.60,35.60,100.00,330.00,3.00,0.00,29.79,M,10.00,M,OVC,M,M,M,2400.00,M,M,M,M,KXLL 011035Z AUTO 33003KT 10SM OVC024 02/02 A2979 RMK AO2
XLL,2017-04-01 10:55,-75.4883,40.5703,35.60,35.60,100.00,340.00,3.00,0.00,29.79,M,10.00,M,OVC,M,M,M,2600.00,M,M,M,M,KXLL 011055Z AUTO 34003KT 10SM OVC026 02/02 A2979 RMK AO2
XLL,2017-04-01 11:15,-75.4883,40.5703,35.60,35.60,100.00,340.00,3.00,0.00,29.80,M,10.00,M,OVC,M,M,M,2600.00,M,M,M,M,KXLL 011115Z AUTO 34003KT 10SM OVC026 02/02 A2980 RMK AO2
XLL,2017-04-01 11:35,-75.4883,40.5703,37.40,35.60,93.14,330.00,3.00,0.00,29.81,M,10.00,M,BKN,OVC,M,M,2600.00,3300.00,M,M,M,KXLL 011135Z AUTO 33003KT 10SM BKN026 OVC033 03/02 A2981 RMK AO2
XLL,2017-04-01 11:55,-75.4883,40.5703,37.40,35.60,93.14,320.00,4.00,0.00,29.82,M,10.00,M,SCT,OVC,M,M,2600.00,3300.00,M,M,M,KXLL 011155Z AUTO 32004KT 10SM SCT026 OVC033 03/02 A2982 RMK AO2
XLL,2017-04-01 12:15,-75.4883,40.5703,37.40,37.40,100.00,330.00,6.00,0.00,29.83,M,10.00,M,BKN,OVC,M,M,3300.00,7500.00,M,M,M,KXLL 011215Z AUTO 33006KT 10SM BKN033 OVC075 03/03 A2983 RMK AO2
XLL,2017-04-01 12:35,-75.4883,40.5703,39.20,37.40,93.19,330.00,7.00,0.00,29.83,M,10.00,M,BKN,OVC,M,M,3300.00,7500.00,M,M,M,KXLL 011235Z AUTO 33007KT 10SM BKN033 OVC075 04/03 A2983 RMK AO2
XLL,2017-04-01 12:55,-75.4883,40.5703,37.40,37.40,100.00,340.00,8.00,0.00,29.84,M,10.00,M,SCT,SCT,OVC,M,1400.00,2000.00,3300.00,M,M,KXLL 011255Z AUTO 34008KT 10SM SCT014 SCT020 OVC033 03/03 A2984 RMK AO2
XLL,2017-04-01 13:15,-75.4883,40.5703,37.40,37.40,100.00,350.00,5.00,0.00,29.84,M,10.00,M,SCT,SCT,OVC,M,1800.00,2200.00,3100.00,M,M,KXLL 011315Z AUTO 35005KT 10SM SCT018 SCT022 OVC031 03/03 A2984 RMK AO2
XLL,2017-04-01 13:35,-75.4883,40.5703,39.20,39.20,100.00,330.00,7.00,0.00,29.84,M,10.00,M,BKN,OVC,M,M,2000.00,3100.00,M,M,M,KXLL 011335Z AUTO 33007KT 10SM BKN020 OVC031 04/04 A2984 RMK AO2
XLL,2017-04-01 13:55,-75.4883,40.5703,42.80,41.00,93.30,330.00,9.00,0.00,29.86,M,10.00,M,SCT,SCT,BKN,M,2000.00,2700.00,3400.00,M,M,KXLL 011355Z AUTO 33009KT 10SM SCT020 SCT027 BKN034 06/05 A2986 RMK AO2
XLL,2017-04-01 14:15,-75.4883,40.5703,44.60,35.60,70.48,300.00,5.00,0.00,29.86,M,10.00,M,BKN,BKN,BKN,M,2400.00,7500.00,12000.00,M,M,KXLL 011415Z AUTO 30005KT 10SM BKN024 BKN075 BKN120 07/02 A2986 RMK AO2
XLL,2017-04-01 14:35,-75.4883,40.5703,44.60,37.40,75.68,330.00,7.00,0.00,29.86,M,10.00,M,OVC,M,M,M,2200.00,M,M,M,M,KXLL 011435Z AUTO 33007KT 10SM OVC022 07/03 A2986 RMK AO2
XLL,2017-04-01 14:55,-75.4883,40.5703,42.80,35.60,75.50,320.00,9.00,0.00,29.87,M,10.00,M,OVC,M,M,M,2400.00,M,M,M,M,KXLL 011455Z AUTO 32009KT 10SM OVC024 06/02 A2987 RMK AO2
XLL,2017-04-01 15:15,-75.4883,40.5703,44.60,35.60,70.48,310.00,11.00,0.00,29.87,M,10.00,15.00,OVC,M,M,M,2900.00,M,M,M,M,KXLL 011515Z AUTO 31011G15KT 10SM OVC029 07/02 A2987 RMK AO2
XLL,2017-04-01 15:35,-75.4883,40.5703,44.60,35.60,70.48,340.00,13.00,0.00,29.87,M,10.00,M,OVC,M,M,M,2900.00,M,M,M,M,KXLL 011535Z AUTO 34013KT 10SM OVC029 07/02 A2987 RMK AO2
XLL,2017-04-01 15:55,-75.4883,40.5703,46.40,35.60,65.83,320.00,13.00,0.00,29.88,M,10.00,17.00,OVC,M,M,M,2900.00,M,M,M,M,KXLL 011555Z AUTO 32013G17KT 10SM OVC029 08/02 A2988 RMK AO2
XLL,2017-04-01 16:15,-75.4883,40.5703,46.40,35.60,65.83,310.00,9.00,0.00,29.88,M,10.00,M,OVC,M,M,M,2700.00,M,M,M,M,KXLL 011615Z AUTO 31009KT 10SM OVC027 08/02 A2988 RMK AO2
XLL,2017-04-01 16:35,-75.4883,40.5703,46.40,35.60,65.83,320.00,11.00,0.00,29.88,M,10.00,22.00,OVC,M,M,M,2700.00,M,M,M,M,KXLL 011635Z AUTO 32011G22KT 10SM OVC027 08/02 A2988 RMK AO2
XLL,2017-04-01 16:55,-75.4883,40.5703,46.40,35.60,65.83,330.00,12.00,0.00,29.89,M,10.00,21.00,OVC,M,M,M,2700.00,M,M,M,M,KXLL 011655Z AUTO 33012G21KT 10SM OVC027 08/02 A2989 RMK AO2
XLL,2017-04-01 17:15,-75.4883,40.5703,46.40,35.60,65.83,320.00,11.00,0.00,29.89,M,10.00,17.00,OVC,M,M,M,2900.00,M,M,M,M,KXLL 011715Z AUTO 32011G17KT 10SM OVC029 08/02 A2989 RMK AO2
XLL,2017-04-01 17:35,-75.4883,40.5703,46.40,35.60,65.83,340.00,12.00,0.00,29.89,M,10.00,21.00,OVC,M,M,M,2900.00,M,M,M,M,KXLL 011735Z AUTO 34012G21KT 10SM OVC029 08/02 A2989 RMK AO2
XLL,2017-04-01 17:55,-75.4883,40.5703,46.40,35.60,65.83,330.00,13.00,0.00,29.90,M,10.00,18.00,OVC,M,M,M,2900.00,M,M,M,M,KXLL 011755Z AUTO 33013G18KT 10SM OVC029 08/02 A2990 RMK AO2
XLL,2017-04-01 18:15,-75.4883,40.5703,48.20,35.60,61.52,330.00,9.00,0.00,29.90,M,10.00,14.00,OVC,M,M,M,3100.00,M,M,M,M,KXLL 011815Z AUTO 33009G14KT 10SM OVC031 09/02 A2990 RMK AO2
XLL,2017-04-01 18:35,-75.4883,40.5703,50.00,35.60,57.52,340.00,15.00,0.00,29.89,M,10.00,23.00,OVC,M,M,M,3100.00,M,M,M,M,KXLL 011835Z AUTO 34015G23KT 10SM OVC031 10/02 A2989 RMK AO2
XLL,2017-04-01 18:55,-75.4883,40.5703,48.20,35.60,61.52,340.00,15.00,0.00,29.90,M,10.00,20.00,OVC,M,M,M,3100.00,M,M,M,M,KXLL 011855Z AUTO 34015G20KT 10SM OVC031 09/02 A2990 RMK AO2
XLL,2017-04-01 19:15,-75.4883,40.5703,48.20,35.60,61.52,320.00,9.00,0.00,29.91,M,10.00,19.00,OVC,M,M,M,3100.00,M,M,M,M,KXLL 011915Z AUTO 32009G19KT 10SM OVC031 09/02 A2991 RMK AO2
XLL,2017-04-01 19:35,-75.4883,40.5703,46.40,35.60,65.83,330.00,9.00,0.00,29.92,M,10.00,17.00,OVC,M,M,M,2900.00,M,M,M,M,KXLL 011935Z AUTO 33009G17KT 10SM OVC029 08/02 A2992 RMK AO2
XLL,2017-04-01 19:55,-75.4883,40.5703,46.40,35.60,65.83,310.00,10.00,0.00,29.93,M,10.00,17.00,OVC,M,M,M,2900.00,M,M,M,M,KXLL 011955Z AUTO 31010G17KT 10SM OVC029 08/02 A2993 RMK AO2
XLL,2017-04-01 20:15,-75.4883,40.5703,46.40,35.60,65.83,310.00,15.00,0.00,29.94,M,10.00,22.00,OVC,M,M,M,2900.00,M,M,M,M,KXLL 012015Z AUTO 31015G22KT 10SM OVC029 08/02 A2994 RMK AO2
XLL,2017-04-01 20:35,-75.4883,40.5703,46.40,35.60,65.83,350.00,11.00,0.00,29.94,M,10.00,18.00,OVC,M,M,M,2900.00,M,M,M,M,KXLL 012035Z AUTO 35011G18KT 10SM OVC029 08/02 A2994 RMK AO2
XLL,2017-04-01 20:55,-75.4883,40.5703,46.40,35.60,65.83,310.00,13.00,0.00,29.95,M,10.00,18.00,OVC,M,M,M,2900.00,M,M,M,M,KXLL 012055Z AUTO 31013G18KT 10SM OVC029 08/02 A2995 RMK AO2
XLL,2017-04-01 21:15,-75.4883,40.5703,46.40,35.60,65.83,310.00,10.00,0.00,29.96,M,10.00,M,OVC,M,M,M,3000.00,M,M,M,M,KXLL 012115Z AUTO 31010KT 10SM OVC030 08/02 A2996 RMK AO2
XLL,2017-04-01 21:35,-75.4883,40.5703,46.40,35.60,65.83,330.00,11.00,0.00,29.97,M,10.00,17.00,OVC,M,M,M,2900.00,M,M,M,M,KXLL 012135Z AUTO 33011G17KT 10SM OVC029 08/02 A2997 RMK AO2
XLL,2017-04-01 21:55,-75.4883,40.5703,46.40,35.60,65.83,320.00,11.00,0.00,29.98,M,10.00,17.00,BKN,OVC,M,M,2900.00,3500.00,M,M,M,KXLL 012155Z AUTO 32011G17KT 10SM BKN029 OVC035 08/02 A2998 RMK AO2
XLL,2017-04-01 22:15,-75.4883,40.5703,46.40,35.60,65.83,320.00,7.00,0.00,29.99,M,10.00,M,OVC,M,M,M,3300.00,M,M,M,M,KXLL 012215Z AUTO 32007KT 10SM OVC033 08/02 A2999 RMK AO2
XLL,2017-04-01 22:35,-75.4883,40.5703,46.40,33.80,61.28,350.00,11.00,0.00,30.01,M,10.00,19.00,OVC,M,M,M,3000.00,M,M,M,M,KXLL 012235Z AUTO 35011G19KT 10SM OVC030 08/01 A3001 RMK AO2
XLL,2017-04-01 22:55,-75.4883,40.5703,46.40,33.80,61.28,340.00,8.00,0.00,30.02,M,10.00,M,OVC,M,M,M,3200.00,M,M,M,M,KXLL 012255Z AUTO 34008KT 10SM OVC032 08/01 A3002 RMK AO2
XLL,2017-04-01 23:15,-75.4883,40.5703,44.60,33.80,65.61,340.00,8.00,0.00,30.03,M,10.00,11.00,OVC,M,M,M,3000.00,M,M,M,M,KXLL 012315Z AUTO 34008G11KT 10SM OVC030 07/01 A3003 RMK AO2
XLL,2017-04-01 23:35,-75.4883,40.5703,44.60,33.80,65.61,320.00,11.00,0.00,30.04,M,10.00,M,OVC,M,M,M,3000.00,M,M,M,M,KXLL 012335Z AUTO 32011KT 10SM OVC030 07/01 A3004 RMK AO2
XLL,2017-04-01 23:55,-75.4883,40.5703,44.60,33.80,65.61,330.00,12.00,0.00,30.04,M,10.00,15.00,OVC,M,M,M,3000.00,M,M,M,M,KXLL 012355Z AUTO 33012G15KT 10SM OVC030 07/01 A3004 RMK AO2
