#DEBUG: Format Typ    -> comma
#DEBUG: Time Period   -> 2017-04-01 00:00:00+00:00 2017-04-02 00:00:00+00:00
#DEBUG: Time Zone     -> Etc/UTC
#DEBUG: Data Contact   -> daryl herzmann akrherz@iastate.edu 515-294-5978
#DEBUG: Entries Found -> -1
station,valid,lon,lat,tmpf, dwpf, relh, drct, sknt, p01i, alti, mslp, vsby, gust, skyc1, skyc2, skyc3, skyc4, skyl1, skyl2, skyl3, skyl4, presentwx, metar
XMR,2017-04-01 00:58,-80.5668,28.4677,78.60,63.70,60.27,230.00,10.00,0.00,29.86,1011.50,10.00,M,CLR,M,M,M,M,M,M,M,M,KXMR 010058Z AUTO 23010KT 10SM CLR 26/18 A2986 RMK AO2 SLP115 T02590176 $
XMR,2017-04-01 01:58,-80.5668,28.4677,77.20,63.90,63.57,250.00,10.00,0.00,29.88,1012.10,10.00,M,CLR,M,M,M,M,M,M,M,M,KXMR 010158Z AUTO 25010KT 10SM CLR 25/18 A2988 RMK AO2 SLP121 T02510177 $
XMR,2017-04-01 02:58,-80.5668,28.4677,75.20,63.50,66.99,260.00,8.00,0.00,29.90,1012.80,10.00,M,CLR,M,M,M,M,M,M,M,M,KXMR 010258Z AUTO 26008KT 10SM CLR 24/18 A2990 RMK AO2 SLP128 T02400175 52022 $
XMR,2017-04-01 03:58,-80.5668,28.4677,73.60,63.90,71.68,270.00,11.00,0.00,29.92,1013.50,10.00,M,CLR,M,M,M,M,M,M,M,M,KXMR 010358Z AUTO 27011KT 10SM CLR 23/18 A2992 RMK AO2 SLP135 T02310177 $
XMR,2017-04-01 04:58,-80.5668,28.4677,71.60,64.20,77.50,270.00,10.00,0.00,29.93,1013.80,10.00,M,CLR,M,M,M,M,M,M,M,M,KXMR 010458Z AUTO 27010KT 10SM CLR 22/18 A2993 RMK AO2 SLP138 T02200179 403170201 $
XMR,2017-04-01 05:58,-80.5668,28.4677,70.20,64.20,81.28,290.00,9.00,0.00,29.93,1013.80,10.00,M,CLR,M,M,M,M,M,M,M,M,KXMR 010558Z AUTO 29009KT 10SM CLR 21/18 A2993 RMK AO2 SLP138 T02120179 10269 20212 52010 CHINO RWY31 $
XMR,2017-04-01 06:58,-80.5668,28.4677,68.90,64.00,84.38,280.00,7.00,0.00,29.94,1014.20,10.00,M,CLR,M,M,M,M,M,M,M,M,KXMR 010658Z AUTO 28007KT 10SM CLR 21/18 A2994 RMK AO2 SLP142 T02050178 $
XMR,2017-04-01 07:58,-80.5668,28.4677,68.40,63.90,85.54,290.00,7.00,0.00,29.94,1014.20,10.00,M,CLR,M,M,M,M,M,M,M,M,KXMR 010758Z AUTO 29007KT 10SM CLR 20/18 A2994 RMK AO2 SLP142 T02020177 $
XMR,2017-04-01 08:58,-80.5668,28.4677,67.50,63.90,88.24,310.00,9.00,0.00,29.94,1014.20,10.00,M,CLR,M,M,M,M,M,M,M,M,KXMR 010858Z AUTO 31009KT 10SM CLR 20/18 A2994 RMK AO2 SLP142 T01970177 50004 $
XMR,2017-04-01 09:58,-80.5668,28.4677,67.80,64.60,89.49,310.00,8.00,0.00,29.95,1014.50,10.00,M,CLR,M,M,M,M,M,M,M,M,KXMR 010958Z AUTO 31008KT 10SM CLR 20/18 A2995 RMK AO2 SLP145 T01990181 $
XMR,2017-04-01 10:58,-80.5668,28.4677,66.90,63.30,88.21,270.00,6.00,0.00,29.98,1015.50,10.00,M,CLR,M,M,M,M,M,M,M,M,KXMR 011058Z AUTO 27006KT 10SM CLR 19/17 A2998 RMK AO2 SLP155 T01940174 $
XMR,2017-04-01 11:58,-80.5668,28.4677,67.30,64.40,90.42,260.00,5.00,0.00,30.00,1016.20,10.00,M,CLR,M,M,M,M,M,M,M,M,KXMR 011158Z AUTO 26005KT 10SM CLR 20/18 A3000 RMK AO2 SLP162 T01960180 10212 20191 52018 $
XMR,2017-04-01 12:58,-80.5668,28.4677,71.80,66.20,82.53,290.00,6.00,0.00,30.01,1016.50,10.00,M,CLR,M,M,M,M,M,M,M,M,KXMR 011258Z AUTO 29006KT 10SM CLR 22/19 A3001 RMK AO2 SLP165 T02210190 $
XMR,2017-04-01 13:58,-80.5668,28.4677,74.50,62.20,65.51,340.00,10.00,0.00,30.02,1016.90,10.00,M,CLR,M,M,M,M,M,M,M,M,KXMR 011358Z AUTO 34010KT 10SM CLR 24/17 A3002 RMK AO2 SLP169 T02360168 $
XMR,2017-04-01 14:58,-80.5668,28.4677,79.50,61.90,54.92,340.00,7.00,0.00,30.03,1017.20,10.00,M,CLR,M,M,M,M,M,M,M,M,KXMR 011458Z AUTO 34007KT 10SM CLR 26/17 A3003 RMK AO2 SLP172 T02640166 52013 $
XMR,2017-04-01 15:58,-80.5668,28.4677,80.80,62.20,53.19,40.00,8.00,0.00,30.04,1017.60,10.00,M,CLR,M,M,M,M,M,M,M,M,KXMR 011558Z AUTO 04008KT 10SM CLR 27/17 A3004 RMK AO2 SLP176 T02710168 $
XMR,2017-04-01 16:58,-80.5668,28.4677,80.60,61.50,52.23,30.00,7.00,0.00,30.03,1017.20,10.00,M,CLR,M,M,M,M,M,M,M,M,KXMR 011658Z AUTO 03007KT 10SM CLR 27/16 A3003 RMK AO2 SLP172 T02700164 $
XMR,2017-04-01 17:58,-80.5668,28.4677,82.20,63.10,52.46,40.00,9.00,0.00,30.02,1016.90,10.00,M,CLR,M,M,M,M,M,M,M,M,KXMR 011758Z AUTO 04009KT 10SM CLR 28/17 A3002 RMK AO2 SLP169 T02790173 10279 20198 58006 $
XMR,2017-04-01 18:58,-80.5668,28.4677,82.80,63.70,52.55,60.00,7.00,0.00,30.00,1016.20,10.00,M,CLR,M,M,M,M,M,M,M,M,KXMR 011858Z AUTO 06007KT 10SM CLR 28/18 A3000 RMK AO2 SLP162 T02820176 $
XMR,2017-04-01 19:58,-80.5668,28.4677,81.90,64.00,54.67,80.00,9.00,0.00,29.99,1015.90,10.00,M,CLR,M,M,M,M,M,M,M,M,KXMR 011958Z AUTO 08009KT 10SM CLR 28/18 A2999 RMK AO2 SLP159 T02770178 $
XMR,2017-04-01 20:58,-80.5668,28.4677,81.30,64.00,55.75,80.00,7.00,0.00,29.98,1015.50,10.00,M,CLR,M,M,M,M,M,M,M,M,KXMR 012058Z AUTO 08007KT 10SM CLR 27/18 A2998 RMK AO2 SLP155 T02740178 57012 $
XMR,2017-04-01 21:58,-80.5668,28.4677,81.30,65.10,57.94,90.00,7.00,0.00,29.98,1015.50,10.00,M,CLR,M,M,M,M,M,M,M,M,KXMR 012158Z AUTO 09007KT 10SM CLR 27/18 A2998 RMK AO2 SLP155 T02740184 $
XMR,2017-04-01 22:58,-80.5668,28.4677,78.40,65.50,64.60,80.00,7.00,0.00,29.99,1015.90,10.00,M,CLR,M,M,M,M,M,M,M,M,KXMR 012258Z AUTO 08007KT 10SM CLR 26/19 A2999 RMK AO2 SLP159 T02580186 $
XMR,2017-04-01 23:58,-80.5668,28.4677,72.90,63.10,71.36,110.00,3.00,0.00,30.01,1016.50,10.00,M,CLR,M,M,M,M,M,M,M,M,KXMR 012358Z AUTO 11003KT 10SM CLR 23/17 A3001 RMK AO2 SLP165 T02270173 10283 20227 53010 $
