#DEBUG: Format Typ    -> comma
#DEBUG: Time Period   -> 2017-04-01 00:00:00+00:00 2017-04-02 00:00:00+00:00
#DEBUG: Time Zone     -> Etc/UTC
#DEBUG: Data Contact   -> daryl herzmann akrherz@iastate.edu 515-294-5978
#DEBUG: Entries Found -> -1
station,valid,lon,lat,tmpf, dwpf, relh, drct, sknt, p01i, alti, mslp, vsby, gust, skyc1, skyc2, skyc3, skyc4, skyl1, skyl2, skyl3, skyl4, presentwx, metar
Y23,2017-04-01 00:15,-91.6381,45.3106,48.60,19.90,31.78,0.00,0.00,0.00,30.04,M,10.00,M,CLR,M,M,M,M,M,M,M,M,KY23 010015Z AUTO 00000KT 10SM CLR 09/M07 A3004 RMK AO2 T00921067
Y23,2017-04-01 00:35,-91.6381,45.3106,46.00,20.80,36.41,0.00,0.00,0.00,30.04,M,10.00,M,CLR,M,M,M,M,M,M,M,M,KY23 010035Z AUTO 00000KT 10SM CLR 08/M06 A3004 RMK AO2 T00781062
Y23,2017-04-01 00:55,-91.6381,45.3106,44.20,19.20,36.42,0.00,0.00,0.00,30.05,M,10.00,M,CLR,M,M,M,M,M,M,M,M,KY23 010055Z AUTO 00000KT 10SM CLR 07/M07 A3005 RMK AO2 T00681071
Y23,2017-04-01 01:15,-91.6381,45.3106,46.80,14.00,26.34,50.00,4.00,0.00,30.05,M,10.00,M,CLR,M,M,M,M,M,M,M,M,KY23 010115Z AUTO 05004KT 10SM CLR 08/M10 A3005 RMK AO2 T00821100
Y23,2017-04-01 01:35,-91.6381,45.3106,43.70,14.90,30.83,0.00,0.00,0.00,30.05,M,10.00,M,CLR,M,M,M,M,M,M,M,M,KY23 010135Z AUTO 00000KT 10SM CLR 07/M09 A3005 RMK AO2 T00651095
Y23,2017-04-01 01:55,-91.6381,45.3106,43.70,14.50,30.29,40.00,4.00,0.00,30.06,M,10.00,M,CLR,M,M,M,M,M,M,M,M,KY23 010155Z AUTO 04004KT 10SM CLR 07/M10 A3006 RMK AO2 T00651097
Y23,2017-04-01 02:15,-91.6381,45.3106,40.60,16.90,37.89,0.00,0.00,0.00,30.07,M,10.00,M,CLR,M,M,M,M,M,M,M,M,KY23 010215Z AUTO 00000KT 10SM CLR 05/M08 A3007 RMK AO2 T00481084
Y23,2017-04-01 02:35,-91.6381,45.3106,39.00,16.70,39.98,0.00,0.00,0.00,30.08,M,10.00,M,CLR,M,M,M,M,M,M,M,M,KY23 010235Z AUTO 00000KT 10SM CLR 04/M08 A3008 RMK AO2 T00391085
Y23,2017-04-01 02:55,-91.6381,45.3106,36.90,17.80,45.52,100.00,5.00,0.00,30.09,M,10.00,M,CLR,M,M,M,M,M,M,M,M,KY23 010255Z AUTO 10005KT 10SM CLR 03/M08 A3009 RMK AO2 T00271079
Y23,2017-04-01 03:15,-91.6381,45.3106,35.60,19.90,52.43,0.00,0.00,0.00,30.10,M,10.00,M,CLR,M,M,M,M,M,M,M,M,KY23 010315Z AUTO 00000KT 10SM CLR 02/M07 A3010 RMK AO2 T00201067
Y23,2017-04-01 03:35,-91.6381,45.3106,34.70,20.10,54.81,0.00,0.00,0.00,30.10,M,10.00,M,CLR,M,M,M,M,M,M,M,M,KY23 010335Z AUTO 00000KT 10SM CLR 02/M07 A3010 RMK AO2 T00151066
Y23,2017-04-01 03:55,-91.6381,45.3106,34.20,20.10,55.91,0.00,0.00,0.00,30.10,M,10.00,M,CLR,M,M,M,M,M,M,M,M,KY23 010355Z AUTO 00000KT 10SM CLR 01/M07 A3010 RMK AO2 T00121066
Y23,2017-04-01 04:15,-91.6381,45.3106,34.00,23.20,64.26,0.00,0.00,0.00,30.10,M,10.00,M,CLR,M,M,M,M,M,M,M,M,KY23 010415Z AUTO 00000KT 10SM CLR 01/M05 A3010 RMK AO2 T00111049
Y23,2017-04-01 04:35,-91.6381,45.3106,34.00,24.40,67.57,0.00,0.00,0.00,30.12,M,10.00,M,CLR,M,M,M,M,M,M,M,M,KY23 010435Z AUTO 00000KT 10SM CLR 01/M04 A3012 RMK AO2 T00111042
Y23,2017-04-01 04:55,-91.6381,45.3106,33.40,24.60,69.79,0.00,0.00,0.00,30.12,M,10.00,M,CLR,M,M,M,M,M,M,M,M,KY23 010455Z AUTO 00000KT 10SM CLR 01/M04 A3012 RMK AO2 T00081041 401320007
Y23,2017-04-01 05:15,-91.6381,45.3106,32.90,22.10,64.11,10.00,4.00,0.00,30.13,M,10.00,M,CLR,M,M,M,M,M,M,M,M,KY23 010515Z AUTO 01004KT 10SM CLR 01/M05 A3013 RMK AO2 T00051055
Y23,2017-04-01 05:35,-91.6381,45.3106,32.00,21.90,65.92,0.00,0.00,0.00,30.14,M,10.00,M,CLR,M,M,M,M,M,M,M,M,KY23 010535Z AUTO 00000KT 10SM CLR 00/M06 A3014 RMK AO2 T00001056
Y23,2017-04-01 05:55,-91.6381,45.3106,31.80,21.60,65.61,0.00,0.00,0.00,30.14,M,10.00,M,CLR,M,M,M,M,M,M,M,M,KY23 010555Z AUTO 00000KT 10SM CLR 00/M06 A3014 RMK AO2 T10011058 10104 21001
Y23,2017-04-01 06:15,-91.6381,45.3106,31.60,20.70,63.67,0.00,0.00,0.00,30.15,M,10.00,M,CLR,M,M,M,M,M,M,M,M,KY23 010615Z AUTO 00000KT 10SM CLR 00/M06 A3015 RMK AO2 T10021063
Y23,2017-04-01 06:35,-91.6381,45.3106,32.00,24.30,72.91,0.00,0.00,0.00,30.14,M,10.00,M,CLR,M,M,M,M,M,M,M,M,KY23 010635Z AUTO 00000KT 10SM CLR 00/M04 A3014 RMK AO2 T00001043
Y23,2017-04-01 06:55,-91.6381,45.3106,30.90,22.50,70.68,0.00,0.00,0.00,30.15,M,10.00,M,CLR,M,M,M,M,M,M,M,M,KY23 010655Z AUTO 00000KT 10SM CLR M01/M05 A3015 RMK AO2 T10061053
Y23,2017-04-01 07:15,-91.6381,45.3106,30.00,23.20,75.50,0.00,0.00,0.00,30.16,M,10.00,M,CLR,M,M,M,M,M,M,M,M,KY23 010715Z AUTO 00000KT 10SM CLR M01/M05 A3016 RMK AO2 T10111049
Y23,2017-04-01 07:35,-91.6381,45.3106,30.20,23.40,75.52,0.00,0.00,0.00,30.16,M,10.00,M,CLR,M,M,M,M,M,M,M,M,KY23 010735Z AUTO 00000KT 10SM CLR M01/M05 A3016 RMK AO2 T10101048
Y23,2017-04-01 07:55,-91.6381,45.3106,29.30,23.00,77.03,0.00,0.00,0.00,30.16,M,10.00,M,CLR,M,M,M,M,M,M,M,M,KY23 010755Z AUTO 00000KT 10SM CLR M01/M05 A3016 RMK AO2 T10151050
Y23,2017-04-01 08:15,-91.6381,45.3106,28.90,22.80,77.65,0.00,0.00,0.00,30.16,M,10.00,M,CLR,M,M,M,M,M,M,M,M,KY23 010815Z AUTO 00000KT 10SM CLR M02/M05 A3016 RMK AO2 T10171051
Y23,2017-04-01 08:35,-91.6381,45.3106,28.80,23.40,79.96,0.00,0.00,0.00,30.16,M,10.00,M,CLR,M,M,M,M,M,M,M,M,KY23 010835Z AUTO 00000KT 10SM CLR M02/M05 A3016 RMK AO2 T10181048
Y23,2017-04-01 08:55,-91.6381,45.3106,29.30,23.50,78.67,0.00,0.00,0.00,30.16,M,10.00,M,CLR,M,M,M,M,M,M,M,M,KY23 010855Z AUTO 00000KT 10SM CLR M01/M05 A3016 RMK AO2 T10151047
Y23,2017-04-01 09:15,-91.6381,45.3106,29.50,23.70,78.69,0.00,0.00,0.00,30.16,M,10.00,M,CLR,M,M,M,M,M,M,M,M,KY23 010915Z AUTO 00000KT 10SM CLR M01/M05 A3016 RMK AO2 T10141046
Y23,2017-04-01 09:35,-91.6381,45.3106,29.30,23.90,80.00,0.00,0.00,0.00,30.16,M,10.00,M,CLR,M,M,M,M,M,M,M,M,KY23 010935Z AUTO 00000KT 10SM CLR M01/M04 A3016 RMK AO2 T10151045
Y23,2017-04-01 09:55,-91.6381,45.3106,28.40,23.50,81.62,0.00,0.00,0.00,30.16,M,10.00,M,CLR,M,M,M,M,M,M,M,M,KY23 010955Z AUTO 00000KT 10SM CLR M02/M05 A3016 RMK AO2 T10201047
Y23,2017-04-01 10:15,-91.6381,45.3106,28.00,23.50,82.97,0.00,0.00,0.00,30.16,M,10.00,M,CLR,M,M,M,M,M,M,M,M,KY23 011015Z AUTO 00000KT 10SM CLR M02/M05 A3016 RMK AO2 T10221047
Y23,2017-04-01 10:35,-91.6381,45.3106,27.50,23.40,84.34,0.00,0.00,0.00,30.16,M,10.00,M,CLR,M,M,M,M,M,M,M,M,KY23 011035Z AUTO 00000KT 10SM CLR M02/M05 A3016 RMK AO2 T10251048
Y23,2017-04-01 10:55,-91.6381,45.3106,27.50,23.70,85.40,0.00,0.00,0.00,30.17,M,10.00,M,CLR,M,M,M,M,M,M,M,M,KY23 011055Z AUTO 00000KT 10SM CLR M02/M05 A3017 RMK AO2 T10251046
Y23,2017-04-01 11:15,-91.6381,45.3106,27.90,23.70,84.01,0.00,0.00,0.00,30.18,M,10.00,M,CLR,M,M,M,M,M,M,M,M,KY23 011115Z AUTO 00000KT 10SM CLR M02/M05 A3018 RMK AO2 T10231046
Y23,2017-04-01 11:35,-91.6381,45.3106,27.10,23.40,85.74,0.00,0.00,0.00,30.19,M,10.00,M,CLR,M,M,M,M,M,M,M,M,KY23 011135Z AUTO 00000KT 10SM CLR M03/M05 A3019 RMK AO2 T10271048
Y23,2017-04-01 11:55,-91.6381,45.3106,27.00,22.80,83.95,0.00,0.00,0.00,30.19,M,10.00,M,CLR,M,M,M,M,M,M,M,M,KY23 011155Z AUTO 00000KT 10SM CLR M03/M05 A3019 RMK AO2 T10281051 10000 21030
Y23,2017-04-01 12:15,-91.6381,45.3106,28.80,23.50,80.29,0.00,0.00,0.00,30.19,M,10.00,M,CLR,M,M,M,M,M,M,M,M,KY23 011215Z AUTO 00000KT 10SM CLR M02/M05 A3019 RMK AO2 T10181047
Y23,2017-04-01 12:35,-91.6381,45.3106,28.60,23.90,82.32,0.00,0.00,0.00,30.20,M,10.00,M,CLR,M,M,M,M,M,M,M,M,KY23 011235Z AUTO 00000KT 10SM CLR M02/M04 A3020 RMK AO2 T10191045
Y23,2017-04-01 12:55,-91.6381,45.3106,30.20,25.20,81.42,0.00,0.00,0.00,30.20,M,10.00,M,CLR,M,M,M,M,M,M,M,M,KY23 011255Z AUTO 00000KT 10SM CLR M01/M04 A3020 RMK AO2 T10101038
Y23,2017-04-01 13:15,-91.6381,45.3106,33.10,24.80,71.22,0.00,0.00,0.00,30.20,M,10.00,M,CLR,M,M,M,M,M,M,M,M,KY23 011315Z AUTO 00000KT 10SM CLR 01/M04 A3020 RMK AO2 T00061040
Y23,2017-04-01 13:35,-91.6381,45.3106,35.80,25.00,64.49,0.00,0.00,0.00,30.21,M,10.00,M,CLR,M,M,M,M,M,M,M,M,KY23 011335Z AUTO 00000KT 10SM CLR 02/M04 A3021 RMK AO2 T00211039
Y23,2017-04-01 13:55,-91.6381,45.3106,40.10,26.60,58.21,230.00,3.00,0.00,30.21,M,10.00,M,CLR,M,M,M,M,M,M,M,M,KY23 011355Z AUTO 23003KT 10SM CLR 05/M03 A3021 RMK AO2 T00451030
Y23,2017-04-01 14:15,-91.6381,45.3106,39.40,27.90,63.11,0.00,0.00,0.00,30.21,M,10.00,M,CLR,M,M,M,M,M,M,M,M,KY23 011415Z AUTO 00000KT 10SM CLR 04/M02 A3021 RMK AO2 T00411023
Y23,2017-04-01 14:35,-91.6381,45.3106,43.20,27.10,52.73,0.00,0.00,0.00,30.21,M,10.00,M,CLR,M,M,M,M,M,M,M,M,KY23 011435Z AUTO 00000KT 10SM CLR 06/M03 A3021 RMK AO2 T00621027
Y23,2017-04-01 14:55,-91.6381,45.3106,48.20,28.40,46.02,0.00,0.00,0.00,30.21,M,10.00,M,CLR,M,M,M,M,M,M,M,M,KY23 011455Z AUTO 00000KT 10SM CLR 09/M02 A3021 RMK AO2 T00901020
Y23,2017-04-01 15:15,-91.6381,45.3106,48.60,27.00,42.80,30.00,4.00,0.00,30.21,M,10.00,M,CLR,M,M,M,M,M,M,M,M,KY23 011515Z AUTO 03004KT 10SM CLR 09/M03 A3021 RMK AO2 T00921028
Y23,2017-04-01 15:35,-91.6381,45.3106,54.10,26.20,33.79,220.00,4.00,0.00,30.21,M,10.00,M,CLR,M,M,M,M,M,M,M,M,KY23 011535Z AUTO 22004KT 10SM CLR 12/M03 A3021 RMK AO2 T01231032
Y23,2017-04-01 15:55,-91.6381,45.3106,56.10,25.20,30.14,290.00,8.00,0.00,30.22,M,10.00,M,CLR,M,M,M,M,M,M,M,M,KY23 011555Z AUTO 29008KT 260V330 10SM CLR 13/M04 A3022 RMK AO2 T01341038
Y23,2017-04-01 16:15,-91.6381,45.3106,57.20,26.20,30.19,260.00,3.00,0.00,30.21,M,10.00,M,CLR,M,M,M,M,M,M,M,M,KY23 011615Z AUTO 26003KT 10SM CLR 14/M03 A3021 RMK AO2 T01401032
Y23,2017-04-01 16:35,-91.6381,45.3106,57.70,25.20,28.45,260.00,3.00,0.00,30.20,M,10.00,M,CLR,M,M,M,M,M,M,M,M,KY23 011635Z AUTO 26003KT 10SM CLR 14/M04 A3020 RMK AO2 T01431038
Y23,2017-04-01 16:55,-91.6381,45.3106,58.80,24.80,26.89,270.00,4.00,0.00,30.20,M,10.00,M,CLR,M,M,M,M,M,M,M,M,KY23 011655Z AUTO 27004KT 10SM CLR 15/M04 A3020 RMK AO2 T01491040
Y23,2017-04-01 17:15,-91.6381,45.3106,59.20,25.50,27.29,240.00,3.00,0.00,30.19,M,10.00,M,CLR,M,M,M,M,M,M,M,M,KY23 011715Z AUTO 24003KT 10SM CLR 15/M04 A3019 RMK AO2 T01511036
Y23,2017-04-01 17:35,-91.6381,45.3106,59.50,25.90,27.46,320.00,3.00,0.00,30.19,M,10.00,M,CLR,M,M,M,M,M,M,M,M,KY23 011735Z AUTO 32003KT 10SM CLR 15/M03 A3019 RMK AO2 T01531034
Y23,2017-04-01 17:55,-91.6381,45.3106,59.90,26.60,27.86,260.00,4.00,0.00,30.19,M,10.00,M,CLR,M,M,M,M,M,M,M,M,KY23 011755Z AUTO 26004KT 10SM CLR 16/M03 A3019 RMK AO2 T01551030 10159 21027
Y23,2017-04-01 18:15,-91.6381,45.3106,60.60,27.10,27.74,270.00,6.00,0.00,30.18,M,10.00,M,CLR,M,M,M,M,M,M,M,M,KY23 011815Z AUTO 27006KT 240V330 10SM CLR 16/M03 A3018 RMK AO2 T01591027
Y23,2017-04-01 18:35,-91.6381,45.3106,60.60,27.00,27.63,330.00,6.00,0.00,30.17,M,10.00,M,SCT,M,M,M,8500.00,M,M,M,M,KY23 011835Z AUTO 33006KT 10SM SCT085 16/M03 A3017 RMK AO2 T01591028
Y23,2017-04-01 18:55,-91.6381,45.3106,61.20,27.70,27.84,300.00,6.00,0.00,30.16,M,10.00,M,BKN,M,M,M,8500.00,M,M,M,M,KY23 011855Z AUTO 30006KT 10SM BKN085 16/M02 A3016 RMK AO2 T01621024
Y23,2017-04-01 19:15,-91.6381,45.3106,62.20,28.40,27.66,330.00,8.00,0.00,30.16,M,10.00,M,BKN,M,M,M,8500.00,M,M,M,M,KY23 011915Z AUTO 33008KT 290V350 10SM BKN085 17/M02 A3016 RMK AO2 T01681020
Y23,2017-04-01 19:35,-91.6381,45.3106,61.90,27.70,27.16,250.00,8.00,0.00,30.15,M,10.00,M,SCT,M,M,M,8500.00,M,M,M,M,KY23 011935Z AUTO 25008KT 10SM SCT085 17/M02 A3015 RMK AO2 T01661024
Y23,2017-04-01 19:55,-91.6381,45.3106,62.60,28.20,27.05,200.00,5.00,0.00,30.15,M,10.00,M,SCT,M,M,M,8000.00,M,M,M,M,KY23 011955Z AUTO 20005KT 10SM SCT080 17/M02 A3015 RMK AO2 T01701021
Y23,2017-04-01 20:15,-91.6381,45.3106,63.30,28.90,27.15,350.00,3.00,0.00,30.14,M,10.00,M,BKN,M,M,M,8000.00,M,M,M,M,KY23 012015Z AUTO 35003KT 10SM BKN080 17/M02 A3014 RMK AO2 T01741017
Y23,2017-04-01 20:35,-91.6381,45.3106,62.60,30.00,29.11,300.00,9.00,0.00,30.13,M,10.00,M,SCT,M,M,M,8000.00,M,M,M,M,KY23 012035Z AUTO 30009KT 10SM SCT080 17/M01 A3013 RMK AO2 T01701011
Y23,2017-04-01 20:55,-91.6381,45.3106,62.40,29.30,28.49,310.00,8.00,0.00,30.12,M,10.00,M,SCT,M,M,M,8000.00,M,M,M,M,KY23 012055Z AUTO 31008KT 190V030 10SM SCT080 17/M01 A3012 RMK AO2 T01691015
Y23,2017-04-01 21:15,-91.6381,45.3106,63.00,28.90,27.44,300.00,7.00,0.00,30.12,M,10.00,M,SCT,M,M,M,8000.00,M,M,M,M,KY23 012115Z AUTO 30007KT 10SM SCT080 17/M02 A3012 RMK AO2 T01721017
Y23,2017-04-01 21:35,-91.6381,45.3106,62.10,29.80,29.39,300.00,6.00,0.00,30.12,M,10.00,M,BKN,M,M,M,8000.00,M,M,M,M,KY23 012135Z AUTO 30006KT 10SM BKN080 17/M01 A3012 RMK AO2 T01671012
Y23,2017-04-01 21:55,-91.6381,45.3106,61.00,28.80,29.33,260.00,4.00,0.00,30.12,M,10.00,M,OVC,M,M,M,8000.00,M,M,M,M,KY23 012155Z AUTO 26004KT 10SM OVC080 16/M02 A3012 RMK AO2 T01611018
Y23,2017-04-01 22:15,-91.6381,45.3106,60.40,29.80,31.21,320.00,4.00,0.00,30.12,M,10.00,M,OVC,M,M,M,8000.00,M,M,M,M,KY23 012215Z AUTO 32004KT 10SM OVC080 16/M01 A3012 RMK AO2 T01581012
Y23,2017-04-01 22:35,-91.6381,45.3106,61.20,29.10,29.48,240.00,6.00,0.00,30.12,M,10.00,M,OVC,M,M,M,8000.00,M,M,M,M,KY23 012235Z AUTO 24006KT 10SM OVC080 16/M02 A3012 RMK AO2 T01621016
Y23,2017-04-01 22:55,-91.6381,45.3106,61.70,29.10,28.97,240.00,6.00,0.00,30.12,M,10.00,M,OVC,M,M,M,8000.00,M,M,M,M,KY23 012255Z AUTO 24006KT 10SM OVC080 17/M02 A3012 RMK AO2 T01651016
Y23,2017-04-01 23:15,-91.6381,45.3106,60.60,29.10,30.12,270.00,4.00,0.00,30.12,M,10.00,M,OVC,M,M,M,9000.00,M,M,M,M,KY23 012315Z AUTO 27004KT 10SM OVC090 16/M02 A3012 RMK AO2 T01591016
Y23,2017-04-01 23:35,-91.6381,45.3106,60.60,30.70,32.14,320.00,4.00,0.00,30.12,M,10.00,M,BKN,M,M,M,9000.00,M,M,M,M,KY23 012335Z AUTO 32004KT 10SM BKN090 16/M01 A3012 RMK AO2 T01591007
Y23,2017-04-01 23:55,-91.6381,45.3106,58.10,32.00,37.04,310.00,4.00,0.00,30.12,M,10.00,M,OVC,M,M,M,9000.00,M,M,M,M,KY23 012355Z AUTO 31004KT 10SM OVC090 15/00 A3012 RMK AO2 T01450000 10175 20145
